{
"type": "FeatureCollection",
"name": "SELECT",
"xy_coordinate_resolution": 1e-07,
"features": [
{"type":"Feature","properties":{},"geometry":{"type":"Point","coordinates":[8.6880362,50.0174813]}},
{"type":"Feature","properties":{},"geometry":{"type":"Point","coordinates":[8.6931289,50.0148667]}},
{"type":"Feature","properties":{},"geometry":{"type":"Point","coordinates":[8.6892806,50.0164365]}},
{"type":"Feature","properties":{},"geometry":{"type":"Point","coordinates":[8.6911725,50.0158912]}},
{"type":"Feature","properties":{},"geometry":{"type":"Point","coordinates":[8.6910115,50.015977]}},
{"type":"Feature","properties":{},"geometry":{"type":"Point","coordinates":[8.6880537,50.0165391]}},
{"type":"Feature","properties":{},"geometry":{"type":"Point","coordinates":[8.6915081,50.015649]}},
{"type":"Feature","properties":{},"geometry":{"type":"Point","coordinates":[8.6894438,50.0159473]}},
{"type":"Feature","properties":{},"geometry":{"type":"Point","coordinates":[8.6896999,50.0160794]}},
{"type":"Feature","properties":{},"geometry":{"type":"Point","coordinates":[8.6919921,50.015612]}},
{"type":"Feature","properties":{},"geometry":{"type":"Point","coordinates":[8.693081,50.0154803]}},
{"type":"Feature","properties":{},"geometry":{"type":"Point","coordinates":[8.6861708,50.0167618]}},
{"type":"Feature","properties":{},"geometry":{"type":"Point","coordinates":[8.6868344,50.0171931]}},
{"type":"Feature","properties":{},"geometry":{"type":"Point","coordinates":[8.6857186,50.0168005]}},
{"type":"Feature","properties":{},"geometry":{"type":"Point","coordinates":[8.690186,50.0170691]}},
{"type":"Feature","properties":{},"geometry":{"type":"Point","coordinates":[8.6900613,50.0157294]}},
{"type":"Feature","properties":{},"geometry":{"type":"Point","coordinates":[8.691689,50.0157706]}},
{"type":"Feature","properties":{},"geometry":{"type":"Point","coordinates":[8.6879607,50.0164263]}},
{"type":"Feature","properties":{},"geometry":{"type":"Point","coordinates":[8.6855216,50.0172505]}},
{"type":"Feature","properties":{},"geometry":{"type":"Point","coordinates":[8.6889074,50.0173986]}},
{"type":"Feature","properties":{},"geometry":{"type":"Point","coordinates":[8.688638,50.017242]}},
{"type":"Feature","properties":{},"geometry":{"type":"Point","coordinates":[8.6868151,50.0165165]}},
{"type":"Feature","properties":{},"geometry":{"type":"Point","coordinates":[8.69193,50.0151442]}},
{"type":"Feature","properties":{},"geometry":{"type":"Point","coordinates":[8.6945203,50.0150636]}},
{"type":"Feature","properties":{},"geometry":{"type":"Point","coordinates":[8.6897049,50.0152881]}},
{"type":"Feature","properties":{},"geometry":{"type":"Point","coordinates":[8.6879839,50.0173035]}},
{"type":"Feature","properties":{},"geometry":{"type":"Point","coordinates":[8.6921189,50.0141261]}},
{"type":"Feature","properties":{},"geometry":{"type":"Point","coordinates":[8.6874329,50.0163284]}},
{"type":"Feature","properties":{},"geometry":{"type":"Point","coordinates":[8.6901442,50.0168807]}},
{"type":"Feature","properties":{},"geometry":{"type":"Point","coordinates":[8.6943436,50.0149738]}},
{"type":"Feature","properties":{},"geometry":{"type":"Point","coordinates":[8.6887465,50.0163573]}},
{"type":"Feature","properties":{},"geometry":{"type":"Point","coordinates":[8.6853359,50.0172871]}},
{"type":"Feature","properties":{},"geometry":{"type":"Point","coordinates":[8.6905769,50.0152984]}},
{"type":"Feature","properties":{},"geometry":{"type":"Point","coordinates":[8.6918052,50.015713]}},
{"type":"Feature","properties":{},"geometry":{"type":"Point","coordinates":[8.6937714,50.0155067]}},
{"type":"Feature","properties":{},"geometry":{"type":"Point","coordinates":[8.6893507,50.0171722]}},
{"type":"Feature","properties":{},"geometry":{"type":"Point","coordinates":[8.6904657,50.0155883]}},
{"type":"Feature","properties":{},"geometry":{"type":"Point","coordinates":[8.6853197,50.0171894]}},
{"type":"Feature","properties":{},"geometry":{"type":"Point","coordinates":[8.6903638,50.0154316]}},
{"type":"Feature","properties":{},"geometry":{"type":"Point","coordinates":[8.6916195,50.0143249]}},
{"type":"Feature","properties":{},"geometry":{"type":"Point","coordinates":[8.6901305,50.0159104]}},
{"type":"Feature","properties":{},"geometry":{"type":"Point","coordinates":[8.6901605,50.016949]}},
{"type":"Feature","properties":{},"geometry":{"type":"Point","coordinates":[8.6883565,50.0174485]}},
{"type":"Feature","properties":{},"geometry":{"type":"Point","coordinates":[8.6925728,50.0151168]}},
{"type":"Feature","properties":{},"geometry":{"type":"Point","coordinates":[8.6863435,50.0174581]}},
{"type":"Feature","properties":{},"geometry":{"type":"Point","coordinates":[8.6907366,50.0153269]}},
{"type":"Feature","properties":{},"geometry":{"type":"Point","coordinates":[8.691284,50.0145996]}},
{"type":"Feature","properties":{},"geometry":{"type":"Point","coordinates":[8.6886791,50.0158975]}},
{"type":"Feature","properties":{},"geometry":{"type":"Point","coordinates":[8.6902842,50.0155095]}},
{"type":"Feature","properties":{},"geometry":{"type":"Point","coordinates":[8.6928689,50.0156655]}},
{"type":"Feature","properties":{},"geometry":{"type":"Point","coordinates":[8.6901216,50.0161015]}},
{"type":"Feature","properties":{},"geometry":{"type":"Point","coordinates":[8.6923292,50.013953]}},
{"type":"Feature","properties":{},"geometry":{"type":"Point","coordinates":[8.6930615,50.0149687]}},
{"type":"Feature","properties":{},"geometry":{"type":"Point","coordinates":[8.6877243,50.0165624]}},
{"type":"Feature","properties":{},"geometry":{"type":"Point","coordinates":[8.6915973,50.0158643]}},
{"type":"Feature","properties":{},"geometry":{"type":"Point","coordinates":[8.6907834,50.0146106]}},
{"type":"Feature","properties":{},"geometry":{"type":"Point","coordinates":[8.6918532,50.0149768]}},
{"type":"Feature","properties":{},"geometry":{"type":"Point","coordinates":[8.6896583,50.0157678]}},
{"type":"Feature","properties":{},"geometry":{"type":"Point","coordinates":[8.692577,50.013749]}},
{"type":"Feature","properties":{},"geometry":{"type":"Point","coordinates":[8.6898445,50.0162437]}},
{"type":"Feature","properties":{},"geometry":{"type":"Point","coordinates":[8.6887157,50.0174215]}},
{"type":"Feature","properties":{},"geometry":{"type":"Point","coordinates":[8.6870284,50.0173889]}},
{"type":"Feature","properties":{},"geometry":{"type":"Point","coordinates":[8.6938917,50.0147396]}},
{"type":"Feature","properties":{},"geometry":{"type":"Point","coordinates":[8.6931826,50.015511]}},
{"type":"Feature","properties":{},"geometry":{"type":"Point","coordinates":[8.6908782,50.0152666]}},
{"type":"Feature","properties":{},"geometry":{"type":"Point","coordinates":[8.6894707,50.015484]}},
{"type":"Feature","properties":{},"geometry":{"type":"Point","coordinates":[8.6942679,50.0152734]}},
{"type":"Feature","properties":{},"geometry":{"type":"Point","coordinates":[8.6884213,50.0172614]}},
{"type":"Feature","properties":{},"geometry":{"type":"Point","coordinates":[8.6938807,50.0154701]}},
{"type":"Feature","properties":{},"geometry":{"type":"Point","coordinates":[8.690267,50.0157788]}},
{"type":"Feature","properties":{},"geometry":{"type":"Point","coordinates":[8.6895098,50.01718]}},
{"type":"Feature","properties":{},"geometry":{"type":"Point","coordinates":[8.6896961,50.0173277]}},
{"type":"Feature","properties":{},"geometry":{"type":"Point","coordinates":[8.6854948,50.017134]}},
{"type":"Feature","properties":{},"geometry":{"type":"Point","coordinates":[8.6875781,50.0173138]}},
{"type":"Feature","properties":{},"geometry":{"type":"Point","coordinates":[8.6896049,50.0159954]}},
{"type":"Feature","properties":{},"geometry":{"type":"Point","coordinates":[8.6876365,50.01752]}},
{"type":"Feature","properties":{},"geometry":{"type":"Point","coordinates":[8.6887912,50.0155805]}},
{"type":"Feature","properties":{},"geometry":{"type":"Point","coordinates":[8.6856439,50.0177792]}},
{"type":"Feature","properties":{},"geometry":{"type":"Point","coordinates":[8.6918253,50.014457]}},
{"type":"Feature","properties":{},"geometry":{"type":"Point","coordinates":[8.6892365,50.0173714]}},
{"type":"Feature","properties":{},"geometry":{"type":"Point","coordinates":[8.6891259,50.0164493]}},
{"type":"Feature","properties":{},"geometry":{"type":"Point","coordinates":[8.6882792,50.0159436]}},
{"type":"Feature","properties":{},"geometry":{"type":"Point","coordinates":[8.6878948,50.0165509]}},
{"type":"Feature","properties":{},"geometry":{"type":"Point","coordinates":[8.6915045,50.0144192]}},
{"type":"Feature","properties":{},"geometry":{"type":"Point","coordinates":[8.6913471,50.0149204]}},
{"type":"Feature","properties":{},"geometry":{"type":"Point","coordinates":[8.6910231,50.0145095]}},
{"type":"Feature","properties":{},"geometry":{"type":"Point","coordinates":[8.6905385,50.0155129]}},
{"type":"Feature","properties":{},"geometry":{"type":"Point","coordinates":[8.6902767,50.0147108]}},
{"type":"Feature","properties":{},"geometry":{"type":"Point","coordinates":[8.6943443,50.0152122]}},
{"type":"Feature","properties":{},"geometry":{"type":"Point","coordinates":[8.6875837,50.0162559]}},
{"type":"Feature","properties":{},"geometry":{"type":"Point","coordinates":[8.6928231,50.0149368]}},
{"type":"Feature","properties":{},"geometry":{"type":"Point","coordinates":[8.6926579,50.0150214]}},
{"type":"Feature","properties":{},"geometry":{"type":"Point","coordinates":[8.6934926,50.0156266]}},
{"type":"Feature","properties":{},"geometry":{"type":"Point","coordinates":[8.6940174,50.0154125]}},
{"type":"Feature","properties":{},"geometry":{"type":"Point","coordinates":[8.6900247,50.014926]}},
{"type":"Feature","properties":{},"geometry":{"type":"Point","coordinates":[8.690457,50.0153484]}},
{"type":"Feature","properties":{},"geometry":{"type":"Point","coordinates":[8.6934436,50.014367]}},
{"type":"Feature","properties":{},"geometry":{"type":"Point","coordinates":[8.6899317,50.0154445]}},
{"type":"Feature","properties":{},"geometry":{"type":"Point","coordinates":[8.6888226,50.0164743]}},
{"type":"Feature","properties":{},"geometry":{"type":"Point","coordinates":[8.6910628,50.0151567]}},
{"type":"Feature","properties":{},"geometry":{"type":"Point","coordinates":[8.6882635,50.016521]}},
{"type":"Feature","properties":{},"geometry":{"type":"Point","coordinates":[8.6921686,50.015145]}},
{"type":"Feature","properties":{},"geometry":{"type":"Point","coordinates":[8.6916214,50.0145396]}},
{"type":"Feature","properties":{},"geometry":{"type":"Point","coordinates":[8.6917308,50.0161548]}},
{"type":"Feature","properties":{},"geometry":{"type":"Point","coordinates":[8.6851915,50.0168541]}},
{"type":"Feature","properties":{},"geometry":{"type":"Point","coordinates":[8.6865538,50.0174388]}},
{"type":"Feature","properties":{},"geometry":{"type":"Point","coordinates":[8.6936433,50.0155087]}},
{"type":"Feature","properties":{},"geometry":{"type":"Point","coordinates":[8.6872861,50.0173585]}},
{"type":"Feature","properties":{},"geometry":{"type":"Point","coordinates":[8.6901097,50.0148428]}},
{"type":"Feature","properties":{},"geometry":{"type":"Point","coordinates":[8.6934258,50.014708]}},
{"type":"Feature","properties":{},"geometry":{"type":"Point","coordinates":[8.6896607,50.017151]}},
{"type":"Feature","properties":{},"geometry":{"type":"Point","coordinates":[8.6918467,50.0141321]}},
{"type":"Feature","properties":{},"geometry":{"type":"Point","coordinates":[8.6891954,50.0171923]}},
{"type":"Feature","properties":{},"geometry":{"type":"Point","coordinates":[8.685574,50.0175392]}},
{"type":"Feature","properties":{},"geometry":{"type":"Point","coordinates":[8.6884369,50.0158272]}},
{"type":"Feature","properties":{},"geometry":{"type":"Point","coordinates":[8.6902887,50.0174996]}},
{"type":"Feature","properties":{},"geometry":{"type":"Point","coordinates":[8.6901566,50.0157053]}},
{"type":"Feature","properties":{},"geometry":{"type":"Point","coordinates":[8.6929448,50.0139378]}},
{"type":"Feature","properties":{},"geometry":{"type":"Point","coordinates":[8.6907561,50.015054]}},
{"type":"Feature","properties":{},"geometry":{"type":"Point","coordinates":[8.6877053,50.0162029]}},
{"type":"Feature","properties":{},"geometry":{"type":"Point","coordinates":[8.6880821,50.0172983]}},
{"type":"Feature","properties":{},"geometry":{"type":"Point","coordinates":[8.691694,50.0148976]}},
{"type":"Feature","properties":{},"geometry":{"type":"Point","coordinates":[8.6880093,50.0160651]}},
{"type":"Feature","properties":{},"geometry":{"type":"Point","coordinates":[8.6913978,50.0159247]}},
{"type":"Feature","properties":{},"geometry":{"type":"Point","coordinates":[8.6854664,50.016784]}},
{"type":"Feature","properties":{},"geometry":{"type":"Point","coordinates":[8.6932177,50.0156701]}},
{"type":"Feature","properties":{},"geometry":{"type":"Point","coordinates":[8.6881294,50.0160128]}},
{"type":"Feature","properties":{},"geometry":{"type":"Point","coordinates":[8.6936503,50.0156891]}},
{"type":"Feature","properties":{},"geometry":{"type":"Point","coordinates":[8.6875422,50.016898]}},
{"type":"Feature","properties":{},"geometry":{"type":"Point","coordinates":[8.6884415,50.0165038]}},
{"type":"Feature","properties":{},"geometry":{"type":"Point","coordinates":[8.6921815,50.0147523]}},
{"type":"Feature","properties":{},"geometry":{"type":"Point","coordinates":[8.690959,50.0148684]}},
{"type":"Feature","properties":{},"geometry":{"type":"Point","coordinates":[8.6916372,50.0154092]}},
{"type":"Feature","properties":{},"geometry":{"type":"Point","coordinates":[8.6921297,50.0155987]}},
{"type":"Feature","properties":{},"geometry":{"type":"Point","coordinates":[8.6889125,50.017219]}},
{"type":"Feature","properties":{},"geometry":{"type":"Point","coordinates":[8.6857845,50.017706]}},
{"type":"Feature","properties":{},"geometry":{"type":"Point","coordinates":[8.6922297,50.0162706]}},
{"type":"Feature","properties":{},"geometry":{"type":"Point","coordinates":[8.6885608,50.0174396]}},
{"type":"Feature","properties":{},"geometry":{"type":"Point","coordinates":[8.6919549,50.0142608]}},
{"type":"Feature","properties":{},"geometry":{"type":"Point","coordinates":[8.6859111,50.0175038]}},
{"type":"Feature","properties":{},"geometry":{"type":"Point","coordinates":[8.6924138,50.0152243]}},
{"type":"Feature","properties":{},"geometry":{"type":"Point","coordinates":[8.6882328,50.016397]}},
{"type":"Feature","properties":{},"geometry":{"type":"Point","coordinates":[8.6872364,50.0173715]}},
{"type":"Feature","properties":{},"geometry":{"type":"Point","coordinates":[8.6901011,50.0166914]}},
{"type":"Feature","properties":{},"geometry":{"type":"Point","coordinates":[8.6911076,50.0147569]}},
{"type":"Feature","properties":{},"geometry":{"type":"Point","coordinates":[8.6875309,50.0170468]}},
{"type":"Feature","properties":{},"geometry":{"type":"Point","coordinates":[8.686511,50.0178485]}},
{"type":"Feature","properties":{},"geometry":{"type":"Point","coordinates":[8.6872999,50.0175547]}},
{"type":"Feature","properties":{},"geometry":{"type":"Point","coordinates":[8.6864012,50.0176396]}},
{"type":"Feature","properties":{},"geometry":{"type":"Point","coordinates":[8.6894365,50.0164211]}},
{"type":"Feature","properties":{},"geometry":{"type":"Point","coordinates":[8.6881215,50.0164091]}},
{"type":"Feature","properties":{},"geometry":{"type":"Point","coordinates":[8.6928092,50.0157354]}},
{"type":"Feature","properties":{},"geometry":{"type":"Point","coordinates":[8.6890638,50.016303]}},
{"type":"Feature","properties":{},"geometry":{"type":"Point","coordinates":[8.6890836,50.0172019]}},
{"type":"Feature","properties":{},"geometry":{"type":"Point","coordinates":[8.6886363,50.0160483]}},
{"type":"Feature","properties":{},"geometry":{"type":"Point","coordinates":[8.6921813,50.0152836]}},
{"type":"Feature","properties":{},"geometry":{"type":"Point","coordinates":[8.6915074,50.0137226]}},
{"type":"Feature","properties":{},"geometry":{"type":"Point","coordinates":[8.6928285,50.0150809]}},
{"type":"Feature","properties":{},"geometry":{"type":"Point","coordinates":[8.6927472,50.0155947]}},
{"type":"Feature","properties":{},"geometry":{"type":"Point","coordinates":[8.6915746,50.0154612]}},
{"type":"Feature","properties":{},"geometry":{"type":"Point","coordinates":[8.6917439,50.0155415]}},
{"type":"Feature","properties":{},"geometry":{"type":"Point","coordinates":[8.6902677,50.0174105]}},
{"type":"Feature","properties":{},"geometry":{"type":"Point","coordinates":[8.6924091,50.0159648]}},
{"type":"Feature","properties":{},"geometry":{"type":"Point","coordinates":[8.6915552,50.014946]}},
{"type":"Feature","properties":{},"geometry":{"type":"Point","coordinates":[8.6906336,50.0154163]}},
{"type":"Feature","properties":{},"geometry":{"type":"Point","coordinates":[8.6859425,50.0176857]}},
{"type":"Feature","properties":{},"geometry":{"type":"Point","coordinates":[8.6914666,50.0147749]}},
{"type":"Feature","properties":{},"geometry":{"type":"Point","coordinates":[8.6902986,50.0146874]}},
{"type":"Feature","properties":{},"geometry":{"type":"Point","coordinates":[8.6913236,50.0138459]}},
{"type":"Feature","properties":{},"geometry":{"type":"Point","coordinates":[8.6911697,50.0139527]}},
{"type":"Feature","properties":{},"geometry":{"type":"Point","coordinates":[8.6916408,50.013638]}},
{"type":"Feature","properties":{},"geometry":{"type":"Point","coordinates":[8.6932792,50.0146194]}},
{"type":"Feature","properties":{},"geometry":{"type":"Point","coordinates":[8.6933726,50.0145433]}},
{"type":"Feature","properties":{},"geometry":{"type":"Point","coordinates":[8.6901515,50.0172838]}},
{"type":"Feature","properties":{},"geometry":{"type":"Point","coordinates":[8.6899896,50.0149642]}},
{"type":"Feature","properties":{},"geometry":{"type":"Point","coordinates":[8.6933403,50.0155711]}},
{"type":"Feature","properties":{},"geometry":{"type":"Point","coordinates":[8.6871502,50.0168716]}},
{"type":"Feature","properties":{},"geometry":{"type":"Point","coordinates":[8.6904269,50.0156926]}},
{"type":"Feature","properties":{},"geometry":{"type":"Point","coordinates":[8.6877522,50.0173269]}},
{"type":"Feature","properties":{},"geometry":{"type":"Point","coordinates":[8.6885464,50.0163389]}},
{"type":"Feature","properties":{},"geometry":{"type":"Point","coordinates":[8.6873014,50.0170667]}},
{"type":"Feature","properties":{},"geometry":{"type":"Point","coordinates":[8.692942,50.0150469]}},
{"type":"Feature","properties":{},"geometry":{"type":"Point","coordinates":[8.6888311,50.0169018]}},
{"type":"Feature","properties":{},"geometry":{"type":"Point","coordinates":[8.6866518,50.0176123]}},
{"type":"Feature","properties":{},"geometry":{"type":"Point","coordinates":[8.6929895,50.0147872]}},
{"type":"Feature","properties":{},"geometry":{"type":"Point","coordinates":[8.6922793,50.0155124]}},
{"type":"Feature","properties":{},"geometry":{"type":"Point","coordinates":[8.6882474,50.0172715]}},
{"type":"Feature","properties":{},"geometry":{"type":"Point","coordinates":[8.6902548,50.0156004]}},
{"type":"Feature","properties":{},"geometry":{"type":"Point","coordinates":[8.6928906,50.0148886]}},
{"type":"Feature","properties":{},"geometry":{"type":"Point","coordinates":[8.6906785,50.0152007]}},
{"type":"Feature","properties":{},"geometry":{"type":"Point","coordinates":[8.690914,50.0146522]}},
{"type":"Feature","properties":{},"geometry":{"type":"Point","coordinates":[8.6920393,50.015393]}},
{"type":"Feature","properties":{},"geometry":{"type":"Point","coordinates":[8.6926268,50.016408]}},
{"type":"Feature","properties":{},"geometry":{"type":"Point","coordinates":[8.6934358,50.0157571]}},
{"type":"Feature","properties":{},"geometry":{"type":"Point","coordinates":[8.691725,50.0150882]}},
{"type":"Feature","properties":{},"geometry":{"type":"Point","coordinates":[8.6860255,50.0167734]}},
{"type":"Feature","properties":{},"geometry":{"type":"Point","coordinates":[8.694081,50.014835]}},
{"type":"Feature","properties":{},"geometry":{"type":"Point","coordinates":[8.6932454,50.0141965]}},
{"type":"Feature","properties":{},"geometry":{"type":"Point","coordinates":[8.6867255,50.0169088]}},
{"type":"Feature","properties":{},"geometry":{"type":"Point","coordinates":[8.689444,50.0156004]}},
{"type":"Feature","properties":{},"geometry":{"type":"Point","coordinates":[8.6926345,50.0152145]}},
{"type":"Feature","properties":{},"geometry":{"type":"Point","coordinates":[8.6921799,50.0138588]}},
{"type":"Feature","properties":{},"geometry":{"type":"Point","coordinates":[8.6918987,50.016186]}},
{"type":"Feature","properties":{},"geometry":{"type":"Point","coordinates":[8.6852594,50.0170376]}},
{"type":"Feature","properties":{},"geometry":{"type":"Point","coordinates":[8.6938086,50.0147018]}},
{"type":"Feature","properties":{},"geometry":{"type":"Point","coordinates":[8.6895433,50.0173417]}},
{"type":"Feature","properties":{},"geometry":{"type":"Point","coordinates":[8.6878713,50.0161215]}},
{"type":"Feature","properties":{},"geometry":{"type":"Point","coordinates":[8.6873518,50.0164088]}},
{"type":"Feature","properties":{},"geometry":{"type":"Point","coordinates":[8.6893567,50.015814]}},
{"type":"Feature","properties":{},"geometry":{"type":"Point","coordinates":[8.6892246,50.0157072]}},
{"type":"Feature","properties":{},"geometry":{"type":"Point","coordinates":[8.6924085,50.0160449]}},
{"type":"Feature","properties":{},"geometry":{"type":"Point","coordinates":[8.6900815,50.0166085]}},
{"type":"Feature","properties":{},"geometry":{"type":"Point","coordinates":[8.6907226,50.0161224]}},
{"type":"Feature","properties":{},"geometry":{"type":"Point","coordinates":[8.6897339,50.0163989]}},
{"type":"Feature","properties":{},"geometry":{"type":"Point","coordinates":[8.6902267,50.0161839]}},
{"type":"Feature","properties":{},"geometry":{"type":"Point","coordinates":[8.6879163,50.017486]}},
{"type":"Feature","properties":{},"geometry":{"type":"Point","coordinates":[8.6934961,50.01441]}},
{"type":"Feature","properties":{},"geometry":{"type":"Point","coordinates":[8.6932502,50.0147818]}},
{"type":"Feature","properties":{},"geometry":{"type":"Point","coordinates":[8.6941667,50.0150838]}},
{"type":"Feature","properties":{},"geometry":{"type":"Point","coordinates":[8.6901176,50.0167516]}},
{"type":"Feature","properties":{},"geometry":{"type":"Point","coordinates":[8.6893953,50.0173567]}},
{"type":"Feature","properties":{},"geometry":{"type":"Point","coordinates":[8.6898641,50.015171]}},
{"type":"Feature","properties":{},"geometry":{"type":"Point","coordinates":[8.6898781,50.015916]}},
{"type":"Feature","properties":{},"geometry":{"type":"Point","coordinates":[8.6909004,50.0141544]}},
{"type":"Feature","properties":{},"geometry":{"type":"Point","coordinates":[8.6924915,50.0158643]}},
{"type":"Feature","properties":{},"geometry":{"type":"Point","coordinates":[8.6889617,50.0164628]}},
{"type":"Feature","properties":{},"geometry":{"type":"Point","coordinates":[8.6888082,50.0167909]}},
{"type":"Feature","properties":{},"geometry":{"type":"Point","coordinates":[8.6861105,50.0176662]}},
{"type":"Feature","properties":{},"geometry":{"type":"Point","coordinates":[8.6872888,50.0171162]}},
{"type":"Feature","properties":{},"geometry":{"type":"Point","coordinates":[8.6929954,50.0142166]}},
{"type":"Feature","properties":{},"geometry":{"type":"Point","coordinates":[8.6871281,50.0175646]}},
{"type":"Feature","properties":{},"geometry":{"type":"Point","coordinates":[8.6916244,50.0150405]}},
{"type":"Feature","properties":{},"geometry":{"type":"Point","coordinates":[8.6920184,50.0162613]}},
{"type":"Feature","properties":{},"geometry":{"type":"Point","coordinates":[8.6928266,50.013828]}},
{"type":"Feature","properties":{},"geometry":{"type":"Point","coordinates":[8.6884403,50.01601]}},
{"type":"Feature","properties":{},"geometry":{"type":"Point","coordinates":[8.6930575,50.0140348]}},
{"type":"Feature","properties":{},"geometry":{"type":"Point","coordinates":[8.6920025,50.0140066]}},
{"type":"Feature","properties":{},"geometry":{"type":"Point","coordinates":[8.6912022,50.0158352]}},
{"type":"Feature","properties":{},"geometry":{"type":"Point","coordinates":[8.6928179,50.0154023]}},
{"type":"Feature","properties":{},"geometry":{"type":"Point","coordinates":[8.6894919,50.0154629]}},
{"type":"Feature","properties":{},"geometry":{"type":"Point","coordinates":[8.6908896,50.0160399]}},
{"type":"Feature","properties":{},"geometry":{"type":"Point","coordinates":[8.6936427,50.0145979]}},
{"type":"Feature","properties":{},"geometry":{"type":"Point","coordinates":[8.694431,50.0151178]}},
{"type":"Feature","properties":{},"geometry":{"type":"Point","coordinates":[8.6925731,50.015315]}},
{"type":"Feature","properties":{},"geometry":{"type":"Point","coordinates":[8.6875571,50.0165873]}},
{"type":"Feature","properties":{},"geometry":{"type":"Point","coordinates":[8.6877547,50.0164387]}},
{"type":"Feature","properties":{},"geometry":{"type":"Point","coordinates":[8.6854009,50.0179678]}},
{"type":"Feature","properties":{},"geometry":{"type":"Point","coordinates":[8.6907361,50.0143494]}},
{"type":"Feature","properties":{},"geometry":{"type":"Point","coordinates":[8.6906349,50.0161709]}},
{"type":"Feature","properties":{},"geometry":{"type":"Point","coordinates":[8.68913,50.0173814]}},
{"type":"Feature","properties":{},"geometry":{"type":"Point","coordinates":[8.6902143,50.0158316]}},
{"type":"Feature","properties":{},"geometry":{"type":"Point","coordinates":[8.6860928,50.0174864]}},
{"type":"Feature","properties":{},"geometry":{"type":"Point","coordinates":[8.68577,50.0175138]}},
{"type":"Feature","properties":{},"geometry":{"type":"Point","coordinates":[8.6899849,50.015846]}},
{"type":"Feature","properties":{},"geometry":{"type":"Point","coordinates":[8.6869331,50.0175898]}},
{"type":"Feature","properties":{},"geometry":{"type":"Point","coordinates":[8.6875163,50.0167625]}},
{"type":"Feature","properties":{},"geometry":{"type":"Point","coordinates":[8.6908864,50.0150039]}},
{"type":"Feature","properties":{},"geometry":{"type":"Point","coordinates":[8.6866536,50.0172141]}},
{"type":"Feature","properties":{},"geometry":{"type":"Point","coordinates":[8.6908721,50.0144314]}},
{"type":"Feature","properties":{},"geometry":{"type":"Point","coordinates":[8.6929141,50.0154283]}},
{"type":"Feature","properties":{},"geometry":{"type":"Point","coordinates":[8.6916301,50.0148487]}},
{"type":"Feature","properties":{},"geometry":{"type":"Point","coordinates":[8.6866256,50.0174316]}},
{"type":"Feature","properties":{},"geometry":{"type":"Point","coordinates":[8.6880833,50.0161654]}},
{"type":"Feature","properties":{},"geometry":{"type":"Point","coordinates":[8.691732,50.014229]}},
{"type":"Feature","properties":{},"geometry":{"type":"Point","coordinates":[8.6897127,50.0158564]}},
{"type":"Feature","properties":{},"geometry":{"type":"Point","coordinates":[8.6852448,50.0169806]}},
{"type":"Feature","properties":{},"geometry":{"type":"Point","coordinates":[8.6898933,50.0150715]}},
{"type":"Feature","properties":{},"geometry":{"type":"Point","coordinates":[8.6881976,50.0174643]}},
{"type":"Feature","properties":{},"geometry":{"type":"Point","coordinates":[8.6866368,50.0171445]}},
{"type":"Feature","properties":{},"geometry":{"type":"Point","coordinates":[8.6910701,50.0140245]}},
{"type":"Feature","properties":{},"geometry":{"type":"Point","coordinates":[8.6853741,50.0174746]}},
{"type":"Feature","properties":{},"geometry":{"type":"Point","coordinates":[8.6919712,50.0142486]}},
{"type":"Feature","properties":{},"geometry":{"type":"Point","coordinates":[8.6921344,50.0135401]}},
{"type":"Feature","properties":{},"geometry":{"type":"Point","coordinates":[8.6903714,50.0146106]}},
{"type":"Feature","properties":{},"geometry":{"type":"Point","coordinates":[8.6905488,50.0145427]}},
{"type":"Feature","properties":{},"geometry":{"type":"Point","coordinates":[8.6985629,50.0201572]}},
{"type":"Feature","properties":{},"geometry":{"type":"Point","coordinates":[8.698252,50.0201816]}},
{"type":"Feature","properties":{},"geometry":{"type":"Point","coordinates":[8.6980146,50.0202306]}},
{"type":"Feature","properties":{},"geometry":{"type":"Point","coordinates":[8.6977656,50.0202043]}},
{"type":"Feature","properties":{},"geometry":{"type":"Point","coordinates":[8.6973877,50.0202585]}},
{"type":"Feature","properties":{},"geometry":{"type":"Point","coordinates":[8.6971947,50.0202292]}},
{"type":"Feature","properties":{},"geometry":{"type":"Point","coordinates":[8.6969846,50.0202556]}},
{"type":"Feature","properties":{},"geometry":{"type":"Point","coordinates":[8.6969125,50.0201605]}},
{"type":"Feature","properties":{},"geometry":{"type":"Point","coordinates":[8.6968107,50.0200227]}},
{"type":"Feature","properties":{},"geometry":{"type":"Point","coordinates":[8.696627,50.0198655]}},
{"type":"Feature","properties":{},"geometry":{"type":"Point","coordinates":[8.6965855,50.0197088]}},
{"type":"Feature","properties":{},"geometry":{"type":"Point","coordinates":[8.6965249,50.0196636]}},
{"type":"Feature","properties":{},"geometry":{"type":"Point","coordinates":[8.699371,50.0202962]}},
{"type":"Feature","properties":{},"geometry":{"type":"Point","coordinates":[8.6997776,50.0202306]}},
{"type":"Feature","properties":{},"geometry":{"type":"Point","coordinates":[8.7002216,50.0202427]}},
{"type":"Feature","properties":{},"geometry":{"type":"Point","coordinates":[8.7006115,50.0201346]}},
{"type":"Feature","properties":{},"geometry":{"type":"Point","coordinates":[8.7006256,50.0201709]}},
{"type":"Feature","properties":{},"geometry":{"type":"Point","coordinates":[8.7007215,50.0201991]}},
{"type":"Feature","properties":{},"geometry":{"type":"Point","coordinates":[8.7010294,50.0201006]}},
{"type":"Feature","properties":{},"geometry":{"type":"Point","coordinates":[8.7010107,50.0203219]}},
{"type":"Feature","properties":{},"geometry":{"type":"Point","coordinates":[8.700645,50.0204879]}},
{"type":"Feature","properties":{},"geometry":{"type":"Point","coordinates":[8.7003719,50.0206372]}},
{"type":"Feature","properties":{},"geometry":{"type":"Point","coordinates":[8.7000617,50.0205263]}},
{"type":"Feature","properties":{},"geometry":{"type":"Point","coordinates":[8.696432,50.0195491]}},
{"type":"Feature","properties":{},"geometry":{"type":"Point","coordinates":[8.6963707,50.0194576]}},
{"type":"Feature","properties":{},"geometry":{"type":"Point","coordinates":[8.696686,50.0194737]}},
{"type":"Feature","properties":{},"geometry":{"type":"Point","coordinates":[8.696689,50.0194251]}},
{"type":"Feature","properties":{},"geometry":{"type":"Point","coordinates":[8.6966424,50.019379]}},
{"type":"Feature","properties":{},"geometry":{"type":"Point","coordinates":[8.6962594,50.0193239]}},
{"type":"Feature","properties":{},"geometry":{"type":"Point","coordinates":[8.6961669,50.0192076]}},
{"type":"Feature","properties":{},"geometry":{"type":"Point","coordinates":[8.696113,50.0191068]}},
{"type":"Feature","properties":{},"geometry":{"type":"Point","coordinates":[8.6960991,50.0189755]}},
{"type":"Feature","properties":{},"geometry":{"type":"Point","coordinates":[8.6963062,50.0190241]}},
{"type":"Feature","properties":{},"geometry":{"type":"Point","coordinates":[8.6964442,50.0190538]}},
{"type":"Feature","properties":{},"geometry":{"type":"Point","coordinates":[8.6968925,50.0191475]}},
{"type":"Feature","properties":{},"geometry":{"type":"Point","coordinates":[8.6970433,50.0191572]}},
{"type":"Feature","properties":{},"geometry":{"type":"Point","coordinates":[8.6972123,50.0191741]}},
{"type":"Feature","properties":{},"geometry":{"type":"Point","coordinates":[8.6973557,50.0191979]}},
{"type":"Feature","properties":{},"geometry":{"type":"Point","coordinates":[8.6975593,50.0191713]}},
{"type":"Feature","properties":{},"geometry":{"type":"Point","coordinates":[8.6977287,50.0191873]}},
{"type":"Feature","properties":{},"geometry":{"type":"Point","coordinates":[8.6979164,50.0192415]}},
{"type":"Feature","properties":{},"geometry":{"type":"Point","coordinates":[8.6976607,50.0195162]}},
{"type":"Feature","properties":{},"geometry":{"type":"Point","coordinates":[8.6989805,50.0205313]}},
{"type":"Feature","properties":{},"geometry":{"type":"Point","coordinates":[8.6990693,50.0204389]}},
{"type":"Feature","properties":{},"geometry":{"type":"Point","coordinates":[8.6991774,50.0206066]}},
{"type":"Feature","properties":{},"geometry":{"type":"Point","coordinates":[8.6993161,50.0208236]}},
{"type":"Feature","properties":{},"geometry":{"type":"Point","coordinates":[8.6995627,50.0208945]}},
{"type":"Feature","properties":{},"geometry":{"type":"Point","coordinates":[8.7001527,50.020829]}},
{"type":"Feature","properties":{},"geometry":{"type":"Point","coordinates":[8.6998984,50.0206927]}},
{"type":"Feature","properties":{},"geometry":{"type":"Point","coordinates":[8.6995752,50.0205913]}},
{"type":"Feature","properties":{},"geometry":{"type":"Point","coordinates":[8.6978713,50.0206233]}},
{"type":"Feature","properties":{},"geometry":{"type":"Point","coordinates":[8.6979587,50.0206206]}},
{"type":"Feature","properties":{},"geometry":{"type":"Point","coordinates":[8.6980742,50.0206174]}},
{"type":"Feature","properties":{},"geometry":{"type":"Point","coordinates":[8.6981931,50.0205671]}},
{"type":"Feature","properties":{},"geometry":{"type":"Point","coordinates":[8.6983666,50.0206105]}},
{"type":"Feature","properties":{},"geometry":{"type":"Point","coordinates":[8.6984473,50.0205808]}},
{"type":"Feature","properties":{},"geometry":{"type":"Point","coordinates":[8.6985855,50.0206036]}},
{"type":"Feature","properties":{},"geometry":{"type":"Point","coordinates":[8.6987403,50.0205969]}},
{"type":"Feature","properties":{},"geometry":{"type":"Point","coordinates":[8.6988286,50.0209408]}},
{"type":"Feature","properties":{},"geometry":{"type":"Point","coordinates":[8.6988441,50.0207111]}},
{"type":"Feature","properties":{},"geometry":{"type":"Point","coordinates":[8.6989325,50.0206254]}},
{"type":"Feature","properties":{},"geometry":{"type":"Point","coordinates":[8.6988412,50.0205457]}},
{"type":"Feature","properties":{},"geometry":{"type":"Point","coordinates":[8.6989931,50.0208548]}},
{"type":"Feature","properties":{},"geometry":{"type":"Point","coordinates":[8.6982134,50.019374]}},
{"type":"Feature","properties":{},"geometry":{"type":"Point","coordinates":[8.6982692,50.0194591]}},
{"type":"Feature","properties":{},"geometry":{"type":"Point","coordinates":[8.6983141,50.0195523]}},
{"type":"Feature","properties":{},"geometry":{"type":"Point","coordinates":[8.6983771,50.0196502]}},
{"type":"Feature","properties":{},"geometry":{"type":"Point","coordinates":[8.6984948,50.0197451]}},
{"type":"Feature","properties":{},"geometry":{"type":"Point","coordinates":[8.6984659,50.0198367]}},
{"type":"Feature","properties":{},"geometry":{"type":"Point","coordinates":[8.6985339,50.0199996]}},
{"type":"Feature","properties":{},"geometry":{"type":"Point","coordinates":[8.6987046,50.0230611]}},
{"type":"Feature","properties":{},"geometry":{"type":"Point","coordinates":[8.6980403,50.0229048]}},
{"type":"Feature","properties":{},"geometry":{"type":"Point","coordinates":[8.6984428,50.0233629]}},
{"type":"Feature","properties":{},"geometry":{"type":"Point","coordinates":[8.6967458,50.0238674]}},
{"type":"Feature","properties":{},"geometry":{"type":"Point","coordinates":[8.696994,50.0237536]}},
{"type":"Feature","properties":{},"geometry":{"type":"Point","coordinates":[8.6979386,50.0236806]}},
{"type":"Feature","properties":{},"geometry":{"type":"Point","coordinates":[8.696325,50.0238654]}},
{"type":"Feature","properties":{},"geometry":{"type":"Point","coordinates":[8.6964879,50.0238676]}},
{"type":"Feature","properties":{},"geometry":{"type":"Point","coordinates":[8.6976539,50.0230592]}},
{"type":"Feature","properties":{},"geometry":{"type":"Point","coordinates":[8.6968912,50.023476]}},
{"type":"Feature","properties":{},"geometry":{"type":"Point","coordinates":[8.6966307,50.0238654]}},
{"type":"Feature","properties":{},"geometry":{"type":"Point","coordinates":[8.6956449,50.0237552]}},
{"type":"Feature","properties":{},"geometry":{"type":"Point","coordinates":[8.695959,50.023285]}},
{"type":"Feature","properties":{},"geometry":{"type":"Point","coordinates":[8.6971002,50.0233915]}},
{"type":"Feature","properties":{},"geometry":{"type":"Point","coordinates":[8.6969762,50.0236155]}},
{"type":"Feature","properties":{},"geometry":{"type":"Point","coordinates":[8.6966299,50.023244]}},
{"type":"Feature","properties":{},"geometry":{"type":"Point","coordinates":[8.6983636,50.0235472]}},
{"type":"Feature","properties":{},"geometry":{"type":"Point","coordinates":[8.6956344,50.0236247]}},
{"type":"Feature","properties":{},"geometry":{"type":"Point","coordinates":[8.6975242,50.0231069]}},
{"type":"Feature","properties":{},"geometry":{"type":"Point","coordinates":[8.6968988,50.0233779]}},
{"type":"Feature","properties":{},"geometry":{"type":"Point","coordinates":[8.6965465,50.0232632]}},
{"type":"Feature","properties":{},"geometry":{"type":"Point","coordinates":[8.6970083,50.0238639]}},
{"type":"Feature","properties":{},"geometry":{"type":"Point","coordinates":[8.6960901,50.0238393]}},
{"type":"Feature","properties":{},"geometry":{"type":"Point","coordinates":[8.6962166,50.0233182]}},
{"type":"Feature","properties":{},"geometry":{"type":"Point","coordinates":[8.6983455,50.0229007]}},
{"type":"Feature","properties":{},"geometry":{"type":"Point","coordinates":[8.6970365,50.0232387]}},
{"type":"Feature","properties":{},"geometry":{"type":"Point","coordinates":[8.6959503,50.0238594]}},
{"type":"Feature","properties":{},"geometry":{"type":"Point","coordinates":[8.6973252,50.0231666]}},
{"type":"Feature","properties":{},"geometry":{"type":"Point","coordinates":[8.6963187,50.0232624]}},
{"type":"Feature","properties":{},"geometry":{"type":"Point","coordinates":[8.6979028,50.0229822]}},
{"type":"Feature","properties":{},"geometry":{"type":"Point","coordinates":[8.6978035,50.0237243]}},
{"type":"Feature","properties":{},"geometry":{"type":"Point","coordinates":[8.6956564,50.0233091]}},
{"type":"Feature","properties":{},"geometry":{"type":"Point","coordinates":[8.6981431,50.0228724]}},
{"type":"Feature","properties":{},"geometry":{"type":"Point","coordinates":[8.6975776,50.0238324]}},
{"type":"Feature","properties":{},"geometry":{"type":"Point","coordinates":[8.6961721,50.0232894]}},
{"type":"Feature","properties":{},"geometry":{"type":"Point","coordinates":[8.6971325,50.0236236]}},
{"type":"Feature","properties":{},"geometry":{"type":"Point","coordinates":[8.6972293,50.0231907]}},
{"type":"Feature","properties":{},"geometry":{"type":"Point","coordinates":[8.6972059,50.0238525]}},
{"type":"Feature","properties":{},"geometry":{"type":"Point","coordinates":[8.6986229,50.0229251]}},
{"type":"Feature","properties":{},"geometry":{"type":"Point","coordinates":[8.6977518,50.0230115]}},
{"type":"Feature","properties":{},"geometry":{"type":"Point","coordinates":[8.6974362,50.0238409]}},
{"type":"Feature","properties":{},"geometry":{"type":"Point","coordinates":[8.6987893,50.0231756]}},
{"type":"Feature","properties":{},"geometry":{"type":"Point","coordinates":[8.6981543,50.0235937]}},
{"type":"Feature","properties":{},"geometry":{"type":"Point","coordinates":[8.6984869,50.0227544]}},
{"type":"Feature","properties":{},"geometry":{"type":"Point","coordinates":[8.6956415,50.0234878]}},
{"type":"Feature","properties":{},"geometry":{"type":"Point","coordinates":[8.6986945,50.0234273]}},
{"type":"Feature","properties":{},"geometry":{"type":"Point","coordinates":[8.697973,50.0227585]}},
{"type":"Feature","properties":{},"geometry":{"type":"Point","coordinates":[8.6969091,50.022659]}},
{"type":"Feature","properties":{},"geometry":{"type":"Point","coordinates":[8.6964665,50.0222456]}},
{"type":"Feature","properties":{},"geometry":{"type":"Point","coordinates":[8.6965829,50.0224646]}},
{"type":"Feature","properties":{},"geometry":{"type":"Point","coordinates":[8.6970372,50.0230292]}},
{"type":"Feature","properties":{},"geometry":{"type":"Point","coordinates":[8.6976251,50.0226849]}},
{"type":"Feature","properties":{},"geometry":{"type":"Point","coordinates":[8.6971785,50.0217838]}},
{"type":"Feature","properties":{},"geometry":{"type":"Point","coordinates":[8.6975179,50.022906]}},
{"type":"Feature","properties":{},"geometry":{"type":"Point","coordinates":[8.696368,50.0231393]}},
{"type":"Feature","properties":{},"geometry":{"type":"Point","coordinates":[8.698053,50.0226494]}},
{"type":"Feature","properties":{},"geometry":{"type":"Point","coordinates":[8.69571,50.0226238]}},
{"type":"Feature","properties":{},"geometry":{"type":"Point","coordinates":[8.6965923,50.0227212]}},
{"type":"Feature","properties":{},"geometry":{"type":"Point","coordinates":[8.6956622,50.022237]}},
{"type":"Feature","properties":{},"geometry":{"type":"Point","coordinates":[8.6957119,50.0221641]}},
{"type":"Feature","properties":{},"geometry":{"type":"Point","coordinates":[8.6978821,50.0227901]}},
{"type":"Feature","properties":{},"geometry":{"type":"Point","coordinates":[8.6974151,50.0229779]}},
{"type":"Feature","properties":{},"geometry":{"type":"Point","coordinates":[8.6956608,50.0227214]}},
{"type":"Feature","properties":{},"geometry":{"type":"Point","coordinates":[8.6961318,50.0231164]}},
{"type":"Feature","properties":{},"geometry":{"type":"Point","coordinates":[8.6967471,50.022851]}},
{"type":"Feature","properties":{},"geometry":{"type":"Point","coordinates":[8.6974911,50.021906]}},
{"type":"Feature","properties":{},"geometry":{"type":"Point","coordinates":[8.6957163,50.0220064]}},
{"type":"Feature","properties":{},"geometry":{"type":"Point","coordinates":[8.6968136,50.0224866]}},
{"type":"Feature","properties":{},"geometry":{"type":"Point","coordinates":[8.6979553,50.0219437]}},
{"type":"Feature","properties":{},"geometry":{"type":"Point","coordinates":[8.6963443,50.0227886]}},
{"type":"Feature","properties":{},"geometry":{"type":"Point","coordinates":[8.696602,50.0225852]}},
{"type":"Feature","properties":{},"geometry":{"type":"Point","coordinates":[8.696436,50.0218851]}},
{"type":"Feature","properties":{},"geometry":{"type":"Point","coordinates":[8.6977194,50.0217331]}},
{"type":"Feature","properties":{},"geometry":{"type":"Point","coordinates":[8.6967777,50.0229115]}},
{"type":"Feature","properties":{},"geometry":{"type":"Point","coordinates":[8.6969286,50.022738]}},
{"type":"Feature","properties":{},"geometry":{"type":"Point","coordinates":[8.6956441,50.0230038]}},
{"type":"Feature","properties":{},"geometry":{"type":"Point","coordinates":[8.6964937,50.0223019]}},
{"type":"Feature","properties":{},"geometry":{"type":"Point","coordinates":[8.697132,50.0225137]}},
{"type":"Feature","properties":{},"geometry":{"type":"Point","coordinates":[8.6969076,50.0225876]}},
{"type":"Feature","properties":{},"geometry":{"type":"Point","coordinates":[8.696149,50.0219199]}},
{"type":"Feature","properties":{},"geometry":{"type":"Point","coordinates":[8.6968034,50.0222449]}},
{"type":"Feature","properties":{},"geometry":{"type":"Point","coordinates":[8.6972781,50.0229935]}},
{"type":"Feature","properties":{},"geometry":{"type":"Point","coordinates":[8.696659,50.0218493]}},
{"type":"Feature","properties":{},"geometry":{"type":"Point","coordinates":[8.6968117,50.0223346]}},
{"type":"Feature","properties":{},"geometry":{"type":"Point","coordinates":[8.6967346,50.0228213]}},
{"type":"Feature","properties":{},"geometry":{"type":"Point","coordinates":[8.6967955,50.0221457]}},
{"type":"Feature","properties":{},"geometry":{"type":"Point","coordinates":[8.6965081,50.0231289]}},
{"type":"Feature","properties":{},"geometry":{"type":"Point","coordinates":[8.6983477,50.0224581]}},
{"type":"Feature","properties":{},"geometry":{"type":"Point","coordinates":[8.6967551,50.0231147]}},
{"type":"Feature","properties":{},"geometry":{"type":"Point","coordinates":[8.6984246,50.0225614]}},
{"type":"Feature","properties":{},"geometry":{"type":"Point","coordinates":[8.6970114,50.0218065]}},
{"type":"Feature","properties":{},"geometry":{"type":"Point","coordinates":[8.6956425,50.0229204]}},
{"type":"Feature","properties":{},"geometry":{"type":"Point","coordinates":[8.6971811,50.0225172]}},
{"type":"Feature","properties":{},"geometry":{"type":"Point","coordinates":[8.6969747,50.0229395]}},
{"type":"Feature","properties":{},"geometry":{"type":"Point","coordinates":[8.6979986,50.0221671]}},
{"type":"Feature","properties":{},"geometry":{"type":"Point","coordinates":[8.6957544,50.0231708]}},
{"type":"Feature","properties":{},"geometry":{"type":"Point","coordinates":[8.6956466,50.0222955]}},
{"type":"Feature","properties":{},"geometry":{"type":"Point","coordinates":[8.6967979,50.0218304]}},
{"type":"Feature","properties":{},"geometry":{"type":"Point","coordinates":[8.6982203,50.022291]}},
{"type":"Feature","properties":{},"geometry":{"type":"Point","coordinates":[8.6972886,50.0211282]}},
{"type":"Feature","properties":{},"geometry":{"type":"Point","coordinates":[8.6975428,50.0214782]}},
{"type":"Feature","properties":{},"geometry":{"type":"Point","coordinates":[8.696359,50.0198996]}},
{"type":"Feature","properties":{},"geometry":{"type":"Point","coordinates":[8.6962421,50.0197451]}},
{"type":"Feature","properties":{},"geometry":{"type":"Point","coordinates":[8.6968962,50.0205987]}},
{"type":"Feature","properties":{},"geometry":{"type":"Point","coordinates":[8.696588,50.0213063]}},
{"type":"Feature","properties":{},"geometry":{"type":"Point","coordinates":[8.6957024,50.0218274]}},
{"type":"Feature","properties":{},"geometry":{"type":"Point","coordinates":[8.6969929,50.0210857]}},
{"type":"Feature","properties":{},"geometry":{"type":"Point","coordinates":[8.6957038,50.0217899]}},
{"type":"Feature","properties":{},"geometry":{"type":"Point","coordinates":[8.6966732,50.0202488]}},
{"type":"Feature","properties":{},"geometry":{"type":"Point","coordinates":[8.695668,50.0197295]}},
{"type":"Feature","properties":{},"geometry":{"type":"Point","coordinates":[8.6957022,50.0204788]}},
{"type":"Feature","properties":{},"geometry":{"type":"Point","coordinates":[8.6963504,50.0210801]}},
{"type":"Feature","properties":{},"geometry":{"type":"Point","coordinates":[8.6956695,50.0214207]}},
{"type":"Feature","properties":{},"geometry":{"type":"Point","coordinates":[8.6964308,50.0211732]}},
{"type":"Feature","properties":{},"geometry":{"type":"Point","coordinates":[8.6964051,50.0202592]}},
{"type":"Feature","properties":{},"geometry":{"type":"Point","coordinates":[8.6960117,50.0217335]}},
{"type":"Feature","properties":{},"geometry":{"type":"Point","coordinates":[8.6964229,50.0217677]}},
{"type":"Feature","properties":{},"geometry":{"type":"Point","coordinates":[8.6957,50.0206147]}},
{"type":"Feature","properties":{},"geometry":{"type":"Point","coordinates":[8.6965598,50.0201057]}},
{"type":"Feature","properties":{},"geometry":{"type":"Point","coordinates":[8.6967255,50.0209883]}},
{"type":"Feature","properties":{},"geometry":{"type":"Point","coordinates":[8.6956593,50.0210305]}},
{"type":"Feature","properties":{},"geometry":{"type":"Point","coordinates":[8.6956708,50.0194615]}},
{"type":"Feature","properties":{},"geometry":{"type":"Point","coordinates":[8.6959803,50.0211434]}},
{"type":"Feature","properties":{},"geometry":{"type":"Point","coordinates":[8.6967094,50.0217501]}},
{"type":"Feature","properties":{},"geometry":{"type":"Point","coordinates":[8.6962208,50.0211039]}},
{"type":"Feature","properties":{},"geometry":{"type":"Point","coordinates":[8.6957226,50.020088]}},
{"type":"Feature","properties":{},"geometry":{"type":"Point","coordinates":[8.6966127,50.0217636]}},
{"type":"Feature","properties":{},"geometry":{"type":"Point","coordinates":[8.6967868,50.0211169]}},
{"type":"Feature","properties":{},"geometry":{"type":"Point","coordinates":[8.6968183,50.0204398]}},
{"type":"Feature","properties":{},"geometry":{"type":"Point","coordinates":[8.6963128,50.021737]}},
{"type":"Feature","properties":{},"geometry":{"type":"Point","coordinates":[8.6965496,50.0210478]}},
{"type":"Feature","properties":{},"geometry":{"type":"Point","coordinates":[8.695718,50.0203826]}},
{"type":"Feature","properties":{},"geometry":{"type":"Point","coordinates":[8.6972279,50.0210681]}},
{"type":"Feature","properties":{},"geometry":{"type":"Point","coordinates":[8.6956682,50.0214461]}},
{"type":"Feature","properties":{},"geometry":{"type":"Point","coordinates":[8.6959591,50.0212562]}},
{"type":"Feature","properties":{},"geometry":{"type":"Point","coordinates":[8.6957784,50.0213086]}},
{"type":"Feature","properties":{},"geometry":{"type":"Point","coordinates":[8.6976041,50.0216275]}},
{"type":"Feature","properties":{},"geometry":{"type":"Point","coordinates":[8.6957735,50.021595]}},
{"type":"Feature","properties":{},"geometry":{"type":"Point","coordinates":[8.6957207,50.0202748]}},
{"type":"Feature","properties":{},"geometry":{"type":"Point","coordinates":[8.6973387,50.0216038]}},
{"type":"Feature","properties":{},"geometry":{"type":"Point","coordinates":[8.6971321,50.0209342]}},
{"type":"Feature","properties":{},"geometry":{"type":"Point","coordinates":[8.695672,50.0207295]}},
{"type":"Feature","properties":{},"geometry":{"type":"Point","coordinates":[8.6974575,50.0213671]}},
{"type":"Feature","properties":{},"geometry":{"type":"Point","coordinates":[8.6961398,50.0212257]}},
{"type":"Feature","properties":{},"geometry":{"type":"Point","coordinates":[8.6956985,50.0208854]}},
{"type":"Feature","properties":{},"geometry":{"type":"Point","coordinates":[8.6956647,50.0199932]}},
{"type":"Feature","properties":{},"geometry":{"type":"Point","coordinates":[8.695797,50.0211168]}},
{"type":"Feature","properties":{},"geometry":{"type":"Point","coordinates":[8.6969152,50.0216996]}},
{"type":"Feature","properties":{},"geometry":{"type":"Point","coordinates":[8.6970418,50.0207362]}},
{"type":"Feature","properties":{},"geometry":{"type":"Point","coordinates":[8.6964341,50.0199937]}},
{"type":"Feature","properties":{},"geometry":{"type":"Point","coordinates":[8.697159,50.0216274]}},
{"type":"Feature","properties":{},"geometry":{"type":"Point","coordinates":[8.702846,50.0201935]}},
{"type":"Feature","properties":{},"geometry":{"type":"Point","coordinates":[8.7027861,50.0202825]}},
{"type":"Feature","properties":{},"geometry":{"type":"Point","coordinates":[8.7027619,50.0203333]}},
{"type":"Feature","properties":{},"geometry":{"type":"Point","coordinates":[8.7024195,50.020337]}},
{"type":"Feature","properties":{},"geometry":{"type":"Point","coordinates":[8.7024447,50.0202046]}},
{"type":"Feature","properties":{},"geometry":{"type":"Point","coordinates":[8.7023895,50.0201858]}},
{"type":"Feature","properties":{},"geometry":{"type":"Point","coordinates":[8.7022997,50.020162]}},
{"type":"Feature","properties":{},"geometry":{"type":"Point","coordinates":[8.7022255,50.0201368]}},
{"type":"Feature","properties":{},"geometry":{"type":"Point","coordinates":[8.7021699,50.0201061]}},
{"type":"Feature","properties":{},"geometry":{"type":"Point","coordinates":[8.7021433,50.0200961]}},
{"type":"Feature","properties":{},"geometry":{"type":"Point","coordinates":[8.7020672,50.0200787]}},
{"type":"Feature","properties":{},"geometry":{"type":"Point","coordinates":[8.7019802,50.0200402]}},
{"type":"Feature","properties":{},"geometry":{"type":"Point","coordinates":[8.7019034,50.0200179]}},
{"type":"Feature","properties":{},"geometry":{"type":"Point","coordinates":[8.7015732,50.0200947]}},
{"type":"Feature","properties":{},"geometry":{"type":"Point","coordinates":[8.7018519,50.0201578]}},
{"type":"Feature","properties":{},"geometry":{"type":"Point","coordinates":[8.7021373,50.0202704]}},
{"type":"Feature","properties":{},"geometry":{"type":"Point","coordinates":[8.7021242,50.0202859]}},
{"type":"Feature","properties":{},"geometry":{"type":"Point","coordinates":[8.7020779,50.022872]}},
{"type":"Feature","properties":{},"geometry":{"type":"Point","coordinates":[8.7023384,50.0230976]}},
{"type":"Feature","properties":{},"geometry":{"type":"Point","coordinates":[8.7025185,50.0212431]}},
{"type":"Feature","properties":{},"geometry":{"type":"Point","coordinates":[8.7023023,50.0212632]}},
{"type":"Feature","properties":{},"geometry":{"type":"Point","coordinates":[8.7028834,50.0208643]}},
{"type":"Feature","properties":{},"geometry":{"type":"Point","coordinates":[8.7030253,50.0207419]}},
{"type":"Feature","properties":{},"geometry":{"type":"Point","coordinates":[8.7030052,50.020557]}},
{"type":"Feature","properties":{},"geometry":{"type":"Point","coordinates":[8.7026943,50.0204999]}},
{"type":"Feature","properties":{},"geometry":{"type":"Point","coordinates":[8.7013817,50.0221471]}},
{"type":"Feature","properties":{},"geometry":{"type":"Point","coordinates":[8.7013396,50.022118]}},
{"type":"Feature","properties":{},"geometry":{"type":"Point","coordinates":[8.7013789,50.0220561]}},
{"type":"Feature","properties":{},"geometry":{"type":"Point","coordinates":[8.7013153,50.0220007]}},
{"type":"Feature","properties":{},"geometry":{"type":"Point","coordinates":[8.70135,50.0219639]}},
{"type":"Feature","properties":{},"geometry":{"type":"Point","coordinates":[8.701379,50.0217912]}},
{"type":"Feature","properties":{},"geometry":{"type":"Point","coordinates":[8.7013423,50.0215874]}},
{"type":"Feature","properties":{},"geometry":{"type":"Point","coordinates":[8.7015246,50.0215058]}},
{"type":"Feature","properties":{},"geometry":{"type":"Point","coordinates":[8.7016121,50.0213063]}},
{"type":"Feature","properties":{},"geometry":{"type":"Point","coordinates":[8.7016027,50.0212376]}},
{"type":"Feature","properties":{},"geometry":{"type":"Point","coordinates":[8.7018834,50.022269]}},
{"type":"Feature","properties":{},"geometry":{"type":"Point","coordinates":[8.7019293,50.0220362]}},
{"type":"Feature","properties":{},"geometry":{"type":"Point","coordinates":[8.7020576,50.0217334]}},
{"type":"Feature","properties":{},"geometry":{"type":"Point","coordinates":[8.7022252,50.021496]}},
{"type":"Feature","properties":{},"geometry":{"type":"Point","coordinates":[8.6998786,50.02359]}},
{"type":"Feature","properties":{},"geometry":{"type":"Point","coordinates":[8.7001148,50.0235752]}},
{"type":"Feature","properties":{},"geometry":{"type":"Point","coordinates":[8.7002029,50.0235481]}},
{"type":"Feature","properties":{},"geometry":{"type":"Point","coordinates":[8.7002766,50.023464]}},
{"type":"Feature","properties":{},"geometry":{"type":"Point","coordinates":[8.7006921,50.0234216]}},
{"type":"Feature","properties":{},"geometry":{"type":"Point","coordinates":[8.7008749,50.0233836]}},
{"type":"Feature","properties":{},"geometry":{"type":"Point","coordinates":[8.701499,50.0232752]}},
{"type":"Feature","properties":{},"geometry":{"type":"Point","coordinates":[8.7016769,50.0232091]}},
{"type":"Feature","properties":{},"geometry":{"type":"Point","coordinates":[8.7025128,50.0228793]}},
{"type":"Feature","properties":{},"geometry":{"type":"Point","coordinates":[8.7000051,50.0226509]}},
{"type":"Feature","properties":{},"geometry":{"type":"Point","coordinates":[8.7001019,50.0226202]}},
{"type":"Feature","properties":{},"geometry":{"type":"Point","coordinates":[8.6997659,50.0227399]}},
{"type":"Feature","properties":{},"geometry":{"type":"Point","coordinates":[8.6994732,50.0228648]}},
{"type":"Feature","properties":{},"geometry":{"type":"Point","coordinates":[8.6994922,50.0230766]}},
{"type":"Feature","properties":{},"geometry":{"type":"Point","coordinates":[8.6995956,50.0230923]}},
{"type":"Feature","properties":{},"geometry":{"type":"Point","coordinates":[8.6996422,50.0232153]}},
{"type":"Feature","properties":{},"geometry":{"type":"Point","coordinates":[8.6996406,50.0233123]}},
{"type":"Feature","properties":{},"geometry":{"type":"Point","coordinates":[8.6996711,50.0234008]}},
{"type":"Feature","properties":{},"geometry":{"type":"Point","coordinates":[8.7001048,50.0232866]}},
{"type":"Feature","properties":{},"geometry":{"type":"Point","coordinates":[8.7000279,50.0231822]}},
{"type":"Feature","properties":{},"geometry":{"type":"Point","coordinates":[8.7017618,50.0228532]}},
{"type":"Feature","properties":{},"geometry":{"type":"Point","coordinates":[8.701436,50.0229783]}},
{"type":"Feature","properties":{},"geometry":{"type":"Point","coordinates":[8.7009732,50.0230355]}},
{"type":"Feature","properties":{},"geometry":{"type":"Point","coordinates":[8.7008645,50.0230161]}},
{"type":"Feature","properties":{},"geometry":{"type":"Point","coordinates":[8.7009482,50.0229697]}},
{"type":"Feature","properties":{},"geometry":{"type":"Point","coordinates":[8.7005604,50.0227583]}},
{"type":"Feature","properties":{},"geometry":{"type":"Point","coordinates":[8.7002875,50.0227804]}},
{"type":"Feature","properties":{},"geometry":{"type":"Point","coordinates":[8.699709,50.0224163]}},
{"type":"Feature","properties":{},"geometry":{"type":"Point","coordinates":[8.7023827,50.0208288]}},
{"type":"Feature","properties":{},"geometry":{"type":"Point","coordinates":[8.7020728,50.020693]}},
{"type":"Feature","properties":{},"geometry":{"type":"Point","coordinates":[8.7018964,50.0205391]}},
{"type":"Feature","properties":{},"geometry":{"type":"Point","coordinates":[8.7015965,50.0204329]}},
{"type":"Feature","properties":{},"geometry":{"type":"Point","coordinates":[8.7015051,50.0203277]}},
{"type":"Feature","properties":{},"geometry":{"type":"Point","coordinates":[8.6998297,50.0222149]}},
{"type":"Feature","properties":{},"geometry":{"type":"Point","coordinates":[8.700083,50.0221211]}},
{"type":"Feature","properties":{},"geometry":{"type":"Point","coordinates":[8.7001471,50.0221699]}},
{"type":"Feature","properties":{},"geometry":{"type":"Point","coordinates":[8.7002252,50.0221991]}},
{"type":"Feature","properties":{},"geometry":{"type":"Point","coordinates":[8.7002199,50.0223197]}},
{"type":"Feature","properties":{},"geometry":{"type":"Point","coordinates":[8.7002935,50.0223495]}},
{"type":"Feature","properties":{},"geometry":{"type":"Point","coordinates":[8.7004171,50.0222964]}},
{"type":"Feature","properties":{},"geometry":{"type":"Point","coordinates":[8.7006347,50.0223791]}},
{"type":"Feature","properties":{},"geometry":{"type":"Point","coordinates":[8.7006203,50.0224882]}},
{"type":"Feature","properties":{},"geometry":{"type":"Point","coordinates":[8.7008075,50.0224402]}},
{"type":"Feature","properties":{},"geometry":{"type":"Point","coordinates":[8.7008464,50.0225518]}},
{"type":"Feature","properties":{},"geometry":{"type":"Point","coordinates":[8.7010068,50.0224657]}},
{"type":"Feature","properties":{},"geometry":{"type":"Point","coordinates":[8.701034,50.0225907]}},
{"type":"Feature","properties":{},"geometry":{"type":"Point","coordinates":[8.7011222,50.0225753]}},
{"type":"Feature","properties":{},"geometry":{"type":"Point","coordinates":[8.7012932,50.022512]}},
{"type":"Feature","properties":{},"geometry":{"type":"Point","coordinates":[8.7014346,50.0224936]}},
{"type":"Feature","properties":{},"geometry":{"type":"Point","coordinates":[8.7014494,50.0226183]}},
{"type":"Feature","properties":{},"geometry":{"type":"Point","coordinates":[8.7000044,50.0210962]}},
{"type":"Feature","properties":{},"geometry":{"type":"Point","coordinates":[8.6995257,50.0211814]}},
{"type":"Feature","properties":{},"geometry":{"type":"Point","coordinates":[8.6998292,50.0212961]}},
{"type":"Feature","properties":{},"geometry":{"type":"Point","coordinates":[8.6996566,50.0214391]}},
{"type":"Feature","properties":{},"geometry":{"type":"Point","coordinates":[8.6994767,50.0216695]}},
{"type":"Feature","properties":{},"geometry":{"type":"Point","coordinates":[8.6993484,50.0218263]}},
{"type":"Feature","properties":{},"geometry":{"type":"Point","coordinates":[8.6992904,50.0219721]}},
{"type":"Feature","properties":{},"geometry":{"type":"Point","coordinates":[8.7024023,50.0227158]}},
{"type":"Feature","properties":{},"geometry":{"type":"Point","coordinates":[8.7025795,50.0228269]}},
{"type":"Feature","properties":{},"geometry":{"type":"Point","coordinates":[8.7020166,50.0226093]}},
{"type":"Feature","properties":{},"geometry":{"type":"Point","coordinates":[8.7021482,50.0225796]}},
{"type":"Feature","properties":{},"geometry":{"type":"Point","coordinates":[8.7023324,50.0223006]}},
{"type":"Feature","properties":{},"geometry":{"type":"Point","coordinates":[8.7026009,50.0222486]}},
{"type":"Feature","properties":{},"geometry":{"type":"Point","coordinates":[8.7024115,50.0220664]}},
{"type":"Feature","properties":{},"geometry":{"type":"Point","coordinates":[8.7025106,50.0218579]}},
{"type":"Feature","properties":{},"geometry":{"type":"Point","coordinates":[8.7026221,50.0216177]}},
{"type":"Feature","properties":{},"geometry":{"type":"Point","coordinates":[8.702476,50.0215994]}},
{"type":"Feature","properties":{},"geometry":{"type":"Point","coordinates":[8.702699,50.0214115]}},
{"type":"Feature","properties":{},"geometry":{"type":"Point","coordinates":[8.7026,50.0212779]}},
{"type":"Feature","properties":{},"geometry":{"type":"Point","coordinates":[8.7033192,50.021229]}},
{"type":"Feature","properties":{},"geometry":{"type":"Point","coordinates":[8.7028208,50.021107]}},
{"type":"Feature","properties":{},"geometry":{"type":"Point","coordinates":[8.7025863,50.0210028]}},
{"type":"Feature","properties":{},"geometry":{"type":"Point","coordinates":[8.6993828,50.022504]}},
{"type":"Feature","properties":{},"geometry":{"type":"Point","coordinates":[8.6991273,50.0225395]}},
{"type":"Feature","properties":{},"geometry":{"type":"Point","coordinates":[8.6990656,50.0221745]}},
{"type":"Feature","properties":{},"geometry":{"type":"Point","coordinates":[8.6993747,50.0222263]}},
{"type":"Feature","properties":{},"geometry":{"type":"Point","coordinates":[8.7017523,50.0210999]}},
{"type":"Feature","properties":{},"geometry":{"type":"Point","coordinates":[8.701636,50.021065]}},
{"type":"Feature","properties":{},"geometry":{"type":"Point","coordinates":[8.7015646,50.0210196]}},
{"type":"Feature","properties":{},"geometry":{"type":"Point","coordinates":[8.7015199,50.0209642]}},
{"type":"Feature","properties":{},"geometry":{"type":"Point","coordinates":[8.7014342,50.0209203]}},
{"type":"Feature","properties":{},"geometry":{"type":"Point","coordinates":[8.7013959,50.0208671]}},
{"type":"Feature","properties":{},"geometry":{"type":"Point","coordinates":[8.7013389,50.0208151]}},
{"type":"Feature","properties":{},"geometry":{"type":"Point","coordinates":[8.7012799,50.0207839]}},
{"type":"Feature","properties":{},"geometry":{"type":"Point","coordinates":[8.7010517,50.0208153]}},
{"type":"Feature","properties":{},"geometry":{"type":"Point","coordinates":[8.7010148,50.0209124]}},
{"type":"Feature","properties":{},"geometry":{"type":"Point","coordinates":[8.7010157,50.0209656]}},
{"type":"Feature","properties":{},"geometry":{"type":"Point","coordinates":[8.7009275,50.0210194]}},
{"type":"Feature","properties":{},"geometry":{"type":"Point","coordinates":[8.700907,50.0210803]}},
{"type":"Feature","properties":{},"geometry":{"type":"Point","coordinates":[8.7008619,50.0211305]}},
{"type":"Feature","properties":{},"geometry":{"type":"Point","coordinates":[8.7007905,50.0211675]}},
{"type":"Feature","properties":{},"geometry":{"type":"Point","coordinates":[8.7007436,50.021219]}},
{"type":"Feature","properties":{},"geometry":{"type":"Point","coordinates":[8.7007303,50.0212788]}},
{"type":"Feature","properties":{},"geometry":{"type":"Point","coordinates":[8.7005392,50.0214159]}},
{"type":"Feature","properties":{},"geometry":{"type":"Point","coordinates":[8.7004905,50.021469]}},
{"type":"Feature","properties":{},"geometry":{"type":"Point","coordinates":[8.7004498,50.0215201]}},
{"type":"Feature","properties":{},"geometry":{"type":"Point","coordinates":[8.7004232,50.0215889]}},
{"type":"Feature","properties":{},"geometry":{"type":"Point","coordinates":[8.7003776,50.0216404]}},
{"type":"Feature","properties":{},"geometry":{"type":"Point","coordinates":[8.7003392,50.0216805]}},
{"type":"Feature","properties":{},"geometry":{"type":"Point","coordinates":[8.7002461,50.0217418]}},
{"type":"Feature","properties":{},"geometry":{"type":"Point","coordinates":[8.7001993,50.0217904]}},
{"type":"Feature","properties":{},"geometry":{"type":"Point","coordinates":[8.7002028,50.0218307]}},
{"type":"Feature","properties":{},"geometry":{"type":"Point","coordinates":[8.7001497,50.021887]}},
{"type":"Feature","properties":{},"geometry":{"type":"Point","coordinates":[8.7000664,50.0219285]}},
{"type":"Feature","properties":{},"geometry":{"type":"Point","coordinates":[8.7000138,50.0219556]}},
{"type":"Feature","properties":{},"geometry":{"type":"Point","coordinates":[8.6990619,50.0230287]}},
{"type":"Feature","properties":{},"geometry":{"type":"Point","coordinates":[8.6988571,50.0226351]}},
{"type":"Feature","properties":{},"geometry":{"type":"Point","coordinates":[8.6989762,50.0228366]}},
{"type":"Feature","properties":{},"geometry":{"type":"Point","coordinates":[8.6986456,50.0225245]}},
{"type":"Feature","properties":{},"geometry":{"type":"Point","coordinates":[8.6985447,50.0223952]}},
{"type":"Feature","properties":{},"geometry":{"type":"Point","coordinates":[8.6984716,50.0222898]}},
{"type":"Feature","properties":{},"geometry":{"type":"Point","coordinates":[8.6984113,50.0222178]}},
{"type":"Feature","properties":{},"geometry":{"type":"Point","coordinates":[8.6983001,50.0220668]}},
{"type":"Feature","properties":{},"geometry":{"type":"Point","coordinates":[8.6982265,50.0219739]}},
{"type":"Feature","properties":{},"geometry":{"type":"Point","coordinates":[8.6981198,50.0218348]}},
{"type":"Feature","properties":{},"geometry":{"type":"Point","coordinates":[8.6980259,50.0217111]}},
{"type":"Feature","properties":{},"geometry":{"type":"Point","coordinates":[8.6979478,50.0216084]}},
{"type":"Feature","properties":{},"geometry":{"type":"Point","coordinates":[8.6978703,50.021502]}},
{"type":"Feature","properties":{},"geometry":{"type":"Point","coordinates":[8.6978013,50.0214058]}},
{"type":"Feature","properties":{},"geometry":{"type":"Point","coordinates":[8.6981387,50.0212462]}},
{"type":"Feature","properties":{},"geometry":{"type":"Point","coordinates":[8.697682,50.0212604]}},
{"type":"Feature","properties":{},"geometry":{"type":"Point","coordinates":[8.6976376,50.0211946]}},
{"type":"Feature","properties":{},"geometry":{"type":"Point","coordinates":[8.6975483,50.0210864]}},
{"type":"Feature","properties":{},"geometry":{"type":"Point","coordinates":[8.6984429,50.0209288]}},
{"type":"Feature","properties":{},"geometry":{"type":"Point","coordinates":[8.6981963,50.0209211]}},
{"type":"Feature","properties":{},"geometry":{"type":"Point","coordinates":[8.6974189,50.0209109]}},
{"type":"Feature","properties":{},"geometry":{"type":"Point","coordinates":[8.6973217,50.0207759]}},
{"type":"Feature","properties":{},"geometry":{"type":"Point","coordinates":[8.6972263,50.0206387]}},
{"type":"Feature","properties":{},"geometry":{"type":"Point","coordinates":[8.6971654,50.0205778]}},
{"type":"Feature","properties":{},"geometry":{"type":"Point","coordinates":[8.6971127,50.0204709]}},
{"type":"Feature","properties":{},"geometry":{"type":"Point","coordinates":[8.6928508,50.0177854]}},
{"type":"Feature","properties":{},"geometry":{"type":"Point","coordinates":[8.6945329,50.0182775]}},
{"type":"Feature","properties":{},"geometry":{"type":"Point","coordinates":[8.6943347,50.0182418]}},
{"type":"Feature","properties":{},"geometry":{"type":"Point","coordinates":[8.6944518,50.0180812]}},
{"type":"Feature","properties":{},"geometry":{"type":"Point","coordinates":[8.6933201,50.0180524]}},
{"type":"Feature","properties":{},"geometry":{"type":"Point","coordinates":[8.6941226,50.0175692]}},
{"type":"Feature","properties":{},"geometry":{"type":"Point","coordinates":[8.6937856,50.0174896]}},
{"type":"Feature","properties":{},"geometry":{"type":"Point","coordinates":[8.6950591,50.017734]}},
{"type":"Feature","properties":{},"geometry":{"type":"Point","coordinates":[8.6940934,50.015888]}},
{"type":"Feature","properties":{},"geometry":{"type":"Point","coordinates":[8.6943162,50.015493]}},
{"type":"Feature","properties":{},"geometry":{"type":"Point","coordinates":[8.6942057,50.015581]}},
{"type":"Feature","properties":{},"geometry":{"type":"Point","coordinates":[8.6939978,50.0155971]}},
{"type":"Feature","properties":{},"geometry":{"type":"Point","coordinates":[8.6938678,50.01567]}},
{"type":"Feature","properties":{},"geometry":{"type":"Point","coordinates":[8.6938469,50.0157996]}},
{"type":"Feature","properties":{},"geometry":{"type":"Point","coordinates":[8.6927894,50.0178914]}},
{"type":"Feature","properties":{},"geometry":{"type":"Point","coordinates":[8.6928784,50.017699]}},
{"type":"Feature","properties":{},"geometry":{"type":"Point","coordinates":[8.6929494,50.0175649]}},
{"type":"Feature","properties":{},"geometry":{"type":"Point","coordinates":[8.6930363,50.017348]}},
{"type":"Feature","properties":{},"geometry":{"type":"Point","coordinates":[8.6949323,50.0183349]}},
{"type":"Feature","properties":{},"geometry":{"type":"Point","coordinates":[8.6940575,50.0181865]}},
{"type":"Feature","properties":{},"geometry":{"type":"Point","coordinates":[8.6938922,50.0181554]}},
{"type":"Feature","properties":{},"geometry":{"type":"Point","coordinates":[8.6937661,50.0181324]}},
{"type":"Feature","properties":{},"geometry":{"type":"Point","coordinates":[8.6935803,50.0180978]}},
{"type":"Feature","properties":{},"geometry":{"type":"Point","coordinates":[8.6934847,50.0180795]}},
{"type":"Feature","properties":{},"geometry":{"type":"Point","coordinates":[8.6932434,50.0177776]}},
{"type":"Feature","properties":{},"geometry":{"type":"Point","coordinates":[8.6930672,50.0180006]}},
{"type":"Feature","properties":{},"geometry":{"type":"Point","coordinates":[8.6945421,50.017647]}},
{"type":"Feature","properties":{},"geometry":{"type":"Point","coordinates":[8.694408,50.017618]}},
{"type":"Feature","properties":{},"geometry":{"type":"Point","coordinates":[8.6940907,50.0175677]}},
{"type":"Feature","properties":{},"geometry":{"type":"Point","coordinates":[8.6935252,50.0174466]}},
{"type":"Feature","properties":{},"geometry":{"type":"Point","coordinates":[8.6931614,50.0174167]}},
{"type":"Feature","properties":{},"geometry":{"type":"Point","coordinates":[8.6947797,50.0179447]}},
{"type":"Feature","properties":{},"geometry":{"type":"Point","coordinates":[8.6952655,50.0180675]}},
{"type":"Feature","properties":{},"geometry":{"type":"Point","coordinates":[8.6949489,50.0180871]}},
{"type":"Feature","properties":{},"geometry":{"type":"Point","coordinates":[8.6952858,50.018184]}},
{"type":"Feature","properties":{},"geometry":{"type":"Point","coordinates":[8.6952848,50.0182499]}},
{"type":"Feature","properties":{},"geometry":{"type":"Point","coordinates":[8.6950903,50.0183599]}},
{"type":"Feature","properties":{},"geometry":{"type":"Point","coordinates":[8.6929091,50.017936]}},
{"type":"Feature","properties":{},"geometry":{"type":"Point","coordinates":[8.6930328,50.0176926]}},
{"type":"Feature","properties":{},"geometry":{"type":"Point","coordinates":[8.6922209,50.0178497]}},
{"type":"Feature","properties":{},"geometry":{"type":"Point","coordinates":[8.6984933,50.0217572]}},
{"type":"Feature","properties":{},"geometry":{"type":"Point","coordinates":[8.6920253,50.0150227]}},
{"type":"Feature","properties":{},"geometry":{"type":"Point","coordinates":[8.6927106,50.0148358]}},
{"type":"Feature","properties":{},"geometry":{"type":"Point","coordinates":[8.6920346,50.0176371]}},
{"type":"Feature","properties":{},"geometry":{"type":"Point","coordinates":[8.6917319,50.017609]}},
{"type":"Feature","properties":{},"geometry":{"type":"Point","coordinates":[8.6915974,50.0175711]}},
{"type":"Feature","properties":{},"geometry":{"type":"Point","coordinates":[8.6915181,50.0175507]}},
{"type":"Feature","properties":{},"geometry":{"type":"Point","coordinates":[8.691354,50.0175068]}},
{"type":"Feature","properties":{},"geometry":{"type":"Point","coordinates":[8.6912655,50.0174846]}},
{"type":"Feature","properties":{},"geometry":{"type":"Point","coordinates":[8.6910728,50.0174537]}},
{"type":"Feature","properties":{},"geometry":{"type":"Point","coordinates":[8.690858,50.0174678]}},
{"type":"Feature","properties":{},"geometry":{"type":"Point","coordinates":[8.6905018,50.0175057]}},
{"type":"Feature","properties":{},"geometry":{"type":"Point","coordinates":[8.6904649,50.0173611]}},
{"type":"Feature","properties":{},"geometry":{"type":"Point","coordinates":[8.6904817,50.0171981]}},
{"type":"Feature","properties":{},"geometry":{"type":"Point","coordinates":[8.6904628,50.0171172]}},
{"type":"Feature","properties":{},"geometry":{"type":"Point","coordinates":[8.6904214,50.0168279]}},
{"type":"Feature","properties":{},"geometry":{"type":"Point","coordinates":[8.6904548,50.0168358]}},
{"type":"Feature","properties":{},"geometry":{"type":"Point","coordinates":[8.6905351,50.016645]}},
{"type":"Feature","properties":{},"geometry":{"type":"Point","coordinates":[8.6906731,50.0166796]}},
{"type":"Feature","properties":{},"geometry":{"type":"Point","coordinates":[8.6907765,50.0167152]}},
{"type":"Feature","properties":{},"geometry":{"type":"Point","coordinates":[8.6910639,50.016813]}},
{"type":"Feature","properties":{},"geometry":{"type":"Point","coordinates":[8.6912261,50.0168616]}},
{"type":"Feature","properties":{},"geometry":{"type":"Point","coordinates":[8.691287,50.0168772]}},
{"type":"Feature","properties":{},"geometry":{"type":"Point","coordinates":[8.6915284,50.0169564]}},
{"type":"Feature","properties":{},"geometry":{"type":"Point","coordinates":[8.6916888,50.0169597]}},
{"type":"Feature","properties":{},"geometry":{"type":"Point","coordinates":[8.6919606,50.0170437]}},
{"type":"Feature","properties":{},"geometry":{"type":"Point","coordinates":[8.6918744,50.0168208]}},
{"type":"Feature","properties":{},"geometry":{"type":"Point","coordinates":[8.6916743,50.0168039]}},
{"type":"Feature","properties":{},"geometry":{"type":"Point","coordinates":[8.6915729,50.0167733]}},
{"type":"Feature","properties":{},"geometry":{"type":"Point","coordinates":[8.6913739,50.0167097]}},
{"type":"Feature","properties":{},"geometry":{"type":"Point","coordinates":[8.6912624,50.0166773]}},
{"type":"Feature","properties":{},"geometry":{"type":"Point","coordinates":[8.690946,50.016622]}},
{"type":"Feature","properties":{},"geometry":{"type":"Point","coordinates":[8.6906002,50.0165159]}},
{"type":"Feature","properties":{},"geometry":{"type":"Point","coordinates":[8.6907184,50.016417]}},
{"type":"Feature","properties":{},"geometry":{"type":"Point","coordinates":[8.6907967,50.0163102]}},
{"type":"Feature","properties":{},"geometry":{"type":"Point","coordinates":[8.6909158,50.0161832]}},
{"type":"Feature","properties":{},"geometry":{"type":"Point","coordinates":[8.691068,50.0161859]}},
{"type":"Feature","properties":{},"geometry":{"type":"Point","coordinates":[8.6911803,50.016048]}},
{"type":"Feature","properties":{},"geometry":{"type":"Point","coordinates":[8.6915142,50.0161926]}},
{"type":"Feature","properties":{},"geometry":{"type":"Point","coordinates":[8.6916873,50.0162622]}},
{"type":"Feature","properties":{},"geometry":{"type":"Point","coordinates":[8.6917618,50.0163262]}},
{"type":"Feature","properties":{},"geometry":{"type":"Point","coordinates":[8.6918916,50.0163312]}},
{"type":"Feature","properties":{},"geometry":{"type":"Point","coordinates":[8.6919927,50.0163645]}},
{"type":"Feature","properties":{},"geometry":{"type":"Point","coordinates":[8.692203,50.0164303]}},
{"type":"Feature","properties":{},"geometry":{"type":"Point","coordinates":[8.6923379,50.0164733]}},
{"type":"Feature","properties":{},"geometry":{"type":"Point","coordinates":[8.692487,50.0165561]}},
{"type":"Feature","properties":{},"geometry":{"type":"Point","coordinates":[8.6926535,50.0165769]}},
{"type":"Feature","properties":{},"geometry":{"type":"Point","coordinates":[8.6927595,50.0166071]}},
{"type":"Feature","properties":{},"geometry":{"type":"Point","coordinates":[8.6929035,50.0166959]}},
{"type":"Feature","properties":{},"geometry":{"type":"Point","coordinates":[8.6930414,50.0166988]}},
{"type":"Feature","properties":{},"geometry":{"type":"Point","coordinates":[8.6936348,50.016276]}},
{"type":"Feature","properties":{},"geometry":{"type":"Point","coordinates":[8.6935538,50.01639]}},
{"type":"Feature","properties":{},"geometry":{"type":"Point","coordinates":[8.6935361,50.0165428]}},
{"type":"Feature","properties":{},"geometry":{"type":"Point","coordinates":[8.6935066,50.0166873]}},
{"type":"Feature","properties":{},"geometry":{"type":"Point","coordinates":[8.6933325,50.0168359]}},
{"type":"Feature","properties":{},"geometry":{"type":"Point","coordinates":[8.693298,50.0169687]}},
{"type":"Feature","properties":{},"geometry":{"type":"Point","coordinates":[8.6932267,50.0170773]}},
{"type":"Feature","properties":{},"geometry":{"type":"Point","coordinates":[8.6927139,50.0171683]}},
{"type":"Feature","properties":{},"geometry":{"type":"Point","coordinates":[8.6925904,50.017128]}},
{"type":"Feature","properties":{},"geometry":{"type":"Point","coordinates":[8.6924517,50.0170871]}},
{"type":"Feature","properties":{},"geometry":{"type":"Point","coordinates":[8.6922925,50.0170095]}},
{"type":"Feature","properties":{},"geometry":{"type":"Point","coordinates":[8.6921387,50.0169509]}},
{"type":"Feature","properties":{},"geometry":{"type":"Point","coordinates":[8.6919923,50.0168892]}},
{"type":"Feature","properties":{},"geometry":{"type":"Point","coordinates":[8.6926504,50.0172607]}},
{"type":"Feature","properties":{},"geometry":{"type":"Point","coordinates":[8.6924359,50.0171899]}},
{"type":"Feature","properties":{},"geometry":{"type":"Point","coordinates":[8.6922284,50.0173376]}},
{"type":"Feature","properties":{},"geometry":{"type":"Point","coordinates":[8.6922246,50.0171253]}},
{"type":"Feature","properties":{},"geometry":{"type":"Point","coordinates":[8.6921168,50.0170915]}},
{"type":"Feature","properties":{},"geometry":{"type":"Point","coordinates":[8.6913202,50.0178469]}},
{"type":"Feature","properties":{},"geometry":{"type":"Point","coordinates":[8.6911304,50.0177851]}},
{"type":"Feature","properties":{},"geometry":{"type":"Point","coordinates":[8.6910465,50.0177688]}},
{"type":"Feature","properties":{},"geometry":{"type":"Point","coordinates":[8.6917069,50.0178765]}},
{"type":"Feature","properties":{},"geometry":{"type":"Point","coordinates":[8.6920609,50.0179353]}},
{"type":"Feature","properties":{},"geometry":{"type":"Point","coordinates":[8.6921242,50.0179427]}},
{"type":"Feature","properties":{},"geometry":{"type":"Point","coordinates":[8.6919415,50.0181519]}},
{"type":"Feature","properties":{},"geometry":{"type":"Point","coordinates":[8.6914349,50.0181511]}},
{"type":"Feature","properties":{},"geometry":{"type":"Point","coordinates":[8.6913084,50.0181074]}},
{"type":"Feature","properties":{},"geometry":{"type":"Point","coordinates":[8.6911976,50.0181036]}},
{"type":"Feature","properties":{},"geometry":{"type":"Point","coordinates":[8.6910296,50.0180948]}},
{"type":"Feature","properties":{},"geometry":{"type":"Point","coordinates":[8.6914548,50.0182698]}},
{"type":"Feature","properties":{},"geometry":{"type":"Point","coordinates":[8.6912421,50.0182739]}},
{"type":"Feature","properties":{},"geometry":{"type":"Point","coordinates":[8.691087,50.0182669]}},
{"type":"Feature","properties":{},"geometry":{"type":"Point","coordinates":[8.6909338,50.0182612]}},
{"type":"Feature","properties":{},"geometry":{"type":"Point","coordinates":[8.6905686,50.0177003]}},
{"type":"Feature","properties":{},"geometry":{"type":"Point","coordinates":[8.6902834,50.01769]}},
{"type":"Feature","properties":{},"geometry":{"type":"Point","coordinates":[8.690327,50.0178008]}},
{"type":"Feature","properties":{},"geometry":{"type":"Point","coordinates":[8.6906146,50.0178742]}},
{"type":"Feature","properties":{},"geometry":{"type":"Point","coordinates":[8.6906419,50.0179403]}},
{"type":"Feature","properties":{},"geometry":{"type":"Point","coordinates":[8.690352,50.0180197]}},
{"type":"Feature","properties":{},"geometry":{"type":"Point","coordinates":[8.6907385,50.0181161]}},
{"type":"Feature","properties":{},"geometry":{"type":"Point","coordinates":[8.6904947,50.0182315]}},
{"type":"Feature","properties":{},"geometry":{"type":"Point","coordinates":[8.6899856,50.0183433]}},
{"type":"Feature","properties":{},"geometry":{"type":"Point","coordinates":[8.6898659,50.018429]}},
{"type":"Feature","properties":{},"geometry":{"type":"Point","coordinates":[8.6897235,50.0184691]}},
{"type":"Feature","properties":{},"geometry":{"type":"Point","coordinates":[8.6895662,50.0184849]}},
{"type":"Feature","properties":{},"geometry":{"type":"Point","coordinates":[8.6893789,50.0186443]}},
{"type":"Feature","properties":{},"geometry":{"type":"Point","coordinates":[8.6893193,50.0183828]}},
{"type":"Feature","properties":{},"geometry":{"type":"Point","coordinates":[8.6892327,50.0181227]}},
{"type":"Feature","properties":{},"geometry":{"type":"Point","coordinates":[8.6891843,50.0178882]}},
{"type":"Feature","properties":{},"geometry":{"type":"Point","coordinates":[8.6907408,50.0182589]}},
{"type":"Feature","properties":{},"geometry":{"type":"Point","coordinates":[8.6905427,50.0184919]}},
{"type":"Feature","properties":{},"geometry":{"type":"Point","coordinates":[8.6906877,50.0186184]}},
{"type":"Feature","properties":{},"geometry":{"type":"Point","coordinates":[8.6906007,50.0187261]}},
{"type":"Feature","properties":{},"geometry":{"type":"Point","coordinates":[8.6908258,50.0187211]}},
{"type":"Feature","properties":{},"geometry":{"type":"Point","coordinates":[8.6907155,50.0187941]}},
{"type":"Feature","properties":{},"geometry":{"type":"Point","coordinates":[8.6906383,50.018845]}},
{"type":"Feature","properties":{},"geometry":{"type":"Point","coordinates":[8.6904751,50.0188106]}},
{"type":"Feature","properties":{},"geometry":{"type":"Point","coordinates":[8.6903965,50.018821]}},
{"type":"Feature","properties":{},"geometry":{"type":"Point","coordinates":[8.6902872,50.0188862]}},
{"type":"Feature","properties":{},"geometry":{"type":"Point","coordinates":[8.6901573,50.0189775]}},
{"type":"Feature","properties":{},"geometry":{"type":"Point","coordinates":[8.6899554,50.0190733]}},
{"type":"Feature","properties":{},"geometry":{"type":"Point","coordinates":[8.689762,50.0189919]}},
{"type":"Feature","properties":{},"geometry":{"type":"Point","coordinates":[8.6896334,50.0188928]}},
{"type":"Feature","properties":{},"geometry":{"type":"Point","coordinates":[8.6894962,50.018779]}},
{"type":"Feature","properties":{},"geometry":{"type":"Point","coordinates":[8.6905272,50.0189219]}},
{"type":"Feature","properties":{},"geometry":{"type":"Point","coordinates":[8.6904135,50.0190567]}},
{"type":"Feature","properties":{},"geometry":{"type":"Point","coordinates":[8.6902055,50.0192287]}},
{"type":"Feature","properties":{},"geometry":{"type":"Point","coordinates":[8.69041,50.0193071]}},
{"type":"Feature","properties":{},"geometry":{"type":"Point","coordinates":[8.6905869,50.0193695]}},
{"type":"Feature","properties":{},"geometry":{"type":"Point","coordinates":[8.690746,50.0194755]}},
{"type":"Feature","properties":{},"geometry":{"type":"Point","coordinates":[8.690893,50.0195036]}},
{"type":"Feature","properties":{},"geometry":{"type":"Point","coordinates":[8.6908589,50.01935]}},
{"type":"Feature","properties":{},"geometry":{"type":"Point","coordinates":[8.6911186,50.0193233]}},
{"type":"Feature","properties":{},"geometry":{"type":"Point","coordinates":[8.6912039,50.0193153]}},
{"type":"Feature","properties":{},"geometry":{"type":"Point","coordinates":[8.691294,50.0192376]}},
{"type":"Feature","properties":{},"geometry":{"type":"Point","coordinates":[8.691341,50.0191249]}},
{"type":"Feature","properties":{},"geometry":{"type":"Point","coordinates":[8.6914987,50.0190222]}},
{"type":"Feature","properties":{},"geometry":{"type":"Point","coordinates":[8.6914946,50.0189314]}},
{"type":"Feature","properties":{},"geometry":{"type":"Point","coordinates":[8.6911772,50.018812]}},
{"type":"Feature","properties":{},"geometry":{"type":"Point","coordinates":[8.6910881,50.0188232]}},
{"type":"Feature","properties":{},"geometry":{"type":"Point","coordinates":[8.6910353,50.0186438]}},
{"type":"Feature","properties":{},"geometry":{"type":"Point","coordinates":[8.6913225,50.0187427]}},
{"type":"Feature","properties":{},"geometry":{"type":"Point","coordinates":[8.6916217,50.018813]}},
{"type":"Feature","properties":{},"geometry":{"type":"Point","coordinates":[8.6916853,50.0186981]}},
{"type":"Feature","properties":{},"geometry":{"type":"Point","coordinates":[8.6917927,50.0186086]}},
{"type":"Feature","properties":{},"geometry":{"type":"Point","coordinates":[8.6918404,50.0185046]}},
{"type":"Feature","properties":{},"geometry":{"type":"Point","coordinates":[8.6918869,50.0184092]}},
{"type":"Feature","properties":{},"geometry":{"type":"Point","coordinates":[8.6918761,50.0183214]}}
]
}
