{
"type": "FeatureCollection",
"name": "SELECT",
"xy_coordinate_resolution": 1e-07,
"features": [
{"type":"Feature","properties":{},"geometry":{"type":"LineString","coordinates":[[8.6866368,50.0171445],[8.6866732,50.0171408],[8.6866891,50.0172104],[8.6867033,50.0172573],[8.6867516,50.0174659]]}},
{"type":"Feature","properties":{},"geometry":{"type":"LineString","coordinates":[[8.6910115,50.015977],[8.6910205,50.0159843]]}},
{"type":"Feature","properties":{},"geometry":{"type":"LineString","coordinates":[[8.6853359,50.0172871],[8.685355,50.0172853]]}},
{"type":"Feature","properties":{},"geometry":{"type":"LineString","coordinates":[[8.6926345,50.0152145],[8.6926229,50.015207]]}},
{"type":"Feature","properties":{},"geometry":{"type":"LineString","coordinates":[[8.6915045,50.0144192],[8.6915238,50.0144294],[8.691528,50.0144316],[8.6915564,50.0144467]]}},
{"type":"Feature","properties":{},"geometry":{"type":"LineString","coordinates":[[8.6908782,50.0152666],[8.6908359,50.0152478],[8.6908088,50.0152358]]}},
{"type":"Feature","properties":{},"geometry":{"type":"LineString","coordinates":[[8.6868344,50.0171931],[8.6867518,50.0172513],[8.6867033,50.0172573]]}},
{"type":"Feature","properties":{},"geometry":{"type":"LineString","coordinates":[[8.6897826,50.0151209],[8.689773,50.0151176]]}},
{"type":"Feature","properties":{},"geometry":{"type":"LineString","coordinates":[[8.6917308,50.0161548],[8.6917209,50.0161646]]}},
{"type":"Feature","properties":{},"geometry":{"type":"LineString","coordinates":[[8.6894919,50.0154629],[8.6894775,50.0154576]]}},
{"type":"Feature","properties":{},"geometry":{"type":"LineString","coordinates":[[8.6921813,50.0152836],[8.6921949,50.0152753]]}},
{"type":"Feature","properties":{},"geometry":{"type":"LineString","coordinates":[[8.6886791,50.0158975],[8.6886622,50.0158831],[8.6886622,50.0158831]]}},
{"type":"Feature","properties":{},"geometry":{"type":"LineString","coordinates":[[8.6928906,50.0148886],[8.6929027,50.0148961]]}},
{"type":"Feature","properties":{},"geometry":{"type":"LineString","coordinates":[[8.6914666,50.0147749],[8.6914573,50.0147813]]}},
{"type":"Feature","properties":{},"geometry":{"type":"LineString","coordinates":[[8.6880093,50.0160651],[8.6880175,50.0160732]]}},
{"type":"Feature","properties":{},"geometry":{"type":"LineString","coordinates":[[8.6911697,50.0139527],[8.6911189,50.013921]]}},
{"type":"Feature","properties":{},"geometry":{"type":"LineString","coordinates":[[8.6902548,50.0156004],[8.690274,50.0156088]]}},
{"type":"Feature","properties":{},"geometry":{"type":"LineString","coordinates":[[8.6879163,50.017486],[8.6879096,50.0174519],[8.6879346,50.0174494]]}},
{"type":"Feature","properties":{},"geometry":{"type":"LineString","coordinates":[[8.6894707,50.015484],[8.6894586,50.0154795]]}},
{"type":"Feature","properties":{},"geometry":{"type":"LineString","coordinates":[[8.6890836,50.0172019],[8.6890924,50.0172397]]}},
{"type":"Feature","properties":{},"geometry":{"type":"LineString","coordinates":[[8.6864012,50.0176396],[8.6863919,50.0175955]]}},
{"type":"Feature","properties":{},"geometry":{"type":"LineString","coordinates":[[8.6902767,50.0147108],[8.6902003,50.0146781]]}},
{"type":"Feature","properties":{},"geometry":{"type":"LineString","coordinates":[[8.6924138,50.0152243],[8.6924268,50.0152315]]}},
{"type":"Feature","properties":{},"geometry":{"type":"LineString","coordinates":[[8.6869331,50.0175898],[8.6869236,50.0175452]]}},
{"type":"Feature","properties":{},"geometry":{"type":"LineString","coordinates":[[8.6866536,50.0172141],[8.6866891,50.0172104]]}},
{"type":"Feature","properties":{},"geometry":{"type":"LineString","coordinates":[[8.6865538,50.0174388],[8.6865644,50.0174828]]}},
{"type":"Feature","properties":{},"geometry":{"type":"LineString","coordinates":[[8.6909004,50.0141544],[8.6908495,50.0141244]]}},
{"type":"Feature","properties":{},"geometry":{"type":"LineString","coordinates":[[8.6905769,50.0152984],[8.6905877,50.0153027]]}},
{"type":"Feature","properties":{},"geometry":{"type":"LineString","coordinates":[[8.6902143,50.0158316],[8.6902001,50.0158252]]}},
{"type":"Feature","properties":{},"geometry":{"type":"LineString","coordinates":[[8.690186,50.0170691],[8.6902059,50.0170685]]}},
{"type":"Feature","properties":{},"geometry":{"type":"LineString","coordinates":[[8.6906785,50.0152007],[8.6906899,50.0152059]]}},
{"type":"Feature","properties":{},"geometry":{"type":"LineString","coordinates":[[8.6872364,50.0173715],[8.6872463,50.0174182]]}},
{"type":"Feature","properties":{},"geometry":{"type":"LineString","coordinates":[[8.6895342,50.0159055],[8.6895426,50.0159007]]}},
{"type":"Feature","properties":{},"geometry":{"type":"LineString","coordinates":[[8.6916372,50.0154092],[8.6916583,50.0154202],[8.6916449,50.0154305],[8.6915952,50.0154717]]}},
{"type":"Feature","properties":{},"geometry":{"type":"LineString","coordinates":[[8.6918467,50.0141321],[8.6919022,50.0141607]]}},
{"type":"Feature","properties":{},"geometry":{"type":"LineString","coordinates":[[8.6915746,50.0154612],[8.6915952,50.0154717],[8.6915949,50.0155132],[8.6917226,50.0156115]]}},
{"type":"Feature","properties":{},"geometry":{"type":"LineString","coordinates":[[8.6919549,50.0142608],[8.6919452,50.0142556]]}},
{"type":"Feature","properties":{},"geometry":{"type":"LineString","coordinates":[[8.6852594,50.0170376],[8.6853046,50.0170287]]}},
{"type":"Feature","properties":{},"geometry":{"type":"LineString","coordinates":[[8.6915552,50.014946],[8.6915649,50.0149394]]}},
{"type":"Feature","properties":{},"geometry":{"type":"LineString","coordinates":[[8.6857438,50.0175144],[8.6857537,50.0175588]]}},
{"type":"Feature","properties":{},"geometry":{"type":"LineString","coordinates":[[8.6866256,50.0174316],[8.6866356,50.0174764]]}},
{"type":"Feature","properties":{},"geometry":{"type":"LineString","coordinates":[[8.6877053,50.0162029],[8.6877148,50.0162112]]}},
{"type":"Feature","properties":{},"geometry":{"type":"LineString","coordinates":[[8.6918052,50.015713],[8.6918023,50.0157107],[8.6917878,50.0156991]]}},
{"type":"Feature","properties":{},"geometry":{"type":"LineString","coordinates":[[8.6902986,50.0146874],[8.6902244,50.0146554]]}},
{"type":"Feature","properties":{},"geometry":{"type":"LineString","coordinates":[[8.6897049,50.0152881],[8.6896432,50.0152658]]}},
{"type":"Feature","properties":{},"geometry":{"type":"LineString","coordinates":[[8.694431,50.0151178],[8.6945165,50.0151524]]}},
{"type":"Feature","properties":{},"geometry":{"type":"LineString","coordinates":[[8.6899317,50.0154445],[8.6895951,50.0153214]]}},
{"type":"Feature","properties":{},"geometry":{"type":"LineString","coordinates":[[8.6874329,50.0163284],[8.6874413,50.0163362]]}},
{"type":"Feature","properties":{},"geometry":{"type":"LineString","coordinates":[[8.6908896,50.0160399],[8.6908998,50.0160481]]}},
{"type":"Feature","properties":{},"geometry":{"type":"LineString","coordinates":[[8.6928231,50.0149368],[8.6928345,50.014944]]}},
{"type":"Feature","properties":{},"geometry":{"type":"LineString","coordinates":[[8.6894365,50.0164211],[8.6894351,50.0164133]]}},
{"type":"Feature","properties":{},"geometry":{"type":"LineString","coordinates":[[8.6906349,50.0161709],[8.6906493,50.0161811]]}},
{"type":"Feature","properties":{},"geometry":{"type":"LineString","coordinates":[[8.6875837,50.0162559],[8.6875955,50.0162655]]}},
{"type":"Feature","properties":{},"geometry":{"type":"LineString","coordinates":[[8.6932792,50.0146194],[8.6932869,50.0146245]]}},
{"type":"Feature","properties":{},"geometry":{"type":"LineString","coordinates":[[8.6907226,50.0161224],[8.6907374,50.0161339]]}},
{"type":"Feature","properties":{},"geometry":{"type":"LineString","coordinates":[[8.6911725,50.0158912],[8.6911821,50.0158987]]}},
{"type":"Feature","properties":{},"geometry":{"type":"LineString","coordinates":[[8.6905385,50.0155129],[8.690524,50.0155063]]}},
{"type":"Feature","properties":{},"geometry":{"type":"LineString","coordinates":[[8.6881215,50.0164091],[8.6881235,50.0164199]]}},
{"type":"Feature","properties":{},"geometry":{"type":"LineString","coordinates":[[8.6924085,50.0160449],[8.6924249,50.0160492]]}},
{"type":"Feature","properties":{},"geometry":{"type":"LineString","coordinates":[[8.6863435,50.0174581],[8.6863526,50.0175014]]}},
{"type":"Feature","properties":{},"geometry":{"type":"LineString","coordinates":[[8.6893507,50.0171722],[8.6893604,50.0172146]]}},
{"type":"Feature","properties":{},"geometry":{"type":"LineString","coordinates":[[8.6920184,50.0162613],[8.6920113,50.0162705]]}},
{"type":"Feature","properties":{},"geometry":{"type":"LineString","coordinates":[[8.6919921,50.015612],[8.6919755,50.0155994],[8.6919755,50.0155994]]}},
{"type":"Feature","properties":{},"geometry":{"type":"LineString","coordinates":[[8.6901097,50.0148428],[8.6900539,50.0148194]]}},
{"type":"Feature","properties":{},"geometry":{"type":"LineString","coordinates":[[8.6901011,50.0166914],[8.6901172,50.01669]]}},
{"type":"Feature","properties":{},"geometry":{"type":"LineString","coordinates":[[8.6904657,50.0155883],[8.6904724,50.0155819],[8.690455,50.0155742]]}},
{"type":"Feature","properties":{},"geometry":{"type":"LineString","coordinates":[[8.6908864,50.0150039],[8.6908988,50.0150093]]}},
{"type":"Feature","properties":{},"geometry":{"type":"LineString","coordinates":[[8.6899648,50.0149236],[8.6899534,50.0149188]]}},
{"type":"Feature","properties":{},"geometry":{"type":"LineString","coordinates":[[8.6884403,50.01601],[8.6884285,50.015999]]}},
{"type":"Feature","properties":{},"geometry":{"type":"LineString","coordinates":[[8.691732,50.014229],[8.6917867,50.014256]]}},
{"type":"Feature","properties":{},"geometry":{"type":"LineString","coordinates":[[8.6898933,50.0150715],[8.6898348,50.0150481]]}},
{"type":"Feature","properties":{},"geometry":{"type":"LineString","coordinates":[[8.6918532,50.0149768],[8.6918446,50.0149836]]}},
{"type":"Feature","properties":{},"geometry":{"type":"LineString","coordinates":[[8.6923292,50.013953],[8.6923157,50.0139455]]}},
{"type":"Feature","properties":{},"geometry":{"type":"LineString","coordinates":[[8.6901442,50.0168807],[8.6901619,50.016879]]}},
{"type":"Feature","properties":{},"geometry":{"type":"LineString","coordinates":[[8.69193,50.0151442],[8.6919412,50.0151352]]}},
{"type":"Feature","properties":{},"geometry":{"type":"LineString","coordinates":[[8.6896999,50.0160794],[8.6897548,50.0160481]]}},
{"type":"Feature","properties":{},"geometry":{"type":"LineString","coordinates":[[8.6922297,50.0162706],[8.6922491,50.0162774]]}},
{"type":"Feature","properties":{},"geometry":{"type":"LineString","coordinates":[[8.6919712,50.0142486],[8.6919605,50.0142429]]}},
{"type":"Feature","properties":{},"geometry":{"type":"LineString","coordinates":[[8.6906336,50.0154163],[8.6906226,50.0154117]]}},
{"type":"Feature","properties":{},"geometry":{"type":"LineString","coordinates":[[8.6928689,50.0156655],[8.6928538,50.01566]]}},
{"type":"Feature","properties":{},"geometry":{"type":"LineString","coordinates":[[8.6870284,50.0173889],[8.6870779,50.0173848],[8.6870874,50.0174331]]}},
{"type":"Feature","properties":{},"geometry":{"type":"LineString","coordinates":[[8.6887465,50.0163573],[8.6887489,50.016371]]}},
{"type":"Feature","properties":{},"geometry":{"type":"LineString","coordinates":[[8.6943436,50.0149738],[8.6943838,50.0149223]]}},
{"type":"Feature","properties":{},"geometry":{"type":"LineString","coordinates":[[8.6901566,50.0157053],[8.6901707,50.0157102]]}},
{"type":"Feature","properties":{},"geometry":{"type":"LineString","coordinates":[[8.6921815,50.0147523],[8.6922328,50.0147794],[8.6919345,50.01503]]}},
{"type":"Feature","properties":{},"geometry":{"type":"LineString","coordinates":[[8.6866518,50.0176123],[8.6866415,50.0175719]]}},
{"type":"Feature","properties":{},"geometry":{"type":"LineString","coordinates":[[8.6876365,50.01752],[8.6875689,50.017485]]}},
{"type":"Feature","properties":{},"geometry":{"type":"LineString","coordinates":[[8.690267,50.0157788],[8.6902528,50.0157733]]}},
{"type":"Feature","properties":{},"geometry":{"type":"LineString","coordinates":[[8.6916214,50.0145396],[8.6916093,50.0145327]]}},
{"type":"Feature","properties":{},"geometry":{"type":"LineString","coordinates":[[8.6901305,50.0159104],[8.6901189,50.0159057]]}},
{"type":"Feature","properties":{},"geometry":{"type":"LineString","coordinates":[[8.6868151,50.0165165],[8.6868225,50.0165592]]}},
{"type":"Feature","properties":{},"geometry":{"type":"LineString","coordinates":[[8.6928285,50.0150809],[8.6928151,50.0150716]]}},
{"type":"Feature","properties":{},"geometry":{"type":"LineString","coordinates":[[8.6899881,50.0149029],[8.6899749,50.0148973]]}},
{"type":"Feature","properties":{},"geometry":{"type":"LineString","coordinates":[[8.6882474,50.0172715],[8.6882555,50.0173094],[8.688258,50.0173199]]}},
{"type":"Feature","properties":{},"geometry":{"type":"LineString","coordinates":[[8.6902887,50.0174996],[8.6903004,50.0174986]]}},
{"type":"Feature","properties":{},"geometry":{"type":"LineString","coordinates":[[8.6901515,50.0172838],[8.6901412,50.0172393]]}},
{"type":"Feature","properties":{},"geometry":{"type":"LineString","coordinates":[[8.6896961,50.0173277],[8.6896857,50.0172823]]}},
{"type":"Feature","properties":{},"geometry":{"type":"LineString","coordinates":[[8.6887912,50.0155805],[8.688778,50.0155947],[8.6888781,50.0156936]]}},
{"type":"Feature","properties":{},"geometry":{"type":"LineString","coordinates":[[8.6906693,50.0144835],[8.6906785,50.0144761]]}},
{"type":"Feature","properties":{},"geometry":{"type":"LineString","coordinates":[[8.6932502,50.0147818],[8.6932403,50.0147756]]}},
{"type":"Feature","properties":{},"geometry":{"type":"LineString","coordinates":[[8.6853916,50.0174732],[8.6853741,50.0174746]]}},
{"type":"Feature","properties":{},"geometry":{"type":"LineString","coordinates":[[8.6854851,50.0179609],[8.6854009,50.0179678]]}},
{"type":"Feature","properties":{},"geometry":{"type":"LineString","coordinates":[[8.6903056,50.0145816],[8.6903714,50.0146106]]}},
{"type":"Feature","properties":{},"geometry":{"type":"LineString","coordinates":[[8.6907366,50.0153269],[8.690721,50.0153192]]}},
{"type":"Feature","properties":{},"geometry":{"type":"LineString","coordinates":[[8.6925622,50.0137412],[8.692577,50.013749]]}},
{"type":"Feature","properties":{},"geometry":{"type":"LineString","coordinates":[[8.6921189,50.0141261],[8.6921079,50.0141196]]}},
{"type":"Feature","properties":{},"geometry":{"type":"LineString","coordinates":[[8.68577,50.0175138],[8.6857707,50.0175168],[8.6857798,50.0175564]]}},
{"type":"Feature","properties":{},"geometry":{"type":"LineString","coordinates":[[8.6879163,50.017486],[8.6879075,50.0174521],[8.6879299,50.0174499]]}},
{"type":"Feature","properties":{},"geometry":{"type":"LineString","coordinates":[[8.6923292,50.013953],[8.6923157,50.0139455]]}},
{"type":"Feature","properties":{},"geometry":{"type":"LineString","coordinates":[[8.6969903,50.0236138],[8.6969762,50.0236155]]}},
{"type":"Feature","properties":{},"geometry":{"type":"LineString","coordinates":[[8.696578,50.0201003],[8.6965598,50.0201057]]}},
{"type":"Feature","properties":{},"geometry":{"type":"LineString","coordinates":[[8.6968323,50.0204354],[8.6968183,50.0204398]]}},
{"type":"Feature","properties":{},"geometry":{"type":"LineString","coordinates":[[8.6966876,50.0202442],[8.6966732,50.0202488]]}},
{"type":"Feature","properties":{},"geometry":{"type":"LineString","coordinates":[[8.6970571,50.0207312],[8.6970418,50.0207362]]}},
{"type":"Feature","properties":{},"geometry":{"type":"LineString","coordinates":[[8.6971341,50.0209607],[8.6971321,50.0209342]]}},
{"type":"Feature","properties":{},"geometry":{"type":"LineString","coordinates":[[8.6962254,50.021116],[8.6962208,50.0211039]]}},
{"type":"Feature","properties":{},"geometry":{"type":"LineString","coordinates":[[8.695985,50.0211557],[8.6959803,50.0211434]]}},
{"type":"Feature","properties":{},"geometry":{"type":"LineString","coordinates":[[8.6965541,50.02106],[8.6965496,50.0210478]]}},
{"type":"Feature","properties":{},"geometry":{"type":"LineString","coordinates":[[8.696356,50.0210938],[8.6963504,50.0210801]]}},
{"type":"Feature","properties":{},"geometry":{"type":"LineString","coordinates":[[8.6961398,50.0212257],[8.6961338,50.0212109]]}},
{"type":"Feature","properties":{},"geometry":{"type":"LineString","coordinates":[[8.6964308,50.0211732],[8.6964261,50.0211618]]}},
{"type":"Feature","properties":{},"geometry":{"type":"LineString","coordinates":[[8.6959591,50.0212562],[8.6959535,50.0212412]]}},
{"type":"Feature","properties":{},"geometry":{"type":"LineString","coordinates":[[8.6967868,50.0211169],[8.6967807,50.0211022]]}},
{"type":"Feature","properties":{},"geometry":{"type":"LineString","coordinates":[[8.6976082,50.0216372],[8.6976041,50.0216275]]}},
{"type":"Feature","properties":{},"geometry":{"type":"LineString","coordinates":[[8.6975234,50.0213461],[8.6974575,50.0213671]]}},
{"type":"Feature","properties":{},"geometry":{"type":"LineString","coordinates":[[8.6967131,50.0217608],[8.6967094,50.0217501]]}},
{"type":"Feature","properties":{},"geometry":{"type":"LineString","coordinates":[[8.6966163,50.0217738],[8.6966127,50.0217636]]}},
{"type":"Feature","properties":{},"geometry":{"type":"LineString","coordinates":[[8.6964337,50.0217988],[8.6964229,50.0217677]]}},
{"type":"Feature","properties":{},"geometry":{"type":"LineString","coordinates":[[8.6967074,50.0221549],[8.6967389,50.0221521],[8.6967956,50.0221507],[8.6967955,50.0221457]]}},
{"type":"Feature","properties":{},"geometry":{"type":"LineString","coordinates":[[8.696659,50.0218493],[8.6966556,50.0218397],[8.6966159,50.0218441]]}},
{"type":"Feature","properties":{},"geometry":{"type":"LineString","coordinates":[[8.6974911,50.021906],[8.6974602,50.0218963],[8.6974281,50.0217321]]}},
{"type":"Feature","properties":{},"geometry":{"type":"LineString","coordinates":[[8.6967979,50.0218304],[8.6967955,50.021819]]}},
{"type":"Feature","properties":{},"geometry":{"type":"LineString","coordinates":[[8.6977194,50.0217331],[8.697696,50.0216967]]}},
{"type":"Feature","properties":{},"geometry":{"type":"LineString","coordinates":[[8.6978917,50.0228005],[8.6978821,50.0227901]]}},
{"type":"Feature","properties":{},"geometry":{"type":"LineString","coordinates":[[8.6983455,50.0224214],[8.6983477,50.0224581]]}},
{"type":"Feature","properties":{},"geometry":{"type":"LineString","coordinates":[[8.6969188,50.0229464],[8.6969747,50.0229395]]}},
{"type":"Feature","properties":{},"geometry":{"type":"LineString","coordinates":[[8.6967895,50.0224894],[8.6968136,50.0224866]]}},
{"type":"Feature","properties":{},"geometry":{"type":"LineString","coordinates":[[8.6956245,50.0229204],[8.6956425,50.0229204]]}},
{"type":"Feature","properties":{},"geometry":{"type":"LineString","coordinates":[[8.6983455,50.0229007],[8.698327,50.0229009],[8.6983255,50.0228837],[8.698229,50.0227675]]}},
{"type":"Feature","properties":{},"geometry":{"type":"LineString","coordinates":[[8.6979028,50.0229822],[8.6978975,50.0229845],[8.6978297,50.022915]]}},
{"type":"Feature","properties":{},"geometry":{"type":"LineString","coordinates":[[8.6977518,50.0230115],[8.69774,50.0229999],[8.6977067,50.0229672]]}},
{"type":"Feature","properties":{},"geometry":{"type":"LineString","coordinates":[[8.6981431,50.0228724],[8.6981373,50.0228747],[8.6980849,50.0228171]]}},
{"type":"Feature","properties":{},"geometry":{"type":"LineString","coordinates":[[8.6973252,50.0231666],[8.6972906,50.0231081]]}},
{"type":"Feature","properties":{},"geometry":{"type":"LineString","coordinates":[[8.6971096,50.0236269],[8.6971325,50.0236236]]}},
{"type":"Feature","properties":{},"geometry":{"type":"LineString","coordinates":[[8.6970094,50.0238737],[8.6970091,50.0238706],[8.6970083,50.0238639]]}},
{"type":"Feature","properties":{},"geometry":{"type":"LineString","coordinates":[[8.6966285,50.0232344],[8.6966299,50.023244]]}},
{"type":"Feature","properties":{},"geometry":{"type":"LineString","coordinates":[[8.6970191,50.023753],[8.696994,50.0237536]]}},
{"type":"Feature","properties":{},"geometry":{"type":"LineString","coordinates":[[8.6963187,50.0232624],[8.6963179,50.023254],[8.6963116,50.0232544]]}},
{"type":"Feature","properties":{},"geometry":{"type":"LineString","coordinates":[[8.6959584,50.0232762],[8.695959,50.023285]]}},
{"type":"Feature","properties":{},"geometry":{"type":"LineString","coordinates":[[8.6963249,50.023876],[8.6963249,50.0238738],[8.696325,50.0238654]]}},
{"type":"Feature","properties":{},"geometry":{"type":"LineString","coordinates":[[8.6959624,50.0238721],[8.6959498,50.0238719],[8.6959499,50.0238693],[8.6959503,50.0238594]]}},
{"type":"Feature","properties":{},"geometry":{"type":"LineString","coordinates":[[8.6965018,50.0238778],[8.6964876,50.0238776],[8.6964877,50.0238747],[8.6964879,50.0238676]]}},
{"type":"Feature","properties":{},"geometry":{"type":"LineString","coordinates":[[8.6974362,50.0238409],[8.6974372,50.023849]]}},
{"type":"Feature","properties":{},"geometry":{"type":"LineString","coordinates":[[8.6972059,50.0238525],[8.6972067,50.0238606]]}},
{"type":"Feature","properties":{},"geometry":{"type":"LineString","coordinates":[[8.7024219,50.0223003],[8.7023324,50.0223006]]}},
{"type":"Feature","properties":{},"geometry":{"type":"LineString","coordinates":[[8.7027919,50.0211347],[8.7028208,50.021107]]}},
{"type":"Feature","properties":{},"geometry":{"type":"LineString","coordinates":[[8.7015051,50.0203277],[8.7013488,50.0202684]]}},
{"type":"Feature","properties":{},"geometry":{"type":"LineString","coordinates":[[8.7003994,50.0235655],[8.7003945,50.0235595]]}},
{"type":"Feature","properties":{},"geometry":{"type":"LineString","coordinates":[[8.7023625,50.0231713],[8.7023443,50.0231157],[8.7023384,50.0230976]]}},
{"type":"Feature","properties":{},"geometry":{"type":"LineString","coordinates":[[8.7001491,50.0236193],[8.7001287,50.023593],[8.7001207,50.0235828],[8.7001148,50.0235752]]}},
{"type":"Feature","properties":{},"geometry":{"type":"LineString","coordinates":[[8.7002411,50.0235998],[8.7002246,50.0235774],[8.700208,50.023555],[8.7002029,50.0235481]]}},
{"type":"Feature","properties":{},"geometry":{"type":"LineString","coordinates":[[8.6998128,50.0227888],[8.6997659,50.0227399]]}},
{"type":"Feature","properties":{},"geometry":{"type":"LineString","coordinates":[[8.7000557,50.0233013],[8.7001048,50.0232866]]}},
{"type":"Feature","properties":{},"geometry":{"type":"LineString","coordinates":[[8.6993873,50.0231108],[8.6994922,50.0230766]]}},
{"type":"Feature","properties":{},"geometry":{"type":"LineString","coordinates":[[8.6995555,50.0233395],[8.6996406,50.0233123]]}},
{"type":"Feature","properties":{},"geometry":{"type":"LineString","coordinates":[[8.7018352,50.0228397],[8.7017618,50.0228532]]}},
{"type":"Feature","properties":{},"geometry":{"type":"LineString","coordinates":[[8.7007283,50.0234962],[8.7007102,50.0234589],[8.7006921,50.0234216]]}},
{"type":"Feature","properties":{},"geometry":{"type":"LineString","coordinates":[[8.7009094,50.0234577],[8.7008896,50.0234151],[8.7008871,50.0234099],[8.7008749,50.0233836]]}},
{"type":"Feature","properties":{},"geometry":{"type":"LineString","coordinates":[[8.7015248,50.0233265],[8.701499,50.0232752]]}},
{"type":"Feature","properties":{},"geometry":{"type":"LineString","coordinates":[[8.7017129,50.0232863],[8.7016769,50.0232091]]}},
{"type":"Feature","properties":{},"geometry":{"type":"LineString","coordinates":[[8.7025571,50.0231477],[8.7025648,50.0230935],[8.7024219,50.022931],[8.7024991,50.0228723],[8.7025128,50.0228793]]}},
{"type":"Feature","properties":{},"geometry":{"type":"LineString","coordinates":[[8.7000279,50.0231822],[8.6999767,50.0231987]]}},
{"type":"Feature","properties":{},"geometry":{"type":"LineString","coordinates":[[8.6996174,50.0234197],[8.6996711,50.0234008]]}},
{"type":"Feature","properties":{},"geometry":{"type":"LineString","coordinates":[[8.7005604,50.0227583],[8.7006051,50.0226861]]}},
{"type":"Feature","properties":{},"geometry":{"type":"LineString","coordinates":[[8.7009482,50.0229697],[8.7010757,50.0229433]]}},
{"type":"Feature","properties":{},"geometry":{"type":"LineString","coordinates":[[8.701454,50.0230151],[8.701436,50.0229783]]}},
{"type":"Feature","properties":{},"geometry":{"type":"LineString","coordinates":[[8.6991273,50.0225395],[8.69908,50.0224917]]}},
{"type":"Feature","properties":{},"geometry":{"type":"LineString","coordinates":[[8.7024991,50.0228723],[8.7025671,50.0228197],[8.7025795,50.0228269]]}},
{"type":"Feature","properties":{},"geometry":{"type":"LineString","coordinates":[[8.7020134,50.0228885],[8.7020256,50.0228859]]}},
{"type":"Feature","properties":{},"geometry":{"type":"LineString","coordinates":[[8.6994904,50.023255],[8.6995002,50.0232517]]}},
{"type":"Feature","properties":{},"geometry":{"type":"LineString","coordinates":[[8.6994174,50.0231604],[8.6994276,50.0231571]]}},
{"type":"Feature","properties":{},"geometry":{"type":"LineString","coordinates":[[8.7018704,50.0200539],[8.7018928,50.0200294],[8.7019034,50.0200179]]}},
{"type":"Feature","properties":{},"geometry":{"type":"LineString","coordinates":[[8.7021302,50.0201526],[8.7021584,50.0201196],[8.7021699,50.0201061]]}},
{"type":"Feature","properties":{},"geometry":{"type":"LineString","coordinates":[[8.7022255,50.0201368],[8.7022135,50.0201502],[8.7022074,50.0201571],[8.7021917,50.0201746]]}},
{"type":"Feature","properties":{},"geometry":{"type":"LineString","coordinates":[[8.7027619,50.0203333],[8.7028379,50.0203625]]}},
{"type":"Feature","properties":{},"geometry":{"type":"LineString","coordinates":[[8.7028672,50.0203134],[8.7027861,50.0202825]]}},
{"type":"Feature","properties":{},"geometry":{"type":"LineString","coordinates":[[8.7019449,50.0205568],[8.7018964,50.0205391]]}},
{"type":"Feature","properties":{},"geometry":{"type":"LineString","coordinates":[[8.70159,50.0205079],[8.7016411,50.0204461],[8.7015965,50.0204329]]}},
{"type":"Feature","properties":{},"geometry":{"type":"LineString","coordinates":[[8.7026221,50.0216177],[8.7026675,50.0216295],[8.7026998,50.0216378]]}},
{"type":"Feature","properties":{},"geometry":{"type":"LineString","coordinates":[[8.7021655,50.0226314],[8.7021482,50.0225796]]}},
{"type":"Feature","properties":{},"geometry":{"type":"LineString","coordinates":[[8.7018679,50.0217001],[8.7019822,50.0217201],[8.7019893,50.0217214],[8.7020576,50.0217334]]}},
{"type":"Feature","properties":{},"geometry":{"type":"LineString","coordinates":[[8.7021242,50.0202859],[8.70214,50.0202911],[8.7021488,50.0202941],[8.7021735,50.0203023]]}},
{"type":"Feature","properties":{},"geometry":{"type":"LineString","coordinates":[[8.7025357,50.0210287],[8.702551,50.0210136],[8.7025688,50.0209958],[8.7025863,50.0210028]]}},
{"type":"Feature","properties":{},"geometry":{"type":"LineString","coordinates":[[8.7025066,50.0220803],[8.7024321,50.0220694],[8.7024115,50.0220664]]}},
{"type":"Feature","properties":{},"geometry":{"type":"LineString","coordinates":[[8.7017836,50.0222696],[8.7018579,50.0222689],[8.7018834,50.022269]]}},
{"type":"Feature","properties":{},"geometry":{"type":"LineString","coordinates":[[8.7025185,50.0212431],[8.7025986,50.0211502],[8.7026174,50.0211283]]}},
{"type":"Feature","properties":{},"geometry":{"type":"LineString","coordinates":[[8.702699,50.0214115],[8.7027995,50.0214442]]}},
{"type":"Feature","properties":{},"geometry":{"type":"LineString","coordinates":[[8.7029209,50.0202195],[8.702846,50.0201935]]}},
{"type":"Feature","properties":{},"geometry":{"type":"LineString","coordinates":[[8.7020672,50.0200787],[8.7020503,50.0200977],[8.7020345,50.0201155]]}},
{"type":"Feature","properties":{},"geometry":{"type":"LineString","coordinates":[[8.7020298,50.0226521],[8.7020166,50.0226093]]}},
{"type":"Feature","properties":{},"geometry":{"type":"LineString","coordinates":[[8.702586,50.0218761],[8.7025468,50.0218653],[8.7025106,50.0218579]]}},
{"type":"Feature","properties":{},"geometry":{"type":"LineString","coordinates":[[8.7026,50.0212779],[8.7027025,50.0211613]]}},
{"type":"Feature","properties":{},"geometry":{"type":"LineString","coordinates":[[8.7021433,50.0200961],[8.7021384,50.0201017],[8.7021348,50.0201058],[8.7021301,50.0201111],[8.7021285,50.0201129],[8.7021028,50.0201423]]}},
{"type":"Feature","properties":{},"geometry":{"type":"LineString","coordinates":[[8.7026903,50.021661],[8.702654,50.0216518],[8.7026297,50.0216457],[8.7024718,50.021606],[8.702476,50.0215994]]}},
{"type":"Feature","properties":{},"geometry":{"type":"LineString","coordinates":[[8.7015558,50.0220564],[8.7015087,50.0220563],[8.7014561,50.0220562],[8.7013789,50.0220561]]}},
{"type":"Feature","properties":{},"geometry":{"type":"LineString","coordinates":[[8.7015665,50.0219631],[8.7014929,50.0219634],[8.7014708,50.0219634],[8.70135,50.0219639]]}},
{"type":"Feature","properties":{},"geometry":{"type":"LineString","coordinates":[[8.7016056,50.0217904],[8.7013829,50.0217911],[8.701379,50.0217912]]}},
{"type":"Feature","properties":{},"geometry":{"type":"LineString","coordinates":[[8.7016121,50.0213063],[8.7016271,50.0213096],[8.701822,50.0213526]]}},
{"type":"Feature","properties":{},"geometry":{"type":"LineString","coordinates":[[8.7015646,50.0210196],[8.7015121,50.0210574]]}},
{"type":"Feature","properties":{},"geometry":{"type":"LineString","coordinates":[[8.7013623,50.0209703],[8.7014342,50.0209203]]}},
{"type":"Feature","properties":{},"geometry":{"type":"LineString","coordinates":[[8.7012148,50.0209211],[8.7011935,50.0208492],[8.7012693,50.0207916],[8.7012799,50.0207839]]}},
{"type":"Feature","properties":{},"geometry":{"type":"LineString","coordinates":[[8.7011786,50.0209251],[8.7011585,50.0208574],[8.7010779,50.0208256],[8.7010517,50.0208153]]}},
{"type":"Feature","properties":{},"geometry":{"type":"LineString","coordinates":[[8.7010258,50.0210584],[8.7009275,50.0210194]]}},
{"type":"Feature","properties":{},"geometry":{"type":"LineString","coordinates":[[8.7006649,50.0214665],[8.7005735,50.0214297],[8.7005392,50.0214159]]}},
{"type":"Feature","properties":{},"geometry":{"type":"LineString","coordinates":[[8.7004381,50.0217185],[8.7003776,50.0216953],[8.7003392,50.0216805]]}},
{"type":"Feature","properties":{},"geometry":{"type":"LineString","coordinates":[[8.7003739,50.0217897],[8.7002978,50.0217611],[8.7002461,50.0217418]]}},
{"type":"Feature","properties":{},"geometry":{"type":"LineString","coordinates":[[8.7003033,50.0218691],[8.7002606,50.0218528],[8.7002028,50.0218307]]}},
{"type":"Feature","properties":{},"geometry":{"type":"LineString","coordinates":[[8.7002376,50.0219839],[8.7001444,50.0220049],[8.700036,50.021964],[8.7000176,50.021957],[8.7000138,50.0219556]]}},
{"type":"Feature","properties":{},"geometry":{"type":"LineString","coordinates":[[8.6997818,50.0222649],[8.6998297,50.0222149]]}},
{"type":"Feature","properties":{},"geometry":{"type":"LineString","coordinates":[[8.7001271,50.0224194],[8.7001803,50.0223623],[8.7002199,50.0223197]]}},
{"type":"Feature","properties":{},"geometry":{"type":"LineString","coordinates":[[8.7006203,50.0224882],[8.7005419,50.0225748]]}},
{"type":"Feature","properties":{},"geometry":{"type":"LineString","coordinates":[[8.7008464,50.0225518],[8.7007924,50.0226111],[8.7007689,50.0226369]]}},
{"type":"Feature","properties":{},"geometry":{"type":"LineString","coordinates":[[8.7014494,50.0226183],[8.7013956,50.0226783],[8.7013779,50.022698]]}},
{"type":"Feature","properties":{},"geometry":{"type":"LineString","coordinates":[[8.7013423,50.0215874],[8.7013561,50.02159],[8.7016588,50.0216477]]}},
{"type":"Feature","properties":{},"geometry":{"type":"LineString","coordinates":[[8.7013817,50.0221471],[8.7014204,50.0221637],[8.701552,50.0221652]]}},
{"type":"Feature","properties":{},"geometry":{"type":"LineString","coordinates":[[8.700982,50.0211076],[8.700907,50.0210803]]}},
{"type":"Feature","properties":{},"geometry":{"type":"LineString","coordinates":[[8.7009367,50.0211576],[8.7008619,50.0211305]]}},
{"type":"Feature","properties":{},"geometry":{"type":"LineString","coordinates":[[8.7008913,50.0212075],[8.7007905,50.0211675]]}},
{"type":"Feature","properties":{},"geometry":{"type":"LineString","coordinates":[[8.7008456,50.0212576],[8.7007436,50.021219]]}},
{"type":"Feature","properties":{},"geometry":{"type":"LineString","coordinates":[[8.7008015,50.021308],[8.7007303,50.0212788]]}},
{"type":"Feature","properties":{},"geometry":{"type":"LineString","coordinates":[[8.7006174,50.0215194],[8.7005539,50.0214942],[8.7004905,50.021469]]}},
{"type":"Feature","properties":{},"geometry":{"type":"LineString","coordinates":[[8.700521,50.0216249],[8.700467,50.021605],[8.7004232,50.0215889]]}},
{"type":"Feature","properties":{},"geometry":{"type":"LineString","coordinates":[[8.7003307,50.0218395],[8.7002427,50.0218066],[8.7001993,50.0217904]]}},
{"type":"Feature","properties":{},"geometry":{"type":"LineString","coordinates":[[8.7002515,50.0219246],[8.7001854,50.0219002],[8.7001497,50.021887]]}},
{"type":"Feature","properties":{},"geometry":{"type":"LineString","coordinates":[[8.701034,50.0225907],[8.7009919,50.0226365],[8.7009815,50.0226479],[8.7009591,50.0226722]]}},
{"type":"Feature","properties":{},"geometry":{"type":"LineString","coordinates":[[8.6995257,50.0211814],[8.6995272,50.0211868],[8.6995287,50.0211921],[8.6995498,50.0212675],[8.6998333,50.0213781]]}},
{"type":"Feature","properties":{},"geometry":{"type":"LineString","coordinates":[[8.6979305,50.0216149],[8.6979298,50.0216139],[8.6979478,50.0216084]]}},
{"type":"Feature","properties":{},"geometry":{"type":"LineString","coordinates":[[8.6981013,50.0218411],[8.6981198,50.0218348]]}},
{"type":"Feature","properties":{},"geometry":{"type":"LineString","coordinates":[[8.6983919,50.0222242],[8.6984113,50.0222178]]}},
{"type":"Feature","properties":{},"geometry":{"type":"LineString","coordinates":[[8.6986456,50.0225245],[8.6986223,50.0225318]]}},
{"type":"Feature","properties":{},"geometry":{"type":"LineString","coordinates":[[8.7000669,50.0211199],[8.7000253,50.0211041],[8.7000044,50.0210962]]}},
{"type":"Feature","properties":{},"geometry":{"type":"LineString","coordinates":[[8.6994032,50.0220164],[8.6993222,50.0219846],[8.6992904,50.0219721]]}},
{"type":"Feature","properties":{},"geometry":{"type":"LineString","coordinates":[[8.6983001,50.0220668],[8.6982791,50.0220752]]}},
{"type":"Feature","properties":{},"geometry":{"type":"LineString","coordinates":[[8.6975593,50.0191713],[8.6975717,50.0191125]]}},
{"type":"Feature","properties":{},"geometry":{"type":"LineString","coordinates":[[8.6977287,50.0191873],[8.6977435,50.019128]]}},
{"type":"Feature","properties":{},"geometry":{"type":"LineString","coordinates":[[8.6984948,50.0197451],[8.6985107,50.0197418]]}},
{"type":"Feature","properties":{},"geometry":{"type":"LineString","coordinates":[[8.6980146,50.0202306],[8.6980188,50.0202761]]}},
{"type":"Feature","properties":{},"geometry":{"type":"LineString","coordinates":[[8.6973877,50.0202585],[8.6973719,50.0202591],[8.6973754,50.0203065]]}},
{"type":"Feature","properties":{},"geometry":{"type":"LineString","coordinates":[[8.696627,50.0198655],[8.6965974,50.0198746]]}},
{"type":"Feature","properties":{},"geometry":{"type":"LineString","coordinates":[[8.6966424,50.019379],[8.6962989,50.0193387],[8.6962085,50.019368]]}},
{"type":"Feature","properties":{},"geometry":{"type":"LineString","coordinates":[[8.6978998,50.0206486],[8.6978729,50.0206491],[8.6978713,50.0206233]]}},
{"type":"Feature","properties":{},"geometry":{"type":"LineString","coordinates":[[8.6979587,50.0206206],[8.6979592,50.0206473]]}},
{"type":"Feature","properties":{},"geometry":{"type":"LineString","coordinates":[[8.6980742,50.0206174],[8.698074,50.0206438]]}},
{"type":"Feature","properties":{},"geometry":{"type":"LineString","coordinates":[[8.6983666,50.0206105],[8.6983672,50.0206341]]}},
{"type":"Feature","properties":{},"geometry":{"type":"LineString","coordinates":[[8.6985855,50.0206036],[8.6985866,50.020627]]}},
{"type":"Feature","properties":{},"geometry":{"type":"LineString","coordinates":[[8.6987403,50.0205969],[8.6987416,50.0206229]]}},
{"type":"Feature","properties":{},"geometry":{"type":"LineString","coordinates":[[8.6988286,50.0209408],[8.6988144,50.0209408]]}},
{"type":"Feature","properties":{},"geometry":{"type":"LineString","coordinates":[[8.6988412,50.0205457],[8.6988413,50.0205502],[8.6988289,50.0205575],[8.6987896,50.020581]]}},
{"type":"Feature","properties":{},"geometry":{"type":"LineString","coordinates":[[8.6989805,50.0205313],[8.6989806,50.0205555],[8.6988289,50.0205575],[8.6987896,50.020581]]}},
{"type":"Feature","properties":{},"geometry":{"type":"LineString","coordinates":[[8.6989325,50.0206254],[8.6989156,50.0206278],[8.6987929,50.0206246]]}},
{"type":"Feature","properties":{},"geometry":{"type":"LineString","coordinates":[[8.6990693,50.0204389],[8.699198,50.0204366],[8.6992248,50.0204219]]}},
{"type":"Feature","properties":{},"geometry":{"type":"LineString","coordinates":[[8.6944182,50.0152357],[8.6943443,50.0152122]]}},
{"type":"Feature","properties":{},"geometry":{"type":"LineString","coordinates":[[8.6943434,50.015301],[8.6942679,50.0152734]]}},
{"type":"Feature","properties":{},"geometry":{"type":"LineString","coordinates":[[8.6993161,50.0208236],[8.6996258,50.0207766],[8.6997065,50.0207358],[8.6997439,50.0207073]]}},
{"type":"Feature","properties":{},"geometry":{"type":"LineString","coordinates":[[8.699371,50.0202962],[8.6993323,50.0202461]]}},
{"type":"Feature","properties":{},"geometry":{"type":"LineString","coordinates":[[8.6897127,50.0158564],[8.6897003,50.0158633]]}},
{"type":"Feature","properties":{},"geometry":{"type":"LineString","coordinates":[[8.6997776,50.0202306],[8.6997822,50.0201757]]}},
{"type":"Feature","properties":{},"geometry":{"type":"LineString","coordinates":[[8.7001687,50.0201247],[8.7001651,50.0201156]]}},
{"type":"Feature","properties":{},"geometry":{"type":"LineString","coordinates":[[8.700683,50.0200438],[8.7006796,50.020035]]}},
{"type":"Feature","properties":{},"geometry":{"type":"LineString","coordinates":[[8.7009963,50.0199952],[8.7009926,50.0199859]]}},
{"type":"Feature","properties":{},"geometry":{"type":"LineString","coordinates":[[8.7012182,50.0202648],[8.7012046,50.0202665]]}},
{"type":"Feature","properties":{},"geometry":{"type":"LineString","coordinates":[[8.700645,50.0204879],[8.7006865,50.0205208]]}},
{"type":"Feature","properties":{},"geometry":{"type":"LineString","coordinates":[[8.700027,50.0208728],[8.7000354,50.0208647]]}},
{"type":"Feature","properties":{},"geometry":{"type":"LineString","coordinates":[[8.6977545,50.0202885],[8.6977536,50.0202792]]}},
{"type":"Feature","properties":{},"geometry":{"type":"LineString","coordinates":[[8.6982105,50.0202669],[8.6982094,50.0202567]]}},
{"type":"Feature","properties":{},"geometry":{"type":"LineString","coordinates":[[8.6985261,50.0202519],[8.6985257,50.0202421]]}},
{"type":"Feature","properties":{},"geometry":{"type":"LineString","coordinates":[[8.699539,50.0206293],[8.6995752,50.0205913]]}},
{"type":"Feature","properties":{},"geometry":{"type":"LineString","coordinates":[[8.7006663,50.0200468],[8.7006629,50.0200376]]}},
{"type":"Feature","properties":{},"geometry":{"type":"LineString","coordinates":[[8.7007215,50.0201991],[8.7007732,50.0201904],[8.7007081,50.0200305]]}},
{"type":"Feature","properties":{},"geometry":{"type":"LineString","coordinates":[[8.6959146,50.0189799],[8.6960806,50.018966],[8.6961004,50.0189677],[8.6960991,50.0189755]]}},
{"type":"Feature","properties":{},"geometry":{"type":"LineString","coordinates":[[8.6981839,50.0206402],[8.6981834,50.0206325]]}},
{"type":"Feature","properties":{},"geometry":{"type":"LineString","coordinates":[[8.6984715,50.0206307],[8.6984712,50.0206236]]}},
{"type":"Feature","properties":{},"geometry":{"type":"LineString","coordinates":[[8.6940881,50.015895],[8.6940934,50.015888]]}},
{"type":"Feature","properties":{},"geometry":{"type":"LineString","coordinates":[[8.6922175,50.0178563],[8.6922209,50.0178497]]}},
{"type":"Feature","properties":{},"geometry":{"type":"LineString","coordinates":[[8.6928508,50.0177854],[8.6928623,50.0177876]]}},
{"type":"Feature","properties":{},"geometry":{"type":"LineString","coordinates":[[8.6933201,50.0180524],[8.6933167,50.0180598]]}},
{"type":"Feature","properties":{},"geometry":{"type":"LineString","coordinates":[[8.6943347,50.0182418],[8.6943321,50.0182472]]}},
{"type":"Feature","properties":{},"geometry":{"type":"LineString","coordinates":[[8.6945293,50.0182844],[8.6945329,50.0182775]]}},
{"type":"Feature","properties":{},"geometry":{"type":"LineString","coordinates":[[8.6950591,50.017734],[8.6950646,50.0177235]]}},
{"type":"Feature","properties":{},"geometry":{"type":"LineString","coordinates":[[8.6941226,50.0175692],[8.694135,50.0175449]]}},
{"type":"Feature","properties":{},"geometry":{"type":"LineString","coordinates":[[8.6937856,50.0174896],[8.6937907,50.0174791]]}},
{"type":"Feature","properties":{},"geometry":{"type":"LineString","coordinates":[[8.7000715,50.0226772],[8.7000659,50.0226708]]}},
{"type":"Feature","properties":{},"geometry":{"type":"LineString","coordinates":[[8.6995285,50.0228879],[8.6995337,50.022895]]}},
{"type":"Feature","properties":{},"geometry":{"type":"LineString","coordinates":[[8.6998497,50.0224191],[8.6998624,50.0224142]]}},
{"type":"Feature","properties":{},"geometry":{"type":"LineString","coordinates":[[8.6993475,50.0223755],[8.6993417,50.0223692]]}},
{"type":"Feature","properties":{},"geometry":{"type":"LineString","coordinates":[[8.6988862,50.0225639],[8.6988915,50.0225711]]}},
{"type":"Feature","properties":{},"geometry":{"type":"LineString","coordinates":[[8.7019999,50.0214562],[8.7020105,50.021459]]}},
{"type":"Feature","properties":{},"geometry":{"type":"LineString","coordinates":[[8.7022041,50.0212062],[8.7022145,50.0212102]]}},
{"type":"Feature","properties":{},"geometry":{"type":"LineString","coordinates":[[8.7026868,50.0208065],[8.7026986,50.0208118]]}},
{"type":"Feature","properties":{},"geometry":{"type":"LineString","coordinates":[[8.7028403,50.0206644],[8.7028524,50.0206694]]}},
{"type":"Feature","properties":{},"geometry":{"type":"LineString","coordinates":[[8.7029704,50.0205257],[8.702982,50.0205298]]}},
{"type":"Feature","properties":{},"geometry":{"type":"LineString","coordinates":[[8.7019505,50.0200845],[8.7019554,50.0200796]]}},
{"type":"Feature","properties":{},"geometry":{"type":"LineString","coordinates":[[8.7018519,50.0201578],[8.7019287,50.0200764]]}},
{"type":"Feature","properties":{},"geometry":{"type":"LineString","coordinates":[[8.7024543,50.0208497],[8.7024432,50.0208453]]}},
{"type":"Feature","properties":{},"geometry":{"type":"LineString","coordinates":[[8.7020262,50.0207401],[8.7020332,50.020733]]}},
{"type":"Feature","properties":{},"geometry":{"type":"LineString","coordinates":[[8.7002935,50.0223495],[8.7002026,50.022448]]}},
{"type":"Feature","properties":{},"geometry":{"type":"LineString","coordinates":[[8.6999024,50.0223324],[8.6999078,50.0223271]]}},
{"type":"Feature","properties":{},"geometry":{"type":"LineString","coordinates":[[8.6999768,50.022362],[8.6999818,50.0223562]]}},
{"type":"Feature","properties":{},"geometry":{"type":"LineString","coordinates":[[8.7000541,50.0223917],[8.7000599,50.0223854]]}},
{"type":"Feature","properties":{},"geometry":{"type":"LineString","coordinates":[[8.7002921,50.0224819],[8.7002988,50.0224747]]}},
{"type":"Feature","properties":{},"geometry":{"type":"LineString","coordinates":[[8.7004432,50.0225395],[8.7004501,50.022533]]}},
{"type":"Feature","properties":{},"geometry":{"type":"LineString","coordinates":[[8.7006222,50.022599],[8.7006288,50.022592]]}},
{"type":"Feature","properties":{},"geometry":{"type":"LineString","coordinates":[[8.7008394,50.0226527],[8.7008458,50.0226461]]}},
{"type":"Feature","properties":{},"geometry":{"type":"LineString","coordinates":[[8.7010309,50.0226819],[8.7010389,50.0226736]]}},
{"type":"Feature","properties":{},"geometry":{"type":"LineString","coordinates":[[8.7011158,50.0226903],[8.7011234,50.0226818]]}},
{"type":"Feature","properties":{},"geometry":{"type":"LineString","coordinates":[[8.7012396,50.0226976],[8.7012496,50.022687]]}},
{"type":"Feature","properties":{},"geometry":{"type":"LineString","coordinates":[[8.701557,50.0222332],[8.7015401,50.0222331]]}},
{"type":"Feature","properties":{},"geometry":{"type":"LineString","coordinates":[[8.7016951,50.0215634],[8.7016801,50.0215597]]}},
{"type":"Feature","properties":{},"geometry":{"type":"LineString","coordinates":[[8.7018408,50.0213273],[8.7018282,50.021324]]}},
{"type":"Feature","properties":{},"geometry":{"type":"LineString","coordinates":[[8.7016727,50.0211498],[8.7016818,50.0211438]]}},
{"type":"Feature","properties":{},"geometry":{"type":"LineString","coordinates":[[8.7016034,50.0211101],[8.7016128,50.0211043]]}},
{"type":"Feature","properties":{},"geometry":{"type":"LineString","coordinates":[[8.7014556,50.0210241],[8.7014633,50.021019]]}},
{"type":"Feature","properties":{},"geometry":{"type":"LineString","coordinates":[[8.701274,50.0209208],[8.7012823,50.0209158]]}},
{"type":"Feature","properties":{},"geometry":{"type":"LineString","coordinates":[[8.7011214,50.0209516],[8.7011103,50.020947]]}},
{"type":"Feature","properties":{},"geometry":{"type":"LineString","coordinates":[[8.7010836,50.0209934],[8.7010157,50.0209656]]}},
{"type":"Feature","properties":{},"geometry":{"type":"LineString","coordinates":[[8.7005709,50.0215712],[8.7005586,50.0215668]]}},
{"type":"Feature","properties":{},"geometry":{"type":"LineString","coordinates":[[8.7004795,50.0216728],[8.7004664,50.0216688]]}},
{"type":"Feature","properties":{},"geometry":{"type":"LineString","coordinates":[[8.7002376,50.0219839],[8.7002177,50.0219765]]}},
{"type":"Feature","properties":{},"geometry":{"type":"LineString","coordinates":[[8.6932434,50.0177776],[8.6929938,50.0177223]]}},
{"type":"Feature","properties":{},"geometry":{"type":"LineString","coordinates":[[8.6881363,50.0160191],[8.6881294,50.0160128]]}},
{"type":"Feature","properties":{},"geometry":{"type":"LineString","coordinates":[[8.6906728,50.014371],[8.6907361,50.0143494]]}},
{"type":"Feature","properties":{},"geometry":{"type":"LineString","coordinates":[[8.6925817,50.0151224],[8.6925728,50.0151168]]}},
{"type":"Feature","properties":{},"geometry":{"type":"LineString","coordinates":[[8.6931192,50.0148609],[8.6931289,50.0148667]]}},
{"type":"Feature","properties":{},"geometry":{"type":"LineString","coordinates":[[8.6956344,50.0236247],[8.6956197,50.0236247]]}},
{"type":"Feature","properties":{},"geometry":{"type":"LineString","coordinates":[[8.6852448,50.0169806],[8.6852939,50.0169704]]}},
{"type":"Feature","properties":{},"geometry":{"type":"LineString","coordinates":[[8.6898445,50.0162437],[8.6898525,50.0162495]]}},
{"type":"Feature","properties":{},"geometry":{"type":"LineString","coordinates":[[8.6851915,50.0168541],[8.6852466,50.0168422]]}},
{"type":"Feature","properties":{},"geometry":{"type":"LineString","coordinates":[[8.6956708,50.0194615],[8.695653,50.0194615]]}},
{"type":"Feature","properties":{},"geometry":{"type":"LineString","coordinates":[[8.695668,50.0197295],[8.6956518,50.0197295]]}},
{"type":"Feature","properties":{},"geometry":{"type":"LineString","coordinates":[[8.697973,50.0227585],[8.6979818,50.0227697],[8.6979837,50.0227691]]}},
{"type":"Feature","properties":{},"geometry":{"type":"LineString","coordinates":[[8.6956282,50.0222954],[8.6956466,50.0222955]]}},
{"type":"Feature","properties":{},"geometry":{"type":"LineString","coordinates":[[8.6975483,50.0210864],[8.697533,50.0210917]]}},
{"type":"Feature","properties":{},"geometry":{"type":"LineString","coordinates":[[8.6975783,50.0238419],[8.6975776,50.0238324]]}},
{"type":"Feature","properties":{},"geometry":{"type":"LineString","coordinates":[[8.690858,50.0174678],[8.6908563,50.0174809]]}},
{"type":"Feature","properties":{},"geometry":{"type":"LineString","coordinates":[[8.6905018,50.0175057],[8.6905041,50.0175154]]}},
{"type":"Feature","properties":{},"geometry":{"type":"LineString","coordinates":[[8.6916888,50.0169597],[8.6916953,50.0169511]]}},
{"type":"Feature","properties":{},"geometry":{"type":"LineString","coordinates":[[8.6919606,50.0170437],[8.6919673,50.0170348]]}},
{"type":"Feature","properties":{},"geometry":{"type":"LineString","coordinates":[[8.6918744,50.0168208],[8.6918805,50.0168122],[8.6919143,50.0168222],[8.6918465,50.016911]]}},
{"type":"Feature","properties":{},"geometry":{"type":"LineString","coordinates":[[8.690946,50.016622],[8.6909387,50.0166311]]}},
{"type":"Feature","properties":{},"geometry":{"type":"LineString","coordinates":[[8.6906002,50.0165159],[8.6905937,50.016525]]}},
{"type":"Feature","properties":{},"geometry":{"type":"LineString","coordinates":[[8.6909158,50.0161832],[8.6909067,50.0161753]]}},
{"type":"Feature","properties":{},"geometry":{"type":"LineString","coordinates":[[8.691165,50.0160365],[8.6911811,50.0160486]]}},
{"type":"Feature","properties":{},"geometry":{"type":"LineString","coordinates":[[8.6915142,50.0161926],[8.6915241,50.0161839]]}},
{"type":"Feature","properties":{},"geometry":{"type":"LineString","coordinates":[[8.6916873,50.0162622],[8.6916948,50.0162528]]}},
{"type":"Feature","properties":{},"geometry":{"type":"LineString","coordinates":[[8.6918916,50.0163312],[8.6919002,50.0163209]]}},
{"type":"Feature","properties":{},"geometry":{"type":"LineString","coordinates":[[8.6919927,50.0163645],[8.6920015,50.0163533]]}},
{"type":"Feature","properties":{},"geometry":{"type":"LineString","coordinates":[[8.692203,50.0164303],[8.6922108,50.0164203]]}},
{"type":"Feature","properties":{},"geometry":{"type":"LineString","coordinates":[[8.6923379,50.0164733],[8.6923459,50.0164635]]}},
{"type":"Feature","properties":{},"geometry":{"type":"LineString","coordinates":[[8.6926535,50.0165769],[8.6926627,50.0165649]]}},
{"type":"Feature","properties":{},"geometry":{"type":"LineString","coordinates":[[8.6927595,50.0166071],[8.6927664,50.016598]]}},
{"type":"Feature","properties":{},"geometry":{"type":"LineString","coordinates":[[8.6930414,50.0166988],[8.6930497,50.016688]]}},
{"type":"Feature","properties":{},"geometry":{"type":"LineString","coordinates":[[8.6934968,50.0163763],[8.6935561,50.0163841],[8.6935538,50.01639]]}},
{"type":"Feature","properties":{},"geometry":{"type":"LineString","coordinates":[[8.6932742,50.0168344],[8.6933276,50.0168455],[8.6933325,50.0168359]]}},
{"type":"Feature","properties":{},"geometry":{"type":"LineString","coordinates":[[8.6921168,50.0170915],[8.6921234,50.0170828]]}},
{"type":"Feature","properties":{},"geometry":{"type":"LineString","coordinates":[[8.6922246,50.0171253],[8.6922311,50.0171169]]}},
{"type":"Feature","properties":{},"geometry":{"type":"LineString","coordinates":[[8.6924359,50.0171899],[8.6924432,50.0171805]]}},
{"type":"Feature","properties":{},"geometry":{"type":"LineString","coordinates":[[8.6926504,50.0172607],[8.6926596,50.0172478]]}},
{"type":"Feature","properties":{},"geometry":{"type":"LineString","coordinates":[[8.6927083,50.0171765],[8.6927139,50.0171683]]}},
{"type":"Feature","properties":{},"geometry":{"type":"LineString","coordinates":[[8.6925832,50.0171377],[8.6925894,50.0171292]]}},
{"type":"Feature","properties":{},"geometry":{"type":"LineString","coordinates":[[8.6924457,50.0170956],[8.6924517,50.0170871]]}},
{"type":"Feature","properties":{},"geometry":{"type":"LineString","coordinates":[[8.6914548,50.0182698],[8.6914429,50.0182694],[8.691446,50.0182421]]}},
{"type":"Feature","properties":{},"geometry":{"type":"LineString","coordinates":[[8.6914327,50.0181633],[8.6914349,50.0181511]]}},
{"type":"Feature","properties":{},"geometry":{"type":"LineString","coordinates":[[8.690742,50.0181272],[8.6907385,50.0181161]]}},
{"type":"Feature","properties":{},"geometry":{"type":"LineString","coordinates":[[8.6904913,50.0182224],[8.6904947,50.0182315]]}},
{"type":"Feature","properties":{},"geometry":{"type":"LineString","coordinates":[[8.6899786,50.0183343],[8.6899856,50.0183433]]}},
{"type":"Feature","properties":{},"geometry":{"type":"LineString","coordinates":[[8.6893422,50.0184635],[8.6893366,50.0184559]]}},
{"type":"Feature","properties":{},"geometry":{"type":"LineString","coordinates":[[8.6918869,50.0184092],[8.691904,50.0184125]]}},
{"type":"Feature","properties":{},"geometry":{"type":"LineString","coordinates":[[8.6918404,50.0185046],[8.6918582,50.0185078]]}},
{"type":"Feature","properties":{},"geometry":{"type":"LineString","coordinates":[[8.6917927,50.0186086],[8.6918087,50.0186114]]}},
{"type":"Feature","properties":{},"geometry":{"type":"LineString","coordinates":[[8.6916217,50.018813],[8.6916169,50.0188211]]}},
{"type":"Feature","properties":{},"geometry":{"type":"LineString","coordinates":[[8.6913225,50.0187427],[8.6913175,50.018751]]}},
{"type":"Feature","properties":{},"geometry":{"type":"LineString","coordinates":[[8.6910353,50.0186438],[8.691023,50.0186525]]}},
{"type":"Feature","properties":{},"geometry":{"type":"LineString","coordinates":[[8.6908258,50.0187211],[8.6908128,50.0187132]]}},
{"type":"Feature","properties":{},"geometry":{"type":"LineString","coordinates":[[8.6914987,50.0190222],[8.6915144,50.0190262]]}},
{"type":"Feature","properties":{},"geometry":{"type":"LineString","coordinates":[[8.6905272,50.0189219],[8.6905154,50.0189144]]}},
{"type":"Feature","properties":{},"geometry":{"type":"LineString","coordinates":[[8.6906383,50.018845],[8.6906279,50.0188386]]}},
{"type":"Feature","properties":{},"geometry":{"type":"LineString","coordinates":[[8.6907155,50.0187941],[8.6907041,50.018787]]}},
{"type":"Feature","properties":{},"geometry":{"type":"LineString","coordinates":[[8.6904751,50.0188106],[8.6904917,50.0188212]]}},
{"type":"Feature","properties":{},"geometry":{"type":"LineString","coordinates":[[8.6906007,50.0187261],[8.6906173,50.0187369]]}},
{"type":"Feature","properties":{},"geometry":{"type":"LineString","coordinates":[[8.6912039,50.0193153],[8.6912159,50.0193212]]}},
{"type":"Feature","properties":{},"geometry":{"type":"LineString","coordinates":[[8.6913049,50.0192424],[8.691294,50.0192376]]}},
{"type":"Feature","properties":{},"geometry":{"type":"LineString","coordinates":[[8.6905991,50.0194498],[8.6905929,50.0194574]]}},
{"type":"Feature","properties":{},"geometry":{"type":"LineString","coordinates":[[8.6903457,50.0193733],[8.6903535,50.0193654]]}},
{"type":"Feature","properties":{},"geometry":{"type":"LineString","coordinates":[[8.6900835,50.0192811],[8.6900965,50.0192715]]}},
{"type":"Feature","properties":{},"geometry":{"type":"LineString","coordinates":[[8.6941856,50.0182197],[8.694194,50.0182017]]}},
{"type":"Feature","properties":{},"geometry":{"type":"LineString","coordinates":[[8.6999224,50.0236507],[8.6998786,50.02359]]}},
{"type":"Feature","properties":{},"geometry":{"type":"LineString","coordinates":[[8.6974189,50.0209109],[8.6973998,50.0209168]]}},
{"type":"Feature","properties":{},"geometry":{"type":"LineString","coordinates":[[8.697682,50.0212604],[8.6976656,50.0212656]]}},
{"type":"Feature","properties":{},"geometry":{"type":"LineString","coordinates":[[8.6976828,50.0212882],[8.6977534,50.0212659],[8.6977754,50.0212675],[8.6978325,50.0212498],[8.6981387,50.0212462]]}},
{"type":"Feature","properties":{},"geometry":{"type":"LineString","coordinates":[[8.6974156,50.022987],[8.6974209,50.0229851],[8.6974151,50.0229779]]}},
{"type":"Feature","properties":{},"geometry":{"type":"LineString","coordinates":[[8.6985263,50.0224017],[8.6985447,50.0223952]]}},
{"type":"Feature","properties":{},"geometry":{"type":"LineString","coordinates":[[8.696149,50.0219199],[8.6961453,50.0219078]]}},
{"type":"Feature","properties":{},"geometry":{"type":"LineString","coordinates":[[8.688638,50.017242],[8.6886475,50.0172825]]}},
{"type":"Feature","properties":{},"geometry":{"type":"LineString","coordinates":[[8.6956647,50.0199932],[8.6956504,50.0199931]]}},
{"type":"Feature","properties":{},"geometry":{"type":"LineString","coordinates":[[8.6910701,50.0140245],[8.691019,50.0139952]]}},
{"type":"Feature","properties":{},"geometry":{"type":"LineString","coordinates":[[8.6875309,50.0170468],[8.6874808,50.0170508]]}},
{"type":"Feature","properties":{},"geometry":{"type":"LineString","coordinates":[[8.698072,50.0217984],[8.6981885,50.0217613],[8.6984933,50.0217572]]}},
{"type":"Feature","properties":{},"geometry":{"type":"LineString","coordinates":[[8.6916195,50.0143249],[8.6916723,50.0143511]]}},
{"type":"Feature","properties":{},"geometry":{"type":"LineString","coordinates":[[8.6913978,50.0159247],[8.6913847,50.0159144]]}},
{"type":"Feature","properties":{},"geometry":{"type":"LineString","coordinates":[[8.691689,50.0157706],[8.6916739,50.015759]]}},
{"type":"Feature","properties":{},"geometry":{"type":"LineString","coordinates":[[8.6976607,50.0195162],[8.6977023,50.0193461],[8.6977547,50.0192522],[8.6977811,50.0191314]]}},
{"type":"Feature","properties":{},"geometry":{"type":"LineString","coordinates":[[8.6861105,50.0176662],[8.6861002,50.0176234]]}},
{"type":"Feature","properties":{},"geometry":{"type":"LineString","coordinates":[[8.6884415,50.0165038],[8.6884395,50.016496]]}},
{"type":"Feature","properties":{},"geometry":{"type":"LineString","coordinates":[[8.691284,50.0145996],[8.6913397,50.0146258],[8.6913617,50.0146079]]}},
{"type":"Feature","properties":{},"geometry":{"type":"LineString","coordinates":[[8.6901314,50.01675],[8.6901176,50.0167516]]}},
{"type":"Feature","properties":{},"geometry":{"type":"LineString","coordinates":[[8.6873014,50.0170667],[8.6873548,50.0170621]]}},
{"type":"Feature","properties":{},"geometry":{"type":"LineString","coordinates":[[8.6927435,50.0148898],[8.6927283,50.0148803],[8.6927541,50.0148635],[8.6927106,50.0148358]]}},
{"type":"Feature","properties":{},"geometry":{"type":"LineString","coordinates":[[8.6879621,50.0164335],[8.6879607,50.0164263]]}},
{"type":"Feature","properties":{},"geometry":{"type":"LineString","coordinates":[[8.6877229,50.016555],[8.6877243,50.0165624]]}},
{"type":"Feature","properties":{},"geometry":{"type":"LineString","coordinates":[[8.6984429,50.0209288],[8.6984444,50.0209587],[8.6980873,50.020973],[8.6979978,50.0209991],[8.6978233,50.0210037],[8.6976108,50.0209946],[8.6974832,50.0210264]]}},
{"type":"Feature","properties":{},"geometry":{"type":"LineString","coordinates":[[8.6895662,50.0184849],[8.6895591,50.0184768]]}},
{"type":"Feature","properties":{},"geometry":{"type":"LineString","coordinates":[[8.6889074,50.0173986],[8.6889002,50.0173561]]}},
{"type":"Feature","properties":{},"geometry":{"type":"LineString","coordinates":[[8.6853197,50.0171894],[8.6853352,50.0171883]]}},
{"type":"Feature","properties":{},"geometry":{"type":"LineString","coordinates":[[8.6962594,50.0193239],[8.6961914,50.0193461]]}},
{"type":"Feature","properties":{},"geometry":{"type":"LineString","coordinates":[[8.6956441,50.0230038],[8.6956239,50.0230037]]}},
{"type":"Feature","properties":{},"geometry":{"type":"LineString","coordinates":[[8.6969076,50.0225876],[8.6968229,50.0226009]]}},
{"type":"Feature","properties":{},"geometry":{"type":"LineString","coordinates":[[8.6968061,50.0225435],[8.6969341,50.0225281],[8.696985,50.0225416],[8.6971348,50.0225227],[8.697132,50.0225137]]}},
{"type":"Feature","properties":{},"geometry":{"type":"LineString","coordinates":[[8.6971348,50.0225227],[8.6971811,50.0225172]]}},
{"type":"Feature","properties":{},"geometry":{"type":"LineString","coordinates":[[8.6964051,50.0202592],[8.6964057,50.0202661],[8.6964544,50.0202633],[8.6966547,50.0202012]]}},
{"type":"Feature","properties":{},"geometry":{"type":"LineString","coordinates":[[8.6956593,50.0210305],[8.6956413,50.0210303]]}},
{"type":"Feature","properties":{},"geometry":{"type":"LineString","coordinates":[[8.6993484,50.0218263],[8.6994355,50.0218561]]}},
{"type":"Feature","properties":{},"geometry":{"type":"LineString","coordinates":[[8.6993747,50.0222263],[8.6993694,50.0222664]]}},
{"type":"Feature","properties":{},"geometry":{"type":"LineString","coordinates":[[8.6971654,50.0205778],[8.6971444,50.0205837]]}},
{"type":"Feature","properties":{},"geometry":{"type":"LineString","coordinates":[[8.694194,50.0182017],[8.6942594,50.0180597],[8.6943092,50.0180602],[8.6944518,50.0180812]]}}
]
}
