{
"type": "FeatureCollection",
"name": "SELECT",
"xy_coordinate_resolution": 1e-07,
"features": [
{"type":"Feature","properties":{},"geometry":{"type":"Point","coordinates":[8.6881146,50.0170057]}},
{"type":"Feature","properties":{},"geometry":{"type":"Point","coordinates":[8.6926708,50.0154037]}},
{"type":"Feature","properties":{},"geometry":{"type":"Point","coordinates":[8.6884622,50.0160081]}},
{"type":"Feature","properties":{},"geometry":{"type":"Point","coordinates":[8.6913465,50.0146397]}},
{"type":"Feature","properties":{},"geometry":{"type":"Point","coordinates":[8.6886671,50.0169663]}},
{"type":"Feature","properties":{},"geometry":{"type":"Point","coordinates":[8.6880127,50.017447]}},
{"type":"Feature","properties":{},"geometry":{"type":"Point","coordinates":[8.6857234,50.0176648]}},
{"type":"Feature","properties":{},"geometry":{"type":"Point","coordinates":[8.6922024,50.01405]}},
{"type":"Feature","properties":{},"geometry":{"type":"Point","coordinates":[8.6906782,50.01521]}},
{"type":"Feature","properties":{},"geometry":{"type":"Point","coordinates":[8.7039637,50.0270239]}},
{"type":"Feature","properties":{},"geometry":{"type":"Point","coordinates":[8.6965625,50.0197986]}},
{"type":"Feature","properties":{},"geometry":{"type":"Point","coordinates":[8.6970215,50.0203733]}},
{"type":"Feature","properties":{},"geometry":{"type":"Point","coordinates":[8.6991228,50.0202823]}},
{"type":"Feature","properties":{},"geometry":{"type":"Point","coordinates":[8.7023946,50.018815]}},
{"type":"Feature","properties":{},"geometry":{"type":"Point","coordinates":[8.6961368,50.0218356]}},
{"type":"Feature","properties":{},"geometry":{"type":"Point","coordinates":[8.6964308,50.0218685]}},
{"type":"Feature","properties":{},"geometry":{"type":"Point","coordinates":[8.6990396,50.0233311]}},
{"type":"Feature","properties":{},"geometry":{"type":"Point","coordinates":[8.6966461,50.0224106]}},
{"type":"Feature","properties":{},"geometry":{"type":"Point","coordinates":[8.6970237,50.0238247]}},
{"type":"Feature","properties":{},"geometry":{"type":"Point","coordinates":[8.7019974,50.0214752]}},
{"type":"Feature","properties":{},"geometry":{"type":"Point","coordinates":[8.6985559,50.0224184]}},
{"type":"Feature","properties":{},"geometry":{"type":"Point","coordinates":[8.7004239,50.0224749]}},
{"type":"Feature","properties":{},"geometry":{"type":"Point","coordinates":[8.7002316,50.0225785]}},
{"type":"Feature","properties":{},"geometry":{"type":"Point","coordinates":[8.6981667,50.0219226]}},
{"type":"Feature","properties":{},"geometry":{"type":"Point","coordinates":[8.6929553,50.0178152]}},
{"type":"Feature","properties":{},"geometry":{"type":"Point","coordinates":[8.6924606,50.0199679]}},
{"type":"Feature","properties":{},"geometry":{"type":"Point","coordinates":[8.6886671,50.0169663]}},
{"type":"Feature","properties":{},"geometry":{"type":"Point","coordinates":[8.6901947,50.019372]}},
{"type":"Feature","properties":{},"geometry":{"type":"Point","coordinates":[8.6906862,50.0163282]}},
{"type":"Feature","properties":{},"geometry":{"type":"Point","coordinates":[8.6905774,50.0179511]}},
{"type":"Feature","properties":{},"geometry":{"type":"Point","coordinates":[8.6922537,50.0170327]}},
{"type":"Feature","properties":{},"geometry":{"type":"Point","coordinates":[8.6906679,50.01855]}}
]
}
