{
"type": "FeatureCollection",
"name": "SELECT",
"xy_coordinate_resolution": 1e-07,
"features": [
{"type":"Feature","properties":{},"geometry":{"type":"LineString","coordinates":[[8.6873997,50.0175006],[8.6872898,50.0175104],[8.6871196,50.0175265],[8.6869474,50.0175429],[8.6869236,50.0175452],[8.6866704,50.0175692],[8.686656,50.0175705]]}},
{"type":"Feature","properties":{},"geometry":{"type":"LineString","coordinates":[[8.6897956,50.0162888],[8.6896169,50.0163031],[8.6890701,50.0163456],[8.6889345,50.0163555],[8.6887965,50.0163671],[8.6887489,50.016371],[8.6887284,50.0163727]]}},
{"type":"Feature","properties":{},"geometry":{"type":"LineString","coordinates":[[8.6927981,50.015527],[8.6928474,50.0154612]]}},
{"type":"Feature","properties":{},"geometry":{"type":"LineString","coordinates":[[8.6886892,50.0158681],[8.6886024,50.0159162],[8.6886011,50.0159208]]}},
{"type":"Feature","properties":{},"geometry":{"type":"LineString","coordinates":[[8.6929172,50.0155776],[8.6928125,50.0155443]]}},
{"type":"Feature","properties":{},"geometry":{"type":"LineString","coordinates":[[8.6918931,50.0134067],[8.6917079,50.013527],[8.6916707,50.0135506]]}},
{"type":"Feature","properties":{},"geometry":{"type":"LineString","coordinates":[[8.6899977,50.0160252],[8.6899944,50.0160235],[8.6898821,50.0159663],[8.68988,50.0159652]]}},
{"type":"Feature","properties":{},"geometry":{"type":"LineString","coordinates":[[8.6880127,50.017447],[8.6880122,50.0174446],[8.6880117,50.0174423]]}},
{"type":"Feature","properties":{},"geometry":{"type":"LineString","coordinates":[[8.6857005,50.0175635],[8.6857225,50.0176606]]}},
{"type":"Feature","properties":{},"geometry":{"type":"LineString","coordinates":[[8.6918931,50.0134067],[8.6917754,50.0133331],[8.691593,50.0134504],[8.6908383,50.013373],[8.6906953,50.0133625],[8.6906836,50.0133465],[8.6906964,50.0133097]]}},
{"type":"Feature","properties":{},"geometry":{"type":"LineString","coordinates":[[8.6881918,50.0161009],[8.6881143,50.0160291]]}},
{"type":"Feature","properties":{},"geometry":{"type":"LineString","coordinates":[[8.6911881,50.0147495],[8.6912849,50.0146847]]}},
{"type":"Feature","properties":{},"geometry":{"type":"LineString","coordinates":[[8.6917209,50.0161646],[8.6917727,50.016189],[8.6918146,50.016205],[8.6918562,50.0162192],[8.6920113,50.0162705],[8.6922062,50.0163345]]}},
{"type":"Feature","properties":{},"geometry":{"type":"LineString","coordinates":[[8.6879929,50.0173457],[8.6880117,50.0174423]]}},
{"type":"Feature","properties":{},"geometry":{"type":"LineString","coordinates":[[8.6857225,50.0176606],[8.6856192,50.0176707],[8.685593,50.0176793]]}},
{"type":"Feature","properties":{},"geometry":{"type":"LineString","coordinates":[[8.6880117,50.0174423],[8.6879346,50.0174494]]}},
{"type":"Feature","properties":{},"geometry":{"type":"LineString","coordinates":[[8.6906964,50.0133097],[8.6906109,50.0134863],[8.6903252,50.0139199],[8.6900791,50.014268],[8.6898892,50.0145116],[8.6898107,50.0147698],[8.6891771,50.0154157],[8.689092,50.0156334],[8.6889966,50.0156709],[8.6888942,50.0157135],[8.6886776,50.0158018],[8.6885755,50.0158713],[8.6885384,50.0159483],[8.6885358,50.0160231],[8.6886021,50.0163874],[8.6886212,50.0164925],[8.6886983,50.0169093],[8.6886671,50.0169663]]}},
{"type":"Feature","properties":{},"geometry":{"type":"LineString","coordinates":[[8.6912849,50.0146847],[8.6913666,50.0147265]]}},
{"type":"Feature","properties":{},"geometry":{"type":"LineString","coordinates":[[8.688759,50.0167952],[8.6887604,50.016802],[8.6887824,50.0169061],[8.6888573,50.0172616]]}},
{"type":"Feature","properties":{},"geometry":{"type":"LineString","coordinates":[[8.6891196,50.0173359],[8.6888739,50.0173585]]}},
{"type":"Feature","properties":{},"geometry":{"type":"LineString","coordinates":[[8.6913541,50.0159312],[8.6913852,50.0159141],[8.6915333,50.0158328],[8.6916739,50.015759],[8.6917878,50.0156991],[8.691982,50.0155959],[8.6920997,50.0155329],[8.6922713,50.0154428],[8.6923558,50.0153952],[8.6925,50.0152908]]}},
{"type":"Feature","properties":{},"geometry":{"type":"LineString","coordinates":[[8.6884669,50.0160056],[8.6884622,50.0160081]]}},
{"type":"Feature","properties":{},"geometry":{"type":"LineString","coordinates":[[8.6906782,50.01521],[8.6906831,50.0152123]]}},
{"type":"Feature","properties":{},"geometry":{"type":"LineString","coordinates":[[8.6912849,50.0146847],[8.6913465,50.0146397]]}},
{"type":"Feature","properties":{},"geometry":{"type":"LineString","coordinates":[[8.6887311,50.0172744],[8.6888573,50.0172616]]}},
{"type":"Feature","properties":{},"geometry":{"type":"LineString","coordinates":[[8.6946423,50.0150403],[8.6946361,50.0150516],[8.6945898,50.0150914],[8.6945165,50.0151524],[8.694451,50.0152078],[8.6944182,50.0152357],[8.6943724,50.0152747]]}},
{"type":"Feature","properties":{},"geometry":{"type":"LineString","coordinates":[[8.6907385,50.0161333],[8.6909539,50.0160195],[8.6913479,50.015811],[8.6917093,50.0156184],[8.692127,50.0153989],[8.6922583,50.0153321],[8.6922602,50.0153277],[8.6922578,50.0153246],[8.692168,50.0152543],[8.6919849,50.0151582],[8.6917644,50.0150421],[8.6915936,50.0149546],[8.6913108,50.0148048]]}},
{"type":"Feature","properties":{},"geometry":{"type":"LineString","coordinates":[[8.6934439,50.0157489],[8.6933217,50.0157019],[8.6931837,50.0156486],[8.6931427,50.0156326],[8.6929259,50.0155656],[8.6929172,50.0155776]]}},
{"type":"Feature","properties":{},"geometry":{"type":"LineString","coordinates":[[8.6886671,50.0169663],[8.6885754,50.0165014]]}},
{"type":"Feature","properties":{},"geometry":{"type":"LineString","coordinates":[[8.6901172,50.01669],[8.6901619,50.016879],[8.6901784,50.0169468],[8.6902059,50.0170685],[8.6902154,50.0171139],[8.6902136,50.0171191],[8.6901912,50.0171351],[8.6901833,50.0171388],[8.6896666,50.0171861],[8.689514,50.0172003],[8.6893604,50.0172146],[8.6892037,50.0172293],[8.6890924,50.0172397],[8.6889197,50.0172556],[8.6888573,50.0172616]]}},
{"type":"Feature","properties":{},"geometry":{"type":"LineString","coordinates":[[8.6887311,50.0172744],[8.6886295,50.0172842],[8.6884286,50.0173035],[8.688258,50.0173199],[8.6880894,50.0173362],[8.6879929,50.0173457]]}},
{"type":"Feature","properties":{},"geometry":{"type":"LineString","coordinates":[[8.6874525,50.0169053],[8.6874858,50.0170761],[8.6875327,50.0173175],[8.6875411,50.0173603],[8.6875937,50.0173839]]}},
{"type":"Feature","properties":{},"geometry":{"type":"LineString","coordinates":[[8.6887524,50.0173714],[8.6886671,50.0169663]]}},
{"type":"Feature","properties":{},"geometry":{"type":"LineString","coordinates":[[8.6881143,50.0160291],[8.6882775,50.0159551]]}},
{"type":"Feature","properties":{},"geometry":{"type":"LineString","coordinates":[]}},
{"type":"Feature","properties":{},"geometry":{"type":"LineString","coordinates":[[8.6854851,50.0179609],[8.6854317,50.0176936]]}},
{"type":"Feature","properties":{},"geometry":{"type":"LineString","coordinates":[[8.6911881,50.0147495],[8.6911886,50.0147429],[8.6909987,50.014644],[8.6908807,50.0145821],[8.6907729,50.0145252],[8.6905241,50.0143958]]}},
{"type":"Feature","properties":{},"geometry":{"type":"LineString","coordinates":[[8.6887524,50.0173714],[8.6887075,50.0173753],[8.6886263,50.017383],[8.6885497,50.0173909],[8.6883459,50.0174102],[8.6881887,50.017425],[8.6880117,50.0174423]]}},
{"type":"Feature","properties":{},"geometry":{"type":"LineString","coordinates":[[8.685593,50.0176793],[8.6854317,50.0176936]]}},
{"type":"Feature","properties":{},"geometry":{"type":"LineString","coordinates":[[8.6925393,50.0137599],[8.6924915,50.0136772]]}},
{"type":"Feature","properties":{},"geometry":{"type":"LineString","coordinates":[[8.6905241,50.0143958],[8.6905188,50.0143949],[8.690513,50.0143965],[8.6902493,50.0146319],[8.6901368,50.0147381],[8.6900038,50.0148685]]}},
{"type":"Feature","properties":{},"geometry":{"type":"LineString","coordinates":[[8.6888739,50.0173585],[8.6887524,50.0173714]]}},
{"type":"Feature","properties":{},"geometry":{"type":"LineString","coordinates":[[8.6870259,50.017439],[8.6871947,50.0174228],[8.6872733,50.0174158]]}},
{"type":"Feature","properties":{},"geometry":{"type":"LineString","coordinates":[[8.6927981,50.015527],[8.6928203,50.0155338],[8.6928125,50.0155443],[8.6925526,50.0158825],[8.6924752,50.0159844],[8.6924249,50.0160492],[8.6922491,50.0162774],[8.6922062,50.0163345]]}},
{"type":"Feature","properties":{},"geometry":{"type":"LineString","coordinates":[[8.6853786,50.016771],[8.685448,50.0171374],[8.6854709,50.0172546],[8.6855228,50.0175191],[8.6855282,50.0175468],[8.6855812,50.0175743],[8.6857591,50.0175583]]}},
{"type":"Feature","properties":{},"geometry":{"type":"LineString","coordinates":[[8.6901172,50.01669],[8.6900581,50.0164469]]}},
{"type":"Feature","properties":{},"geometry":{"type":"LineString","coordinates":[[8.6913666,50.0147265],[8.6913685,50.0147327],[8.6913723,50.0147364],[8.691533,50.0148214],[8.691653,50.0148835],[8.6917716,50.0149455],[8.6918917,50.0150082],[8.6919466,50.0150361],[8.6922067,50.0151717],[8.692267,50.0152032],[8.6923707,50.0152651],[8.6923764,50.0152657],[8.6923806,50.0152639],[8.692402,50.015249]]}},
{"type":"Feature","properties":{},"geometry":{"type":"LineString","coordinates":[[8.6942097,50.0148417],[8.6943838,50.0149223],[8.6946423,50.0150403]]}},
{"type":"Feature","properties":{},"geometry":{"type":"LineString","coordinates":[[8.6903004,50.0174986],[8.690281,50.0174093],[8.6902428,50.0172342],[8.690232,50.0172305],[8.6901412,50.0172393],[8.6896885,50.017282],[8.6896857,50.0172823],[8.6895331,50.0172967],[8.6893848,50.0173108],[8.6893824,50.017311],[8.6892261,50.0173258],[8.6891196,50.0173359]]}},
{"type":"Feature","properties":{},"geometry":{"type":"LineString","coordinates":[[8.6873787,50.0174056],[8.6873997,50.0175006]]}},
{"type":"Feature","properties":{},"geometry":{"type":"LineString","coordinates":[[8.6866356,50.0174764],[8.6865644,50.0174828],[8.6863526,50.0175014],[8.6860994,50.0175253],[8.6859196,50.017544],[8.685776,50.0175568],[8.6857591,50.0175583]]}},
{"type":"Feature","properties":{},"geometry":{"type":"LineString","coordinates":[[8.6926799,50.015412],[8.6927051,50.0154193],[8.6928474,50.0154612]]}},
{"type":"Feature","properties":{},"geometry":{"type":"LineString","coordinates":[[8.6877016,50.0165567],[8.6875535,50.0165684],[8.6873995,50.0165806],[8.6873906,50.016587],[8.6874261,50.0167697],[8.6874525,50.0169053]]}},
{"type":"Feature","properties":{},"geometry":{"type":"LineString","coordinates":[[8.6877234,50.0164544],[8.6880352,50.0164271],[8.6881235,50.0164199],[8.688148,50.0164179],[8.6881876,50.0164147],[8.6883045,50.0164053]]}},
{"type":"Feature","properties":{},"geometry":{"type":"LineString","coordinates":[[8.6881918,50.0161009],[8.6884285,50.015999],[8.6884478,50.0159907],[8.6884669,50.0160056]]}},
{"type":"Feature","properties":{},"geometry":{"type":"LineString","coordinates":[[8.6881143,50.0160291],[8.6875543,50.0162843],[8.6874513,50.0163316]]}},
{"type":"Feature","properties":{},"geometry":{"type":"LineString","coordinates":[[8.6916707,50.0135506],[8.691556,50.0136256],[8.6913941,50.0137315],[8.6912782,50.013807],[8.6912418,50.0138321],[8.691097,50.0139368],[8.690956,50.0140423],[8.6908158,50.0141503],[8.6907047,50.0142382],[8.6905994,50.0143264],[8.6905982,50.0143304],[8.6906016,50.0143338]]}},
{"type":"Feature","properties":{},"geometry":{"type":"LineString","coordinates":[[8.6872733,50.0174158],[8.6872969,50.0174134],[8.6873787,50.0174056]]}},
{"type":"Feature","properties":{},"geometry":{"type":"LineString","coordinates":[[8.6923707,50.0152651],[8.692456,50.0153181],[8.6925,50.0152908]]}},
{"type":"Feature","properties":{},"geometry":{"type":"LineString","coordinates":[[8.6857225,50.0176606],[8.6857234,50.0176648]]}},
{"type":"Feature","properties":{},"geometry":{"type":"LineString","coordinates":[[8.6898907,50.0159591],[8.6899587,50.0159203],[8.6900772,50.0158036],[8.69016,50.0157207],[8.6902442,50.0156384],[8.6903167,50.0155662],[8.6903228,50.0155601],[8.6904013,50.0154809],[8.6905625,50.0153266],[8.6906143,50.0152775],[8.6906831,50.0152123]]}},
{"type":"Feature","properties":{},"geometry":{"type":"LineString","coordinates":[[8.6925,50.0152908],[8.6924705,50.0153153],[8.6924789,50.0153237],[8.6925771,50.0153806],[8.6926238,50.015395],[8.6926675,50.0154082],[8.6926799,50.015412]]}},
{"type":"Feature","properties":{},"geometry":{"type":"LineString","coordinates":[[8.693658,50.0157449],[8.693669,50.0157493],[8.6936747,50.0157428],[8.6937324,50.01568],[8.6937906,50.0156146],[8.6939767,50.0155204],[8.6941385,50.0154266],[8.6942541,50.0153649],[8.6942995,50.0153406],[8.6943434,50.015301],[8.6943724,50.0152747]]}},
{"type":"Feature","properties":{},"geometry":{"type":"LineString","coordinates":[[8.6932567,50.0146457],[8.6933427,50.0145852],[8.6934608,50.014501],[8.6935442,50.0144427],[8.6935444,50.0144354],[8.6934934,50.0143921],[8.6934489,50.0143521]]}},
{"type":"Feature","properties":{},"geometry":{"type":"LineString","coordinates":[[8.6921948,50.014046],[8.6920741,50.0141482],[8.6920185,50.0141941],[8.6919529,50.0142493],[8.6918384,50.0143433],[8.6917185,50.0144422],[8.6915385,50.0145914],[8.6913716,50.0147292],[8.6913666,50.0147265]]}},
{"type":"Feature","properties":{},"geometry":{"type":"LineString","coordinates":[[8.6852162,50.0167813],[8.6853786,50.016771]]}},
{"type":"Feature","properties":{},"geometry":{"type":"LineString","coordinates":[[8.6927971,50.0157312],[8.6928538,50.01566],[8.6929172,50.0155776]]}},
{"type":"Feature","properties":{},"geometry":{"type":"LineString","coordinates":[[8.6879346,50.0174494],[8.6879253,50.0174503],[8.6875689,50.017485]]}},
{"type":"Feature","properties":{},"geometry":{"type":"LineString","coordinates":[[8.6926708,50.0154037],[8.6926675,50.0154082],[8.6926799,50.015412]]}},
{"type":"Feature","properties":{},"geometry":{"type":"LineString","coordinates":[[8.6875689,50.017485],[8.6873997,50.0175006]]}},
{"type":"Feature","properties":{},"geometry":{"type":"LineString","coordinates":[[8.6897956,50.0162888],[8.6898143,50.0162716],[8.6899467,50.016195],[8.689947,50.0161949],[8.6899477,50.0161946],[8.6899488,50.016194],[8.6899501,50.0161933],[8.6899514,50.0161923],[8.6899525,50.0161912],[8.6899533,50.0161899],[8.6899536,50.0161884],[8.6899532,50.0161867],[8.6899521,50.0161849],[8.6898094,50.0160861],[8.6897548,50.0160481],[8.6892082,50.0156682]]}},
{"type":"Feature","properties":{},"geometry":{"type":"LineString","coordinates":[[8.6906831,50.0152123],[8.6907246,50.0151738],[8.6907368,50.0151625],[8.6909553,50.0149558],[8.6910534,50.0148643],[8.6911022,50.0148171],[8.6911881,50.0147495]]}},
{"type":"Feature","properties":{},"geometry":{"type":"LineString","coordinates":[[8.6899977,50.0160252],[8.6900538,50.0159704],[8.6901369,50.0158877],[8.6902213,50.0158042],[8.6903053,50.0157218],[8.6903905,50.0156378],[8.6904482,50.0155809]]}},
{"type":"Feature","properties":{},"geometry":{"type":"LineString","coordinates":[[8.6873155,50.0168584],[8.6873303,50.0169361],[8.6873548,50.0170626],[8.687364,50.0171102],[8.6874143,50.017371],[8.6873787,50.0174056]]}},
{"type":"Feature","properties":{},"geometry":{"type":"LineString","coordinates":[[8.6921948,50.014046],[8.6922708,50.0139819],[8.6923157,50.0139455],[8.6925393,50.0137599]]}},
{"type":"Feature","properties":{},"geometry":{"type":"LineString","coordinates":[[8.6880404,50.0161686],[8.6881918,50.0161009]]}},
{"type":"Feature","properties":{},"geometry":{"type":"LineString","coordinates":[[8.6885754,50.0165014],[8.6885722,50.0163862]]}},
{"type":"Feature","properties":{},"geometry":{"type":"LineString","coordinates":[[8.6868376,50.0166369],[8.6868407,50.0166525],[8.6861602,50.0167078],[8.686015,50.0167196],[8.6857076,50.0167446],[8.6854631,50.0167645],[8.6853786,50.016771]]}},
{"type":"Feature","properties":{},"geometry":{"type":"LineString","coordinates":[[8.6895711,50.0157698],[8.689853,50.0159738],[8.6898556,50.0159752],[8.6898585,50.0159757],[8.6898614,50.0159753],[8.6898644,50.0159741],[8.68988,50.0159652],[8.6898907,50.0159591]]}},
{"type":"Feature","properties":{},"geometry":{"type":"LineString","coordinates":[[8.6906016,50.0143338],[8.6908388,50.0144578],[8.690989,50.0145365],[8.6911563,50.0146243],[8.6912628,50.0146798],[8.6912726,50.0146842],[8.6912849,50.0146847]]}},
{"type":"Feature","properties":{},"geometry":{"type":"LineString","coordinates":[[8.686656,50.0175705],[8.6863919,50.0175955],[8.6862539,50.0176079],[8.6861002,50.0176234],[8.6859319,50.0176394],[8.6858451,50.0176476],[8.6857792,50.0176546]]}},
{"type":"Feature","properties":{},"geometry":{"type":"LineString","coordinates":[[8.6885722,50.0163862],[8.6885606,50.0163381],[8.6885063,50.0160574],[8.6885027,50.0160334],[8.6884669,50.0160056]]}},
{"type":"Feature","properties":{},"geometry":{"type":"LineString","coordinates":[[8.6868225,50.0165592],[8.6868376,50.0166369]]}},
{"type":"Feature","properties":{},"geometry":{"type":"LineString","coordinates":[[8.6885942,50.0159452],[8.6884669,50.0160056]]}},
{"type":"Feature","properties":{},"geometry":{"type":"LineString","coordinates":[[8.6931456,50.0140999],[8.6932603,50.0141899]]}},
{"type":"Feature","properties":{},"geometry":{"type":"LineString","coordinates":[[8.6886671,50.0169663],[8.6881146,50.0170057]]}},
{"type":"Feature","properties":{},"geometry":{"type":"LineString","coordinates":[[8.6939026,50.0146843],[8.6938426,50.0146499],[8.693674,50.0145466],[8.6936219,50.0145153],[8.6935925,50.0145306],[8.693381,50.0146767],[8.6932403,50.0147756],[8.6932364,50.0147782],[8.6931192,50.0148609],[8.6930068,50.0149401],[8.6928931,50.0150201],[8.6928541,50.0150445],[8.6928151,50.0150716],[8.6927756,50.0150983],[8.6927386,50.0151252],[8.6926267,50.0152044],[8.6926229,50.015207],[8.6925,50.0152908]]}},
{"type":"Feature","properties":{},"geometry":{"type":"LineString","coordinates":[[8.693658,50.0157449],[8.693658,50.0157449],[8.6935038,50.0156848],[8.6933848,50.0156382],[8.6933509,50.0156252],[8.6932239,50.0155755],[8.6931856,50.0155615],[8.6930973,50.0155352],[8.6929671,50.0154963],[8.6928474,50.0154612]]}},
{"type":"Feature","properties":{},"geometry":{"type":"LineString","coordinates":[[8.6884395,50.016496],[8.6882619,50.0165123],[8.6880518,50.0165289],[8.687893,50.0165415],[8.6877229,50.016555],[8.6877016,50.0165567]]}},
{"type":"Feature","properties":{},"geometry":{"type":"LineString","coordinates":[[8.6900581,50.0164469],[8.6898435,50.0163797],[8.6897319,50.0163888],[8.689494,50.0164085],[8.6892786,50.0164263],[8.6891239,50.016439],[8.6889596,50.0164526],[8.6888206,50.0164641]]}},
{"type":"Feature","properties":{},"geometry":{"type":"LineString","coordinates":[[8.6875937,50.0173839],[8.6877608,50.0173678],[8.6879929,50.0173457]]}},
{"type":"Feature","properties":{},"geometry":{"type":"LineString","coordinates":[[8.6852162,50.0167813],[8.6852335,50.0168138],[8.6852857,50.0169271],[8.6852934,50.0169675],[8.6852999,50.0170009],[8.685304,50.0170255],[8.6853226,50.0171197],[8.6853353,50.0171889],[8.685355,50.0172853],[8.6853651,50.0173334],[8.6853916,50.0174732]]}},
{"type":"Feature","properties":{},"geometry":{"type":"LineString","coordinates":[[8.6913617,50.0146079],[8.6914887,50.0145021],[8.6916208,50.014394],[8.6917506,50.0142858],[8.6918818,50.0141776],[8.6920126,50.0140696],[8.6921508,50.0139563],[8.6923055,50.0138286],[8.6924915,50.0136772]]}},
{"type":"Feature","properties":{},"geometry":{"type":"LineString","coordinates":[[8.6921948,50.014046],[8.6922024,50.01405]]}},
{"type":"Feature","properties":{},"geometry":{"type":"LineString","coordinates":[[8.6866356,50.0174764],[8.6867516,50.0174659]]}},
{"type":"Feature","properties":{},"geometry":{"type":"LineString","coordinates":[[8.692402,50.015249],[8.6925485,50.015146],[8.6926641,50.015064],[8.6927719,50.0149878],[8.6928776,50.0149138],[8.6929815,50.0148407],[8.693071,50.0147777]]}},
{"type":"Feature","properties":{},"geometry":{"type":"LineString","coordinates":[[8.6857225,50.0176606],[8.6857792,50.0176546]]}},
{"type":"Feature","properties":{},"geometry":{"type":"LineString","coordinates":[[8.6925393,50.0137599],[8.6925622,50.0137412],[8.6926058,50.0137094],[8.6926176,50.0137082],[8.6928474,50.0138173],[8.6929683,50.0139256],[8.6930846,50.0140219],[8.6931589,50.014087],[8.6932603,50.0141899],[8.6933049,50.0142278],[8.6934437,50.0143478],[8.6934489,50.0143521]]}},
{"type":"Feature","properties":{},"geometry":{"type":"LineString","coordinates":[[8.6885754,50.0165014],[8.6885759,50.0164986],[8.6885788,50.016491],[8.6885842,50.0164796],[8.6885925,50.0164653],[8.6886041,50.016449],[8.6886196,50.0164318],[8.6886393,50.0164146],[8.6886637,50.0163984],[8.6886932,50.0163841],[8.6887284,50.0163727]]}},
{"type":"Feature","properties":{},"geometry":{"type":"LineString","coordinates":[[8.6900038,50.0148685],[8.6899194,50.0149528],[8.6897212,50.0151759],[8.6897065,50.0151929]]}},
{"type":"Feature","properties":{},"geometry":{"type":"LineString","coordinates":[[8.6894687,50.0154678],[8.6893597,50.0155934]]}},
{"type":"Feature","properties":{},"geometry":{"type":"LineString","coordinates":[[8.6907385,50.0161333],[8.6905814,50.0162175],[8.6902229,50.0162426],[8.689969,50.0160598],[8.6899697,50.0160526],[8.6899977,50.0160252]]}},
{"type":"Feature","properties":{},"geometry":{"type":"LineString","coordinates":[[8.6882775,50.0159551],[8.6885523,50.01583]]}},
{"type":"Feature","properties":{},"geometry":{"type":"LineString","coordinates":[[8.6885523,50.01583],[8.6887027,50.0157606],[8.6888781,50.0156936]]}},
{"type":"Feature","properties":{},"geometry":{"type":"LineString","coordinates":[[8.6886011,50.0159208],[8.6886023,50.0159362],[8.6885942,50.0159452]]}},
{"type":"Feature","properties":{},"geometry":{"type":"LineString","coordinates":[[8.6883045,50.0164053],[8.6884163,50.0163969]]}},
{"type":"Feature","properties":{},"geometry":{"type":"LineString","coordinates":[[8.6884163,50.0163969],[8.6885722,50.0163862]]}},
{"type":"Feature","properties":{},"geometry":{"type":"LineString","coordinates":[[8.6874513,50.0163316],[8.6874197,50.0163461],[8.6873662,50.016421]]}},
{"type":"Feature","properties":{},"geometry":{"type":"LineString","coordinates":[[8.7024004,50.0188177],[8.7024178,50.0188003]]}},
{"type":"Feature","properties":{},"geometry":{"type":"LineString","coordinates":[[8.7019988,50.0185537],[8.7021069,50.0186144]]}},
{"type":"Feature","properties":{},"geometry":{"type":"LineString","coordinates":[[8.7025059,50.0187329],[8.7025988,50.0187841],[8.702982,50.0189801],[8.7030185,50.0189974]]}},
{"type":"Feature","properties":{},"geometry":{"type":"LineString","coordinates":[[8.7013874,50.0182291],[8.701261,50.0183431],[8.7010678,50.0184372]]}},
{"type":"Feature","properties":{},"geometry":{"type":"LineString","coordinates":[[8.7039637,50.0270239],[8.704071,50.0272317],[8.7041347,50.0273741],[8.7041925,50.0275017],[8.7041957,50.0275093],[8.7041974,50.0275171],[8.7041909,50.0275272],[8.7041738,50.0275327],[8.7036831,50.0276525],[8.7025562,50.0279243],[8.7025294,50.0279233],[8.7024918,50.0279172],[8.7024731,50.0279042],[8.7016411,50.0268441],[8.7003034,50.0250792],[8.699493,50.0240765],[8.6991459,50.02347],[8.6990396,50.0233311]]}},
{"type":"Feature","properties":{},"geometry":{"type":"LineString","coordinates":[[8.6981667,50.0219226],[8.6976828,50.0212882],[8.6976656,50.0212656],[8.6971146,50.0205432]]}},
{"type":"Feature","properties":{},"geometry":{"type":"LineString","coordinates":[[8.6986298,50.020247],[8.6986357,50.0202447],[8.6986371,50.0202408],[8.6986368,50.0202186]]}},
{"type":"Feature","properties":{},"geometry":{"type":"LineString","coordinates":[[8.6988816,50.0202271],[8.6989811,50.0202117],[8.6991179,50.0201905]]}},
{"type":"Feature","properties":{},"geometry":{"type":"LineString","coordinates":[[8.6991179,50.0201905],[8.6991216,50.0202004],[8.6991461,50.0202666],[8.6991492,50.0202748]]}},
{"type":"Feature","properties":{},"geometry":{"type":"LineString","coordinates":[[8.6991179,50.0201905],[8.699158,50.0201843],[8.7011389,50.0198773],[8.701233,50.0198525]]}},
{"type":"Feature","properties":{},"geometry":{"type":"LineString","coordinates":[[8.701233,50.0198525],[8.7012734,50.0198407],[8.7014043,50.0197918],[8.7014487,50.0197674]]}},
{"type":"Feature","properties":{},"geometry":{"type":"LineString","coordinates":[[8.6991216,50.0202789],[8.6991228,50.0202823]]}},
{"type":"Feature","properties":{},"geometry":{"type":"LineString","coordinates":[[8.6991216,50.0202789],[8.699084,50.020284]]}},
{"type":"Feature","properties":{},"geometry":{"type":"LineString","coordinates":[[8.699084,50.020284],[8.6990043,50.0202885],[8.6988312,50.0203149],[8.6987692,50.0203203]]}},
{"type":"Feature","properties":{},"geometry":{"type":"LineString","coordinates":[[8.6987692,50.0203203],[8.6987712,50.0203446],[8.6987896,50.020581],[8.6987923,50.0206162]]}},
{"type":"Feature","properties":{},"geometry":{"type":"LineString","coordinates":[[8.6987923,50.0206162],[8.6987862,50.02062],[8.6987759,50.0206218],[8.6987416,50.0206229],[8.6985866,50.020627],[8.6983672,50.0206341],[8.698074,50.0206438],[8.6979592,50.0206473],[8.6978998,50.0206486]]}},
{"type":"Feature","properties":{},"geometry":{"type":"LineString","coordinates":[[8.6987923,50.0206162],[8.6987929,50.0206246],[8.6988144,50.0209408]]}},
{"type":"Feature","properties":{},"geometry":{"type":"LineString","coordinates":[[8.6991492,50.0202748],[8.6993323,50.0202461],[8.699561,50.0202103],[8.6997822,50.0201757],[8.7006629,50.0200376],[8.7007081,50.0200305],[8.7010799,50.0199722],[8.7011084,50.0199785],[8.7011327,50.0199864],[8.7011532,50.0199953],[8.7011701,50.0200047],[8.7011837,50.0200141],[8.7011942,50.020023],[8.7012019,50.0200308],[8.7012071,50.020037],[8.70121,50.0200411],[8.7012109,50.0200426],[8.7012232,50.0201967],[8.7012233,50.0202081],[8.7012221,50.0202282],[8.7012197,50.0202517],[8.7012182,50.0202648],[8.7012166,50.0202779],[8.7012131,50.0203051],[8.7012095,50.0203314],[8.7012061,50.020355],[8.7012032,50.0203741],[8.7012013,50.0203869],[8.7012,50.020391],[8.7011979,50.0203946],[8.7011923,50.0203963],[8.7011833,50.0203974],[8.7011753,50.0203983],[8.7011574,50.0203993],[8.7011313,50.020401],[8.7011013,50.0204035],[8.7010671,50.0204076],[8.7010295,50.0204131]]}},
{"type":"Feature","properties":{},"geometry":{"type":"LineString","coordinates":[[8.7010295,50.0204131],[8.7009886,50.0204202],[8.7009476,50.0204284],[8.7009071,50.0204373],[8.7008856,50.020444],[8.7008627,50.020451],[8.7008345,50.0204601],[8.7007989,50.0204726],[8.7007638,50.0204862],[8.7007239,50.0205025],[8.7006865,50.0205208],[8.7006488,50.02054],[8.7006118,50.0205599],[8.7005617,50.020593],[8.7005558,50.0205974],[8.7005469,50.0206044],[8.7005156,50.0206296],[8.7004938,50.0206494],[8.700475,50.0206671],[8.7004599,50.0206829],[8.7004549,50.0206884]]}},
{"type":"Feature","properties":{},"geometry":{"type":"LineString","coordinates":[[8.7014487,50.0197674],[8.7014944,50.0197374],[8.7015724,50.0196763],[8.7015874,50.0196613]]}},
{"type":"Feature","properties":{},"geometry":{"type":"LineString","coordinates":[[8.7015874,50.0196613],[8.7016179,50.0196297],[8.7018839,50.0193537],[8.7024004,50.0188177]]}},
{"type":"Feature","properties":{},"geometry":{"type":"LineString","coordinates":[[8.7024004,50.0188177],[8.7023946,50.018815]]}},
{"type":"Feature","properties":{},"geometry":{"type":"LineString","coordinates":[[8.7024178,50.0188003],[8.7025207,50.0188451]]}},
{"type":"Feature","properties":{},"geometry":{"type":"LineString","coordinates":[[8.7018839,50.0193537],[8.7019896,50.0193946]]}},
{"type":"Feature","properties":{},"geometry":{"type":"LineString","coordinates":[[8.7019896,50.0193946],[8.70219,50.019187]]}},
{"type":"Feature","properties":{},"geometry":{"type":"LineString","coordinates":[[8.7019896,50.0193946],[8.7019472,50.0194382]]}},
{"type":"Feature","properties":{},"geometry":{"type":"LineString","coordinates":[[8.7025207,50.0188451],[8.7024733,50.0188926]]}},
{"type":"Feature","properties":{},"geometry":{"type":"LineString","coordinates":[[8.7024178,50.0188003],[8.7025059,50.0187329]]}},
{"type":"Feature","properties":{},"geometry":{"type":"LineString","coordinates":[[8.7025059,50.0187329],[8.7020809,50.018494]]}},
{"type":"Feature","properties":{},"geometry":{"type":"LineString","coordinates":[[8.7020809,50.018494],[8.7019988,50.0185537]]}},
{"type":"Feature","properties":{},"geometry":{"type":"LineString","coordinates":[[8.7016179,50.0196297],[8.7017247,50.0196712]]}},
{"type":"Feature","properties":{},"geometry":{"type":"LineString","coordinates":[[8.7017247,50.0196712],[8.701664,50.0197359]]}},
{"type":"Feature","properties":{},"geometry":{"type":"LineString","coordinates":[[8.7017247,50.0196712],[8.7017793,50.0196145]]}},
{"type":"Feature","properties":{},"geometry":{"type":"LineString","coordinates":[[8.7025207,50.0188451],[8.7027811,50.018962],[8.7029157,50.019027],[8.7030432,50.0190834],[8.7031001,50.0191037],[8.7031696,50.0191231],[8.7032219,50.0191326],[8.7032562,50.019139],[8.7032591,50.0191403],[8.7032601,50.019142],[8.7032605,50.0191446],[8.7032596,50.0191465],[8.7030647,50.0193875],[8.7030273,50.0194263],[8.7030232,50.0194814],[8.7029525,50.0195569],[8.7029231,50.0195715],[8.7028589,50.0196436],[8.7028572,50.0196935],[8.7028117,50.0197427],[8.7027819,50.0197568],[8.7026995,50.0198477],[8.7026974,50.0198994],[8.7026366,50.0199649],[8.70257,50.0199893],[8.702551,50.0200106]]}},
{"type":"Feature","properties":{},"geometry":{"type":"LineString","coordinates":[[8.7032562,50.019139],[8.7033028,50.0191418],[8.7033424,50.0191419],[8.7033773,50.0191409],[8.7034114,50.0191368],[8.7035312,50.0191311],[8.7042824,50.0190429]]}},
{"type":"Feature","properties":{},"geometry":{"type":"LineString","coordinates":[[8.7019988,50.0185537],[8.7015403,50.0182981],[8.7015335,50.0182877]]}},
{"type":"Feature","properties":{},"geometry":{"type":"LineString","coordinates":[[8.7015335,50.0182877],[8.7013874,50.0182291]]}},
{"type":"Feature","properties":{},"geometry":{"type":"LineString","coordinates":[[8.7013874,50.0182291],[8.7006182,50.0178778]]}},
{"type":"Feature","properties":{},"geometry":{"type":"LineString","coordinates":[[8.7005735,50.0178572],[8.7000421,50.0176128]]}},
{"type":"Feature","properties":{},"geometry":{"type":"LineString","coordinates":[[8.7006182,50.0178778],[8.7005735,50.0178572]]}},
{"type":"Feature","properties":{},"geometry":{"type":"LineString","coordinates":[[8.7006182,50.0178778],[8.700615,50.0178776],[8.7006121,50.0178778],[8.7006097,50.0178783],[8.7006076,50.017879],[8.7006058,50.0178799],[8.7006045,50.0178808],[8.7006034,50.0178816],[8.7006027,50.0178823],[8.7006022,50.017883],[8.7004582,50.0180145],[8.7002471,50.018132],[8.7000518,50.0182075]]}},
{"type":"Feature","properties":{},"geometry":{"type":"LineString","coordinates":[[8.6970215,50.0203733],[8.6969893,50.0203775],[8.6969723,50.02037]]}},
{"type":"Feature","properties":{},"geometry":{"type":"LineString","coordinates":[[8.6965443,50.0198044],[8.6965625,50.0197986]]}},
{"type":"Feature","properties":{},"geometry":{"type":"LineString","coordinates":[[8.6970215,50.0203733],[8.6970462,50.0203597],[8.6971399,50.0203292],[8.6971798,50.0203157],[8.6986298,50.020247]]}},
{"type":"Feature","properties":{},"geometry":{"type":"LineString","coordinates":[[8.6965443,50.0198044],[8.6964838,50.0197245]]}},
{"type":"Feature","properties":{},"geometry":{"type":"LineString","coordinates":[[8.6963837,50.0195923],[8.6962774,50.0194562]]}},
{"type":"Feature","properties":{},"geometry":{"type":"LineString","coordinates":[[8.6959079,50.0189528],[8.6959766,50.0189361],[8.696192,50.0189419]]}},
{"type":"Feature","properties":{},"geometry":{"type":"LineString","coordinates":[[8.6979109,50.0191428],[8.6979547,50.0191543],[8.6980168,50.0191646],[8.698085,50.019184],[8.6981347,50.0192033],[8.6981753,50.0192238],[8.6982078,50.0192443],[8.6982328,50.0192636],[8.698251,50.0192806],[8.6982631,50.0192942],[8.6982699,50.0193032],[8.698272,50.0193064],[8.6983296,50.0194115]]}},
{"type":"Feature","properties":{},"geometry":{"type":"LineString","coordinates":[[8.6895433,50.0153815],[8.6894687,50.0154678]]}},
{"type":"Feature","properties":{},"geometry":{"type":"LineString","coordinates":[[8.6897065,50.0151929],[8.6896248,50.0152871],[8.6895433,50.0153815]]}},
{"type":"Feature","properties":{},"geometry":{"type":"LineString","coordinates":[[8.6967556,50.0203322],[8.6967875,50.0203769],[8.6967878,50.0203774],[8.6967802,50.0203824],[8.6967679,50.0203844],[8.6967301,50.0203858],[8.6963351,50.020405],[8.696162,50.0204158],[8.6960109,50.02042],[8.6958121,50.0204238],[8.6957806,50.0204278],[8.6957609,50.0204303],[8.6957154,50.0204349],[8.6956848,50.0204369],[8.6956671,50.0204378],[8.6956623,50.0204386],[8.6956586,50.0204401],[8.6956467,50.0204448]]}},
{"type":"Feature","properties":{},"geometry":{"type":"LineString","coordinates":[[8.6973599,50.0216715],[8.697182,50.0216958],[8.6970573,50.0217131],[8.6969258,50.0217313],[8.6967131,50.0217608],[8.6965641,50.0217808],[8.6965429,50.0217837],[8.6964337,50.0217988],[8.6963386,50.0218121]]}},
{"type":"Feature","properties":{},"geometry":{"type":"LineString","coordinates":[[8.6956243,50.0227177],[8.6956245,50.0229204],[8.6956245,50.0229577],[8.6956245,50.0229607],[8.6956239,50.0230043],[8.6956227,50.0231427],[8.6956235,50.0232117],[8.6956276,50.0232179],[8.6956425,50.0232173],[8.6956685,50.0232163],[8.6957638,50.0232101],[8.6958253,50.023206],[8.6958612,50.0232036],[8.6961189,50.0231867],[8.6961796,50.0231827],[8.6962443,50.0231784],[8.6963169,50.0231736],[8.6963308,50.0231727],[8.6963728,50.02317],[8.6964822,50.0231628],[8.6965313,50.0231595],[8.6965363,50.0231592]]}},
{"type":"Feature","properties":{},"geometry":{"type":"LineString","coordinates":[[8.6971738,50.0217672],[8.6971211,50.0217742],[8.697007,50.0217897],[8.6969562,50.0217969],[8.6967955,50.021819],[8.6966159,50.0218441]]}},
{"type":"Feature","properties":{},"geometry":{"type":"LineString","coordinates":[[8.6970094,50.0238737],[8.6968631,50.0238831],[8.6967875,50.023882]]}},
{"type":"Feature","properties":{},"geometry":{"type":"LineString","coordinates":[[8.6962719,50.0196986],[8.6963209,50.019764],[8.6964128,50.0198815],[8.6964841,50.0199769],[8.6965187,50.0200225],[8.696578,50.0201003],[8.696657,50.0202042],[8.6966876,50.0202442],[8.6967556,50.0203322]]}},
{"type":"Feature","properties":{},"geometry":{"type":"LineString","coordinates":[[8.6990396,50.0233311],[8.6990396,50.0233311],[8.6990586,50.02336],[8.6990513,50.0233637],[8.6990399,50.0233665],[8.6990214,50.0233674],[8.6990193,50.023368],[8.698742,50.0234509],[8.6987175,50.0234589],[8.6987175,50.0234589],[8.6985712,50.0235084],[8.6983771,50.0235667],[8.6981797,50.0236276],[8.6979532,50.0236939],[8.6978148,50.0237411],[8.6977509,50.0237617],[8.6976825,50.0238357],[8.6976371,50.023839],[8.6974026,50.0238507],[8.6971691,50.0238625],[8.6970371,50.0238715]]}},
{"type":"Feature","properties":{},"geometry":{"type":"LineString","coordinates":[[8.6964308,50.0218685],[8.6963616,50.021878],[8.6961634,50.0219054],[8.6961445,50.0219079],[8.6956315,50.0219754],[8.6956287,50.0221637],[8.6956282,50.0222954]]}},
{"type":"Feature","properties":{},"geometry":{"type":"LineString","coordinates":[[8.697292,50.0231106],[8.6970318,50.0231719],[8.6970222,50.0231758],[8.6970147,50.0231806],[8.6970091,50.0231861],[8.6970051,50.0231919],[8.6970025,50.0231977],[8.697001,50.0232031],[8.6970003,50.0232079],[8.6970002,50.0232118],[8.6970003,50.0232143],[8.6970004,50.0232152]]}},
{"type":"Feature","properties":{},"geometry":{"type":"LineString","coordinates":[[8.695653,50.0194415],[8.6956527,50.0196378],[8.6956528,50.0196845],[8.6956501,50.0198068],[8.6956501,50.0199404],[8.6956506,50.0200365],[8.6956502,50.0200878],[8.6956492,50.0202306],[8.6956486,50.0202748],[8.6956478,50.0203311],[8.6956467,50.0203828],[8.695647,50.0204176],[8.6956467,50.0204448]]}},
{"type":"Feature","properties":{},"geometry":{"type":"LineString","coordinates":[[8.6967895,50.0224894],[8.6968079,50.0225483],[8.696822,50.0225976]]}},
{"type":"Feature","properties":{},"geometry":{"type":"LineString","coordinates":[[8.6956309,50.0219013],[8.695636,50.0219036],[8.6956478,50.0219076],[8.6957229,50.0218972],[8.6961381,50.0218396]]}},
{"type":"Feature","properties":{},"geometry":{"type":"LineString","coordinates":[[8.6956533,50.0212917],[8.695648,50.021295],[8.6956442,50.0213021]]}},
{"type":"Feature","properties":{},"geometry":{"type":"LineString","coordinates":[[8.6981554,50.0227929],[8.6980849,50.0228171],[8.6980561,50.022827],[8.6979934,50.0228489],[8.6978615,50.0229021],[8.6978297,50.022915],[8.6977067,50.0229672],[8.6976731,50.0229808],[8.6976526,50.0229891],[8.697619,50.0230026],[8.6976045,50.0230085],[8.6975492,50.0230308],[8.6975444,50.0230328],[8.6974896,50.0230508],[8.6974818,50.0230534],[8.6974789,50.0230543],[8.6974511,50.0230635],[8.6974418,50.0230665],[8.6973886,50.023084],[8.697292,50.0231106]]}},
{"type":"Feature","properties":{},"geometry":{"type":"LineString","coordinates":[[8.6982705,50.0223309],[8.6982104,50.0222519],[8.6982098,50.0222511],[8.698118,50.0221296],[8.6980162,50.0219951],[8.6979732,50.0219381],[8.6979487,50.0219058],[8.6978904,50.0218287],[8.6978778,50.021812],[8.6978014,50.0217109],[8.6977848,50.0216849],[8.697696,50.0216967],[8.6974473,50.0217295],[8.6974281,50.0217321],[8.6972844,50.0217521],[8.6971738,50.0217672]]}},
{"type":"Feature","properties":{},"geometry":{"type":"LineString","coordinates":[[8.6970571,50.0207312],[8.696978,50.020627],[8.6968087,50.0204043],[8.6967892,50.0203771],[8.6967556,50.0203322]]}},
{"type":"Feature","properties":{},"geometry":{"type":"LineString","coordinates":[[8.6976082,50.0216372],[8.6977227,50.0216204],[8.697727,50.0216176],[8.6977278,50.0216141],[8.6976544,50.0215179],[8.69764,50.021499],[8.697559,50.021393],[8.6973933,50.0211749],[8.6973927,50.021174],[8.6972749,50.0210191],[8.6968768,50.021086],[8.6967807,50.0211022],[8.6965481,50.0211413],[8.6964261,50.0211618],[8.6961338,50.0212109],[8.6959535,50.0212412],[8.6958332,50.0212615],[8.6956533,50.0212917]]}},
{"type":"Feature","properties":{},"geometry":{"type":"LineString","coordinates":[[8.6959584,50.0232762],[8.6960873,50.0232683],[8.6961314,50.0232656],[8.6961914,50.0232619],[8.6962028,50.0232612],[8.696208,50.0232608],[8.6963052,50.0232548],[8.6963116,50.0232544],[8.6963179,50.023254],[8.6963847,50.0232499],[8.6964043,50.0232487],[8.6964559,50.0232452]]}},
{"type":"Feature","properties":{},"geometry":{"type":"LineString","coordinates":[[8.6985298,50.022677],[8.6985307,50.0226782],[8.6986984,50.0229016],[8.6987088,50.0229155],[8.6988023,50.02304],[8.6988864,50.0231517],[8.6989048,50.0231765],[8.6990191,50.0233288],[8.6990396,50.0233311]]}},
{"type":"Feature","properties":{},"geometry":{"type":"LineString","coordinates":[[8.6969188,50.0229464],[8.6968624,50.022744],[8.6968411,50.0226642],[8.696822,50.0225976]]}},
{"type":"Feature","properties":{},"geometry":{"type":"LineString","coordinates":[[8.6970496,50.0233971],[8.6970004,50.0232152]]}},
{"type":"Feature","properties":{},"geometry":{"type":"LineString","coordinates":[[8.6968824,50.0232372],[8.6969385,50.023434],[8.696987,50.0236022],[8.6970045,50.0236631],[8.6970293,50.0238242]]}},
{"type":"Feature","properties":{},"geometry":{"type":"LineString","coordinates":[[8.6983455,50.0224214],[8.6984363,50.0225479],[8.6984751,50.022602]]}},
{"type":"Feature","properties":{},"geometry":{"type":"LineString","coordinates":[[8.6956321,50.0216183],[8.6956321,50.0216183],[8.6956309,50.0219013],[8.6956309,50.0219013]]}},
{"type":"Feature","properties":{},"geometry":{"type":"LineString","coordinates":[[8.6966159,50.0218441],[8.6966938,50.0221065],[8.6967074,50.0221549],[8.6967229,50.0222106],[8.696725,50.0222179],[8.6967322,50.0222436],[8.6967351,50.0222541],[8.6967581,50.0223409]]}},
{"type":"Feature","properties":{},"geometry":{"type":"LineString","coordinates":[[8.6971341,50.0209607],[8.6967994,50.021018],[8.6967392,50.0210283],[8.6965541,50.02106],[8.696356,50.0210938],[8.6962254,50.021116],[8.6961521,50.0211281],[8.695985,50.0211557],[8.695803,50.0211858],[8.6957506,50.0211944],[8.6956398,50.0212127]]}},
{"type":"Feature","properties":{},"geometry":{"type":"LineString","coordinates":[[8.6964308,50.0218685],[8.6964505,50.0218657],[8.6965069,50.0218578],[8.6965773,50.0221203],[8.696609,50.0222307],[8.6966292,50.0223008],[8.6966603,50.0224092]]}},
{"type":"Feature","properties":{},"geometry":{"type":"LineString","coordinates":[[8.6965363,50.0231592],[8.6966297,50.0231531],[8.6967135,50.0231475],[8.6967598,50.0231445],[8.6968521,50.0231384],[8.696858,50.0231305],[8.6968485,50.0231008]]}},
{"type":"Feature","properties":{},"geometry":{"type":"LineString","coordinates":[[8.696544,50.0232396],[8.6968692,50.0232195],[8.6968718,50.0232196],[8.6968739,50.0232199],[8.6968755,50.0232205],[8.6968767,50.0232211],[8.6968775,50.0232219],[8.6968781,50.0232226],[8.6968784,50.0232233],[8.6968786,50.0232239],[8.6968787,50.0232244],[8.6968824,50.0232372]]}},
{"type":"Feature","properties":{},"geometry":{"type":"LineString","coordinates":[[8.6970371,50.0238715],[8.6970293,50.0238242]]}},
{"type":"Feature","properties":{},"geometry":{"type":"LineString","coordinates":[[8.6957282,50.0238679],[8.6958436,50.0238701],[8.6959498,50.0238719],[8.6959624,50.0238721],[8.696089,50.023874],[8.6962464,50.0238757],[8.6963249,50.023876],[8.6965018,50.0238778],[8.6965992,50.0238793],[8.6966299,50.0238797],[8.6967456,50.0238814],[8.6967875,50.023882]]}},
{"type":"Feature","properties":{},"geometry":{"type":"LineString","coordinates":[[8.696544,50.0232396],[8.6965039,50.0232419]]}},
{"type":"Feature","properties":{},"geometry":{"type":"LineString","coordinates":[[8.6964559,50.0232452],[8.6965039,50.0232419]]}},
{"type":"Feature","properties":{},"geometry":{"type":"LineString","coordinates":[[8.6956467,50.0204448],[8.695646,50.020557],[8.6956447,50.0206144],[8.695645,50.0206609],[8.6956432,50.0207298],[8.6956444,50.0208157],[8.6956427,50.0208853],[8.6956426,50.020936],[8.6956413,50.0210303],[8.6956416,50.0210583],[8.6956398,50.0212127],[8.6956442,50.0213021]]}},
{"type":"Feature","properties":{},"geometry":{"type":"LineString","coordinates":[[8.6963386,50.0218121],[8.6961381,50.0218396]]}},
{"type":"Feature","properties":{},"geometry":{"type":"LineString","coordinates":[[8.6956442,50.0213021],[8.6956402,50.021418],[8.695639,50.0214322],[8.6956386,50.0214557],[8.6956327,50.021595],[8.6956326,50.021609],[8.6956321,50.0216183]]}},
{"type":"Feature","properties":{},"geometry":{"type":"LineString","coordinates":[[8.6968485,50.0231008],[8.6969684,50.0230875],[8.6970494,50.0230793],[8.6971222,50.0230719],[8.6973033,50.0230228],[8.697321,50.023018],[8.6973501,50.0230085],[8.6973613,50.0230049],[8.6974156,50.022987],[8.6975494,50.0229384],[8.6976467,50.0228992],[8.6978917,50.0228005],[8.6979818,50.0227697],[8.6979837,50.0227691],[8.6981122,50.0227236],[8.6984751,50.022602]]}},
{"type":"Feature","properties":{},"geometry":{"type":"LineString","coordinates":[[8.696965,50.0230879],[8.696928,50.0229523],[8.6969188,50.0229464]]}},
{"type":"Feature","properties":{},"geometry":{"type":"LineString","coordinates":[[8.6966603,50.0224092],[8.6966461,50.0224106]]}},
{"type":"Feature","properties":{},"geometry":{"type":"LineString","coordinates":[[8.6968485,50.0231008],[8.6967969,50.022909],[8.6967728,50.0228162],[8.6967471,50.0227252],[8.6967049,50.0225715],[8.6966743,50.02246],[8.6966603,50.0224092]]}},
{"type":"Feature","properties":{},"geometry":{"type":"LineString","coordinates":[[8.6970004,50.0232152],[8.6968801,50.0232292]]}},
{"type":"Feature","properties":{},"geometry":{"type":"LineString","coordinates":[[8.6971096,50.0236269],[8.6970496,50.0233971]]}},
{"type":"Feature","properties":{},"geometry":{"type":"LineString","coordinates":[[8.6970094,50.0238737],[8.6970371,50.0238715]]}},
{"type":"Feature","properties":{},"geometry":{"type":"LineString","coordinates":[[8.6981554,50.0227929],[8.6981877,50.0227818],[8.698229,50.0227675]]}},
{"type":"Feature","properties":{},"geometry":{"type":"LineString","coordinates":[[8.6963386,50.0218121],[8.6963409,50.0218186],[8.6963616,50.021878],[8.6964308,50.0218685]]}},
{"type":"Feature","properties":{},"geometry":{"type":"LineString","coordinates":[[8.6956221,50.0232924],[8.6956204,50.023488],[8.6956196,50.023575],[8.6956197,50.0236247],[8.6956189,50.0236825],[8.6956185,50.0237551],[8.6956168,50.0238138],[8.695623,50.0238344],[8.6956412,50.0238515],[8.6956645,50.0238616],[8.6956985,50.023867],[8.6957282,50.0238679]]}},
{"type":"Feature","properties":{},"geometry":{"type":"LineString","coordinates":[[8.6964308,50.0218685],[8.6964505,50.0218657],[8.6965026,50.0218584],[8.6966159,50.0218441]]}},
{"type":"Feature","properties":{},"geometry":{"type":"LineString","coordinates":[[8.696544,50.0232396],[8.6965363,50.0231592]]}},
{"type":"Feature","properties":{},"geometry":{"type":"LineString","coordinates":[[8.6970293,50.0238242],[8.6970265,50.0238244],[8.6970237,50.0238247]]}},
{"type":"Feature","properties":{},"geometry":{"type":"LineString","coordinates":[[8.6961381,50.0218396],[8.6961368,50.0218356]]}},
{"type":"Feature","properties":{},"geometry":{"type":"LineString","coordinates":[[8.6990396,50.0233311],[8.6989462,50.023207],[8.6990297,50.0230592],[8.6986952,50.0226297],[8.6985393,50.0224235],[8.6985263,50.0224017],[8.6982791,50.0220752],[8.6981667,50.0219226]]}},
{"type":"Feature","properties":{},"geometry":{"type":"LineString","coordinates":[[8.6994467,50.0229232],[8.6995754,50.0228815],[8.6996712,50.0228505],[8.6996981,50.0228388]]}},
{"type":"Feature","properties":{},"geometry":{"type":"LineString","coordinates":[[8.7002958,50.0224833],[8.700289,50.0224866],[8.7002876,50.0224877],[8.7002526,50.0225626]]}},
{"type":"Feature","properties":{},"geometry":{"type":"LineString","coordinates":[[8.702586,50.0218761],[8.7026035,50.0218243],[8.7026583,50.0217185],[8.7027723,50.0214967],[8.7028788,50.0212909],[8.7028825,50.0212826],[8.7028834,50.021273],[8.7028821,50.0212631],[8.7028797,50.0212535],[8.7028756,50.0212445],[8.7028707,50.0212377]]}},
{"type":"Feature","properties":{},"geometry":{"type":"LineString","coordinates":[[8.6996174,50.0234197],[8.699431,50.0231781],[8.6994041,50.0231432],[8.6993868,50.0231208],[8.6993911,50.0230417],[8.6993952,50.0229679],[8.6996401,50.022889],[8.699718,50.0228639]]}},
{"type":"Feature","properties":{},"geometry":{"type":"LineString","coordinates":[[8.7020824,50.0226445],[8.7021353,50.022636],[8.7022409,50.02262],[8.7022475,50.0226187]]}},
{"type":"Feature","properties":{},"geometry":{"type":"LineString","coordinates":[[8.7006649,50.0214665],[8.7006174,50.0215194],[8.7005741,50.0215678],[8.700521,50.0216249],[8.7004763,50.0216763],[8.7004381,50.0217185],[8.7003739,50.0217897],[8.7003307,50.0218395]]}},
{"type":"Feature","properties":{},"geometry":{"type":"LineString","coordinates":[[8.7013523,50.020198],[8.7013476,50.020293],[8.7013337,50.0203832],[8.7013308,50.0204044],[8.701335,50.0204216],[8.7013448,50.0204352],[8.7013586,50.0204457],[8.7013747,50.0204535],[8.7013915,50.0204589],[8.7014074,50.0204624],[8.7014208,50.0204644],[8.7014334,50.0204655]]}},
{"type":"Feature","properties":{},"geometry":{"type":"LineString","coordinates":[[8.69708,50.0204488],[8.6970675,50.0204529],[8.6970579,50.0204583],[8.6970538,50.0204647],[8.6971444,50.0205837],[8.6971948,50.0206491],[8.6972992,50.0207845],[8.6973998,50.0209168],[8.6976413,50.0212343],[8.6977768,50.0214135],[8.6979298,50.0216139],[8.6979305,50.0216149],[8.6980066,50.0217172],[8.6981013,50.0218411],[8.6981667,50.0219226]]}},
{"type":"Feature","properties":{},"geometry":{"type":"LineString","coordinates":[[8.701296,50.0230492],[8.7011439,50.0230804],[8.7011048,50.023003],[8.7010757,50.0229433],[8.7009809,50.0227616]]}},
{"type":"Feature","properties":{},"geometry":{"type":"LineString","coordinates":[[8.7016924,50.0199893],[8.70178,50.020022],[8.7018704,50.0200539],[8.7019028,50.0200665],[8.701911,50.0200696],[8.7019364,50.0200793],[8.7019646,50.0200898],[8.7019735,50.020093],[8.7020345,50.0201155],[8.7020411,50.0201179],[8.7021089,50.0201447],[8.7021302,50.0201526],[8.7021767,50.0201692],[8.7021917,50.0201746],[8.7022391,50.0201916],[8.7022436,50.0201931],[8.7022641,50.0202003],[8.7022623,50.0202023],[8.70224,50.0202276],[8.7023654,50.0202746],[8.7025587,50.0203463],[8.7027879,50.0204311]]}},
{"type":"Feature","properties":{},"geometry":{"type":"LineString","coordinates":[[8.7008015,50.021308],[8.7008456,50.0212576],[8.7008913,50.0212075],[8.7009367,50.0211576],[8.700982,50.0211076],[8.7010258,50.0210584],[8.7010566,50.0210236],[8.7010683,50.0210103],[8.7011294,50.0209428]]}},
{"type":"Feature","properties":{},"geometry":{"type":"LineString","coordinates":[[8.7024543,50.0208497],[8.7024308,50.0208652],[8.7024063,50.02088],[8.7023818,50.0208892],[8.7023581,50.0208936],[8.7023355,50.0208943],[8.7023148,50.0208923],[8.7022966,50.0208884],[8.7022814,50.0208837],[8.7022697,50.0208792],[8.7022623,50.0208757],[8.7022597,50.0208744],[8.7018657,50.0206478]]}},
{"type":"Feature","properties":{},"geometry":{"type":"LineString","coordinates":[[8.7002526,50.0225626],[8.7002459,50.0225615],[8.7002005,50.0225427],[8.7001151,50.0225109],[8.6999281,50.0224413],[8.6998787,50.0224214],[8.699798,50.0223855],[8.69979,50.0223817],[8.6997432,50.0223599],[8.6996892,50.0223333],[8.6996435,50.0223101]]}},
{"type":"Feature","properties":{},"geometry":{"type":"LineString","coordinates":[[8.7011294,50.0209428],[8.7011429,50.0209293],[8.701153,50.020928],[8.7011721,50.0209259],[8.7011786,50.0209251],[8.7012148,50.0209211],[8.7012653,50.0209162],[8.7012827,50.0209254],[8.7013623,50.0209703],[8.7014094,50.0209973],[8.701435,50.0210119],[8.7015121,50.0210574],[8.7015532,50.0210812],[8.7015851,50.0210996],[8.7016784,50.021153],[8.7018842,50.0212732]]}},
{"type":"Feature","properties":{},"geometry":{"type":"LineString","coordinates":[[8.6997818,50.0222649],[8.6998333,50.0222976],[8.699906,50.0223342],[8.6999295,50.0223437],[8.699937,50.0223467],[8.7000608,50.0223943],[8.7002958,50.0224833]]}},
{"type":"Feature","properties":{},"geometry":{"type":"LineString","coordinates":[[8.69887,50.0228588],[8.6986952,50.0226297]]}},
{"type":"Feature","properties":{},"geometry":{"type":"LineString","coordinates":[[8.6999224,50.0236507],[8.6999588,50.0236492],[8.7001491,50.0236193],[8.7002411,50.0235998],[8.7003098,50.0235843],[8.7003994,50.0235655],[8.7007283,50.0234962],[8.7009094,50.0234577],[8.7010818,50.0234206],[8.7015248,50.0233265],[8.7016381,50.0233025]]}},
{"type":"Feature","properties":{},"geometry":{"type":"LineString","coordinates":[[8.7000669,50.0211199],[8.6998499,50.0213595],[8.6998226,50.0213901],[8.699632,50.0216005],[8.6996051,50.0216309],[8.6995259,50.021719],[8.6994798,50.0217759],[8.6994391,50.0218464],[8.6994146,50.0219136],[8.6994037,50.0219766],[8.6994034,50.0220344],[8.6994109,50.022086],[8.6994235,50.0221304],[8.6994381,50.0221666],[8.6994521,50.0221937],[8.6994626,50.0222107],[8.6994667,50.0222165],[8.6994669,50.0222207],[8.699465,50.0222226],[8.6993694,50.0222664]]}},
{"type":"Feature","properties":{},"geometry":{"type":"LineString","coordinates":[[8.7016381,50.0233025],[8.701707,50.0232879],[8.7017152,50.0232858],[8.7017666,50.0232711],[8.7018074,50.0232517],[8.7018568,50.0232221],[8.7018996,50.0231821],[8.7019286,50.0231298],[8.7019351,50.0230884],[8.7019302,50.0230572],[8.7019197,50.0230273],[8.7018849,50.0229466],[8.7018352,50.0228397],[8.7018211,50.0228112]]}},
{"type":"Feature","properties":{},"geometry":{"type":"LineString","coordinates":[[8.7003307,50.0218395],[8.7003033,50.0218691],[8.7002515,50.0219246],[8.7002261,50.0219556],[8.7002376,50.0219839],[8.7002455,50.0220033],[8.7005815,50.0221324],[8.7006067,50.0221958],[8.7006137,50.0222161],[8.7005895,50.0222423],[8.7003493,50.0225032]]}},
{"type":"Feature","properties":{},"geometry":{"type":"LineString","coordinates":[[8.7028163,50.0204005],[8.7027879,50.0204311],[8.7028265,50.0204454],[8.7028853,50.0204418]]}},
{"type":"Feature","properties":{},"geometry":{"type":"LineString","coordinates":[[8.7029971,50.0212196],[8.7024989,50.0210135],[8.7024955,50.0210118],[8.7024918,50.0210097],[8.7024876,50.0210069],[8.7024831,50.0210033],[8.7024824,50.0210026]]}},
{"type":"Feature","properties":{},"geometry":{"type":"LineString","coordinates":[[8.7018842,50.0212732],[8.7018309,50.0213396],[8.7017915,50.0213971],[8.7017546,50.0214553],[8.7017209,50.0215133],[8.7016899,50.0215737],[8.7016237,50.0217313],[8.7016124,50.0217663],[8.7015922,50.0218381],[8.7015757,50.0219061],[8.7015654,50.0219699],[8.7015575,50.0220324],[8.701553,50.0220946],[8.7015515,50.022158],[8.70156,50.0222748],[8.7015651,50.0223294]]}},
{"type":"Feature","properties":{},"geometry":{"type":"LineString","coordinates":[[8.7030021,50.0204832],[8.703006,50.0204844],[8.702957,50.0205412],[8.7029023,50.0206028],[8.7028445,50.0206604],[8.7027805,50.0207229],[8.7027243,50.0207734],[8.7026492,50.0208397],[8.7024741,50.0209762],[8.7024726,50.0209827],[8.7024732,50.0209888],[8.7024755,50.0209942],[8.7024789,50.0209991],[8.7024824,50.0210026]]}},
{"type":"Feature","properties":{},"geometry":{"type":"LineString","coordinates":[[8.7028853,50.0204418],[8.7030021,50.0204832]]}},
{"type":"Feature","properties":{},"geometry":{"type":"LineString","coordinates":[[8.70224,50.0202276],[8.7021735,50.0203023],[8.7021331,50.0203479],[8.702031,50.0204595],[8.7020219,50.0204696],[8.7019737,50.0205233],[8.7019449,50.0205568],[8.7019263,50.0205784],[8.7018746,50.0206379],[8.7018657,50.0206478]]}},
{"type":"Feature","properties":{},"geometry":{"type":"LineString","coordinates":[[8.7028707,50.0212377],[8.7028462,50.0212236],[8.7024667,50.0210655],[8.7024519,50.0210621],[8.7024362,50.0210605]]}},
{"type":"Feature","properties":{},"geometry":{"type":"LineString","coordinates":[[8.699718,50.0228639],[8.6996981,50.0228388]]}},
{"type":"Feature","properties":{},"geometry":{"type":"LineString","coordinates":[[8.7015651,50.0223294],[8.7015679,50.0223474],[8.7015797,50.0224052],[8.7016107,50.0225161],[8.7016469,50.0226266],[8.7016454,50.0226379],[8.7016417,50.0226478],[8.7016362,50.0226564],[8.7016296,50.0226638],[8.7016224,50.0226698],[8.7016152,50.0226747],[8.7016086,50.0226784],[8.7016031,50.022681],[8.7015983,50.0226832],[8.7015835,50.0226852],[8.7015408,50.02269],[8.7014729,50.0226954],[8.7013825,50.0226991],[8.7012721,50.0226991],[8.7011446,50.0226931],[8.7010024,50.0226791],[8.7008484,50.0226547],[8.700685,50.022618],[8.7005151,50.0225667],[8.7004668,50.0225488],[8.7003846,50.0225164]]}},
{"type":"Feature","properties":{},"geometry":{"type":"LineString","coordinates":[[8.7024831,50.0210033],[8.7024203,50.0210605]]}},
{"type":"Feature","properties":{},"geometry":{"type":"LineString","coordinates":[[8.7003733,50.0226099],[8.7002526,50.0225626]]}},
{"type":"Feature","properties":{},"geometry":{"type":"LineString","coordinates":[[8.7002526,50.0225626],[8.700256,50.0225691],[8.7002532,50.0225758],[8.7002446,50.0225837],[8.7002316,50.0225785]]}},
{"type":"Feature","properties":{},"geometry":{"type":"LineString","coordinates":[[8.7019551,50.0227736],[8.7018211,50.0228112]]}},
{"type":"Feature","properties":{},"geometry":{"type":"LineString","coordinates":[[8.7000557,50.0233013],[8.6997513,50.0229062],[8.699718,50.0228639]]}},
{"type":"Feature","properties":{},"geometry":{"type":"LineString","coordinates":[[8.701454,50.0230151],[8.701296,50.0230492]]}},
{"type":"Feature","properties":{},"geometry":{"type":"LineString","coordinates":[[8.7019009,50.0226398],[8.7019551,50.0227736]]}},
{"type":"Feature","properties":{},"geometry":{"type":"LineString","coordinates":[[8.7020824,50.0226445],[8.7019812,50.0226591],[8.7019731,50.0226586],[8.7019642,50.0226577],[8.7019529,50.0226562],[8.7019402,50.0226538],[8.7019268,50.0226504],[8.7019135,50.0226458],[8.7019009,50.0226398]]}},
{"type":"Feature","properties":{},"geometry":{"type":"LineString","coordinates":[[8.7014334,50.0204655],[8.7014739,50.0204758],[8.70159,50.0205079],[8.7016891,50.02055],[8.7018657,50.0206478]]}},
{"type":"Feature","properties":{},"geometry":{"type":"LineString","coordinates":[[8.7009809,50.0227616],[8.7008773,50.0227463],[8.700781,50.0227283],[8.7006927,50.0227086],[8.7006133,50.0226884],[8.7005437,50.0226686],[8.7004848,50.0226502],[8.7004374,50.0226341],[8.7004025,50.0226214],[8.7003809,50.0226131],[8.7003733,50.0226099]]}},
{"type":"Feature","properties":{},"geometry":{"type":"LineString","coordinates":[[8.7024362,50.0210605],[8.7024203,50.0210605],[8.7024047,50.0210617],[8.7023901,50.0210636],[8.7023768,50.021066],[8.7023655,50.0210685],[8.7023568,50.0210707],[8.7023511,50.0210723],[8.7023491,50.0210728],[8.7022896,50.0211228],[8.7022335,50.0211757],[8.7021816,50.0212296],[8.7021344,50.0212826],[8.7021135,50.0213076],[8.7020926,50.0213327],[8.7020569,50.021378],[8.702028,50.0214165],[8.7020066,50.0214465],[8.7019932,50.0214658],[8.7019882,50.0214727]]}},
{"type":"Feature","properties":{},"geometry":{"type":"LineString","coordinates":[[8.7018679,50.0217001],[8.7018571,50.0217274],[8.7018394,50.0217836],[8.7018017,50.0219191],[8.7017818,50.0220479],[8.7017771,50.0221682],[8.7017842,50.0222782],[8.7017996,50.0223761],[8.7018199,50.0224602],[8.7018417,50.0225287],[8.7018615,50.0225798],[8.7018759,50.0226118],[8.7018815,50.0226229],[8.70189,50.0226322],[8.7019009,50.0226398]]}},
{"type":"Feature","properties":{},"geometry":{"type":"LineString","coordinates":[[8.7024392,50.0222552],[8.7024464,50.0222362],[8.7025134,50.0220629]]}},
{"type":"Feature","properties":{},"geometry":{"type":"LineString","coordinates":[[8.7029209,50.0202195],[8.7028919,50.0202695],[8.7028654,50.0203166],[8.7028163,50.0204005]]}},
{"type":"Feature","properties":{},"geometry":{"type":"LineString","coordinates":[[8.6996435,50.0223101],[8.6996267,50.0223014],[8.6996065,50.0222915],[8.6995833,50.0222856],[8.6995719,50.0222843],[8.6995604,50.022283],[8.6995444,50.0222848],[8.6995356,50.0222858],[8.6995223,50.0222886],[8.6995113,50.0222919],[8.6994955,50.0222977],[8.6994218,50.0223317],[8.6993108,50.0223837],[8.6992125,50.0224297],[8.6990035,50.0225276],[8.6989136,50.0225554],[8.6987123,50.0226183],[8.6987003,50.0226234],[8.6986952,50.0226297]]}},
{"type":"Feature","properties":{},"geometry":{"type":"LineString","coordinates":[[8.7022475,50.0226187],[8.7022738,50.0226127],[8.7022955,50.0226022],[8.7023081,50.0225897],[8.7023193,50.0225705],[8.7024207,50.0223034],[8.7024392,50.0222552]]}},
{"type":"Feature","properties":{},"geometry":{"type":"LineString","coordinates":[[8.7019882,50.0214727],[8.7019974,50.0214752]]}},
{"type":"Feature","properties":{},"geometry":{"type":"LineString","coordinates":[[8.6996981,50.0228388],[8.6999407,50.022733],[8.699977,50.0227178],[8.7000813,50.022673],[8.7001356,50.0226493],[8.7001687,50.0226349],[8.7001991,50.0226216],[8.7002279,50.0225896],[8.7002446,50.0225837]]}},
{"type":"Feature","properties":{},"geometry":{"type":"LineString","coordinates":[[8.7018211,50.0228112],[8.7018017,50.0227984],[8.7017845,50.0227889],[8.7017669,50.022781],[8.7017495,50.0227745],[8.701733,50.0227694],[8.701718,50.0227656],[8.7017053,50.0227628],[8.7016954,50.022761],[8.7016889,50.02276],[8.7016834,50.0227593],[8.7016424,50.022764],[8.7015948,50.0227686],[8.7015636,50.0227711],[8.7015324,50.0227735],[8.701495,50.0227757],[8.7014575,50.0227779],[8.7013726,50.022781],[8.7012801,50.0227817],[8.7011824,50.0227793],[8.7010819,50.022773],[8.7009809,50.0227616]]}},
{"type":"Feature","properties":{},"geometry":{"type":"LineString","coordinates":[[8.7019882,50.0214727],[8.7019501,50.0215362],[8.7019117,50.021602],[8.7018793,50.0216706],[8.7018679,50.0217001]]}},
{"type":"Feature","properties":{},"geometry":{"type":"LineString","coordinates":[[8.7002958,50.0224833],[8.700343,50.0225008],[8.7003493,50.0225032],[8.7003846,50.0225164]]}},
{"type":"Feature","properties":{},"geometry":{"type":"LineString","coordinates":[[8.7003846,50.0225164],[8.7004239,50.0224749]]}},
{"type":"Feature","properties":{},"geometry":{"type":"LineString","coordinates":[[8.7025571,50.0231477],[8.7023162,50.0231794],[8.702265,50.023175],[8.7022018,50.0231398],[8.7021329,50.0230916],[8.7020874,50.023034],[8.7020162,50.0228938],[8.7020134,50.0228885],[8.7019551,50.0227736]]}},
{"type":"Feature","properties":{},"geometry":{"type":"LineString","coordinates":[[8.6993694,50.0222664],[8.6991719,50.0223591],[8.6990733,50.022405],[8.6990195,50.0224388],[8.6986572,50.022547],[8.6986518,50.0225474],[8.6986477,50.0225457],[8.6986294,50.0225411]]}},
{"type":"Feature","properties":{},"geometry":{"type":"LineString","coordinates":[[8.6981667,50.0219226],[8.698207,50.0219804],[8.6982791,50.0220752],[8.6985263,50.0224017],[8.6985393,50.0224235]]}},
{"type":"Feature","properties":{},"geometry":{"type":"LineString","coordinates":[[8.6985393,50.0224235],[8.6986294,50.0225411]]}},
{"type":"Feature","properties":{},"geometry":{"type":"LineString","coordinates":[[8.6985393,50.0224235],[8.6985559,50.0224184]]}},
{"type":"Feature","properties":{},"geometry":{"type":"LineString","coordinates":[[8.6986294,50.0225411],[8.6986952,50.0226297]]}},
{"type":"Feature","properties":{},"geometry":{"type":"LineString","coordinates":[[8.7019886,50.0214727],[8.7019932,50.0214658],[8.7020066,50.0214465],[8.702028,50.0214165],[8.7020569,50.021378],[8.7020926,50.0213327],[8.7021135,50.0213076],[8.7021344,50.0212826],[8.7021816,50.0212296],[8.7022335,50.0211757],[8.7022896,50.0211228],[8.7023491,50.0210728]]}},
{"type":"Feature","properties":{},"geometry":{"type":"LineString","coordinates":[[8.6904482,50.0155809],[8.6904747,50.0155548],[8.6905665,50.0154646],[8.6906615,50.0153749],[8.6907497,50.0152923],[8.6908359,50.0152098],[8.6909673,50.0150859]]}},
{"type":"Feature","properties":{},"geometry":{"type":"LineString","coordinates":[[8.6943838,50.0159901],[8.6941235,50.0159067],[8.6939832,50.01586],[8.6937716,50.0157913],[8.6937458,50.0157796]]}},
{"type":"Feature","properties":{},"geometry":{"type":"LineString","coordinates":[[8.6951929,50.0177501],[8.6950646,50.0177235],[8.6949218,50.0176939]]}},
{"type":"Feature","properties":{},"geometry":{"type":"LineString","coordinates":[[8.6931938,50.0172863],[8.6932824,50.017304]]}},
{"type":"Feature","properties":{},"geometry":{"type":"LineString","coordinates":[[8.6944156,50.0175218],[8.6946127,50.017558],[8.6946808,50.0175682],[8.6947345,50.0175755]]}},
{"type":"Feature","properties":{},"geometry":{"type":"LineString","coordinates":[[8.6955223,50.0169317],[8.6955283,50.0169183],[8.6955226,50.0169173]]}},
{"type":"Feature","properties":{},"geometry":{"type":"LineString","coordinates":[[8.6943265,50.0183067],[8.6943262,50.0183075]]}},
{"type":"Feature","properties":{},"geometry":{"type":"LineString","coordinates":[[8.6947345,50.0175755],[8.6948112,50.0175869],[8.6949627,50.0176082]]}},
{"type":"Feature","properties":{},"geometry":{"type":"LineString","coordinates":[[8.6952003,50.0176417],[8.695221,50.0175747]]}},
{"type":"Feature","properties":{},"geometry":{"type":"LineString","coordinates":[[8.6934972,50.0174219],[8.6934302,50.0174095],[8.6931646,50.0173583]]}},
{"type":"Feature","properties":{},"geometry":{"type":"LineString","coordinates":[[8.6937751,50.0174761],[8.6935914,50.0174403],[8.6934972,50.0174219]]}},
{"type":"Feature","properties":{},"geometry":{"type":"LineString","coordinates":[[8.6941072,50.018205],[8.6942351,50.018229]]}},
{"type":"Feature","properties":{},"geometry":{"type":"LineString","coordinates":[[8.6983296,50.0194115],[8.6985447,50.0198037],[8.6986018,50.0199089],[8.6986167,50.0199379],[8.6986233,50.0200328]]}},
{"type":"Feature","properties":{},"geometry":{"type":"LineString","coordinates":[[8.6991492,50.0202748],[8.6991216,50.0202789]]}},
{"type":"Feature","properties":{},"geometry":{"type":"LineString","coordinates":[[8.6953217,50.018283],[8.6953111,50.018194]]}},
{"type":"Feature","properties":{},"geometry":{"type":"LineString","coordinates":[[8.6931646,50.0173583],[8.6930414,50.017621]]}},
{"type":"Feature","properties":{},"geometry":{"type":"LineString","coordinates":[[8.6949218,50.0176939],[8.6947927,50.0176692],[8.6947664,50.0176647]]}},
{"type":"Feature","properties":{},"geometry":{"type":"LineString","coordinates":[[8.6931646,50.0173583],[8.6930729,50.0173405]]}},
{"type":"Feature","properties":{},"geometry":{"type":"LineString","coordinates":[[8.6922175,50.0178563],[8.6927804,50.0179611]]}},
{"type":"Feature","properties":{},"geometry":{"type":"LineString","coordinates":[[8.6941072,50.018205],[8.6939975,50.0181844],[8.6939164,50.0181695]]}},
{"type":"Feature","properties":{},"geometry":{"type":"LineString","coordinates":[[8.6929498,50.0178141],[8.6929553,50.0178152]]}},
{"type":"Feature","properties":{},"geometry":{"type":"LineString","coordinates":[[8.692876,50.0177997],[8.6929498,50.0178141]]}},
{"type":"Feature","properties":{},"geometry":{"type":"LineString","coordinates":[[8.6927804,50.0179611],[8.6928339,50.0178469],[8.6928582,50.0177962],[8.692876,50.0177997]]}},
{"type":"Feature","properties":{},"geometry":{"type":"LineString","coordinates":[[8.6939784,50.0184782],[8.6939093,50.0185403],[8.6938365,50.0186043]]}},
{"type":"Feature","properties":{},"geometry":{"type":"LineString","coordinates":[[8.6939164,50.0181695],[8.693892,50.0182264]]}},
{"type":"Feature","properties":{},"geometry":{"type":"LineString","coordinates":[[8.693892,50.0182264],[8.6940085,50.018248],[8.6941595,50.01832]]}},
{"type":"Feature","properties":{},"geometry":{"type":"LineString","coordinates":[[8.6928582,50.0177962],[8.6928623,50.0177876],[8.6928857,50.0177389],[8.6929367,50.0176327],[8.6929711,50.0175612]]}},
{"type":"Feature","properties":{},"geometry":{"type":"LineString","coordinates":[[8.699084,50.020284],[8.6990735,50.0202871],[8.6990647,50.0202918],[8.6990639,50.0203],[8.6990681,50.0203062],[8.6992557,50.0204447],[8.6993726,50.0205309],[8.6995168,50.0206206],[8.6995521,50.0206344],[8.6997136,50.0206927],[8.6998226,50.0207452],[8.6999633,50.020827],[8.6999931,50.0208448],[8.7000423,50.0208854]]}},
{"type":"Feature","properties":{},"geometry":{"type":"LineString","coordinates":[[8.6969723,50.02037],[8.6968786,50.0202462]]}},
{"type":"Feature","properties":{},"geometry":{"type":"LineString","coordinates":[[8.6968786,50.0202462],[8.6967124,50.0200266]]}},
{"type":"Feature","properties":{},"geometry":{"type":"LineString","coordinates":[[8.6967124,50.0200266],[8.6966054,50.0198852]]}},
{"type":"Feature","properties":{},"geometry":{"type":"LineString","coordinates":[[8.6966054,50.0198852],[8.6965443,50.0198044]]}},
{"type":"Feature","properties":{},"geometry":{"type":"LineString","coordinates":[[8.6964838,50.0197245],[8.6963837,50.0195923]]}},
{"type":"Feature","properties":{},"geometry":{"type":"LineString","coordinates":[[8.6962774,50.0194562],[8.6959188,50.018997]]}},
{"type":"Feature","properties":{},"geometry":{"type":"LineString","coordinates":[[8.6959188,50.018997],[8.6959079,50.0189528]]}},
{"type":"Feature","properties":{},"geometry":{"type":"LineString","coordinates":[[8.696192,50.0189419],[8.6963576,50.0189491],[8.6963715,50.0189595]]}},
{"type":"Feature","properties":{},"geometry":{"type":"LineString","coordinates":[[8.6963715,50.0189595],[8.6964069,50.0190081]]}},
{"type":"Feature","properties":{},"geometry":{"type":"LineString","coordinates":[[8.6964069,50.0190081],[8.6971006,50.0190701]]}},
{"type":"Feature","properties":{},"geometry":{"type":"LineString","coordinates":[[8.6971006,50.0190701],[8.6972262,50.0190814]]}},
{"type":"Feature","properties":{},"geometry":{"type":"LineString","coordinates":[[8.6972262,50.0190814],[8.6973781,50.0190951]]}},
{"type":"Feature","properties":{},"geometry":{"type":"LineString","coordinates":[[8.6973781,50.0190951],[8.6975179,50.0191077]]}},
{"type":"Feature","properties":{},"geometry":{"type":"LineString","coordinates":[[8.6975179,50.0191077],[8.6977551,50.0191291]]}},
{"type":"Feature","properties":{},"geometry":{"type":"LineString","coordinates":[[8.6977551,50.0191291],[8.6979109,50.0191428]]}},
{"type":"Feature","properties":{},"geometry":{"type":"LineString","coordinates":[[8.6942351,50.018229],[8.6943321,50.0182472],[8.6945293,50.0182844]]}},
{"type":"Feature","properties":{},"geometry":{"type":"LineString","coordinates":[[8.6937827,50.018145],[8.6935451,50.0181012]]}},
{"type":"Feature","properties":{},"geometry":{"type":"LineString","coordinates":[[8.6935451,50.0181012],[8.6933167,50.0180598],[8.6933149,50.0180595]]}},
{"type":"Feature","properties":{},"geometry":{"type":"LineString","coordinates":[[8.6933149,50.0180595],[8.6930335,50.018006]]}},
{"type":"Feature","properties":{},"geometry":{"type":"LineString","coordinates":[[8.6930335,50.018006],[8.6928869,50.0179784]]}},
{"type":"Feature","properties":{},"geometry":{"type":"LineString","coordinates":[[8.6928869,50.0179784],[8.6928804,50.0179746],[8.6928791,50.0179679]]}},
{"type":"Feature","properties":{},"geometry":{"type":"LineString","coordinates":[[8.6928791,50.0179679],[8.6929071,50.0179033],[8.6929498,50.0178141]]}},
{"type":"Feature","properties":{},"geometry":{"type":"LineString","coordinates":[[8.6929977,50.017714],[8.6929498,50.0178141]]}},
{"type":"Feature","properties":{},"geometry":{"type":"LineString","coordinates":[[8.6930414,50.017621],[8.6929977,50.017714]]}},
{"type":"Feature","properties":{},"geometry":{"type":"LineString","coordinates":[[8.6940721,50.0175324],[8.6939397,50.0175081],[8.6937907,50.0174791],[8.6937751,50.0174761]]}},
{"type":"Feature","properties":{},"geometry":{"type":"LineString","coordinates":[[8.6944838,50.0176143],[8.6942872,50.017575],[8.694135,50.0175449],[8.6940721,50.0175324]]}},
{"type":"Feature","properties":{},"geometry":{"type":"LineString","coordinates":[[8.6947664,50.0176647],[8.6946558,50.0176458],[8.6946084,50.0176369],[8.6944838,50.0176143]]}},
{"type":"Feature","properties":{},"geometry":{"type":"LineString","coordinates":[[8.6952246,50.0177717],[8.6952218,50.0177561],[8.6951929,50.0177501]]}},
{"type":"Feature","properties":{},"geometry":{"type":"LineString","coordinates":[[8.6952404,50.017837],[8.6952246,50.0177717]]}},
{"type":"Feature","properties":{},"geometry":{"type":"LineString","coordinates":[[8.6952772,50.0179987],[8.6952693,50.0179648],[8.6952533,50.0178916],[8.6952404,50.017837]]}},
{"type":"Feature","properties":{},"geometry":{"type":"LineString","coordinates":[[8.6953111,50.018194],[8.6953014,50.018128],[8.6952979,50.0180981],[8.6952772,50.0179987]]}},
{"type":"Feature","properties":{},"geometry":null},
{"type":"Feature","properties":{},"geometry":{"type":"LineString","coordinates":[[8.6939164,50.0181695],[8.6937827,50.018145]]}},
{"type":"Feature","properties":{},"geometry":{"type":"LineString","coordinates":[[8.6925449,50.0194904],[8.6925635,50.0194647],[8.6926088,50.0194075]]}},
{"type":"Feature","properties":{},"geometry":{"type":"LineString","coordinates":[[8.6926083,50.0196059],[8.6926571,50.0195423],[8.6926706,50.0195253]]}},
{"type":"Feature","properties":{},"geometry":{"type":"LineString","coordinates":[[8.6924606,50.0199679],[8.6924156,50.0199578],[8.6924113,50.0199563],[8.6924078,50.0199519],[8.6924079,50.0199492]]}},
{"type":"Feature","properties":{},"geometry":{"type":"LineString","coordinates":[[8.6927687,50.0191662],[8.6928151,50.01909]]}},
{"type":"Feature","properties":{},"geometry":{"type":"LineString","coordinates":[[8.6926706,50.0195253],[8.6925449,50.0194904]]}},
{"type":"Feature","properties":{},"geometry":{"type":"LineString","coordinates":[[8.6941595,50.01832],[8.6940284,50.0184333],[8.6939784,50.0184782]]}},
{"type":"Feature","properties":{},"geometry":{"type":"LineString","coordinates":[[8.6901947,50.019372],[8.6902301,50.0193843],[8.6902458,50.0193898],[8.6902963,50.0194065],[8.6906936,50.019542],[8.690844,50.019593],[8.6909129,50.0196151],[8.69104,50.0196557],[8.6913846,50.0197492],[8.6915883,50.0197996]]}},
{"type":"Feature","properties":{},"geometry":{"type":"LineString","coordinates":[[8.6888742,50.017954],[8.6889746,50.0184257],[8.6889709,50.018499],[8.6889984,50.0185609],[8.689164,50.0187236]]}},
{"type":"Feature","properties":{},"geometry":{"type":"LineString","coordinates":[[8.6887524,50.0173714],[8.6888742,50.017954]]}},
{"type":"Feature","properties":{},"geometry":{"type":"LineString","coordinates":[[8.6892719,50.0185775],[8.6897849,50.0183977],[8.6899116,50.0183574],[8.6899786,50.0183343],[8.6900723,50.0183018],[8.690104,50.0182909],[8.690382,50.0182386],[8.6904913,50.0182224],[8.6905151,50.0182096]]}},
{"type":"Feature","properties":{},"geometry":{"type":"LineString","coordinates":[[8.6891728,50.0186513],[8.6892356,50.0187293],[8.6893416,50.0188346],[8.6894355,50.0189177],[8.6895653,50.0190156],[8.6897981,50.0191538],[8.689866,50.0191877],[8.6898675,50.0191882],[8.6898717,50.0191895],[8.6898781,50.0191911],[8.6898864,50.0191927],[8.6898963,50.0191939],[8.6899074,50.0191944],[8.6899193,50.0191937],[8.6899315,50.0191915],[8.6899438,50.0191874],[8.6899557,50.019181],[8.6904917,50.0188212],[8.6906173,50.0187369],[8.6906796,50.018695],[8.6907645,50.0186314]]}},
{"type":"Feature","properties":{},"geometry":{"type":"LineString","coordinates":[[8.6908385,50.0162052],[8.6907378,50.0162595],[8.6906862,50.0163282]]}},
{"type":"Feature","properties":{},"geometry":{"type":"LineString","coordinates":[[8.6905729,50.0165334],[8.6905839,50.0165221],[8.6905937,50.016525],[8.6906201,50.0165329],[8.6907798,50.0165822],[8.6908445,50.0166022],[8.6908857,50.0166149],[8.6909387,50.0166311],[8.6909646,50.0166392],[8.6911382,50.0166927],[8.6911763,50.0167044],[8.6911997,50.0167116],[8.6912856,50.0167381],[8.6913062,50.0167443],[8.691355,50.0167595],[8.6914216,50.01678],[8.6914805,50.0167982],[8.6915223,50.0168111],[8.6915583,50.0168221],[8.6916115,50.0168385],[8.6917731,50.0168883],[8.6917755,50.0168891],[8.6918202,50.0169028],[8.6919517,50.0169434],[8.6920289,50.0169672],[8.6920568,50.0169757],[8.6920905,50.0169861],[8.6921088,50.0169918],[8.6922187,50.0170256],[8.6922514,50.0170357]]}},
{"type":"Feature","properties":{},"geometry":{"type":"LineString","coordinates":[[8.6906055,50.0184725],[8.6906204,50.0185146],[8.6906727,50.0185467]]}},
{"type":"Feature","properties":{},"geometry":{"type":"LineString","coordinates":[[8.6914872,50.0161658],[8.6915241,50.0161839],[8.6915704,50.0162061],[8.691577,50.0162092],[8.6915944,50.0162157],[8.6916574,50.0162391],[8.6917458,50.0162715],[8.6917859,50.0162844],[8.6918293,50.0162982],[8.6919343,50.0163318],[8.6919821,50.0163471],[8.6920064,50.0163549],[8.6920309,50.0163627],[8.6920996,50.0163847],[8.692147,50.0163999],[8.6921719,50.0164079],[8.6921832,50.0164115],[8.6921946,50.0164151],[8.6922022,50.0164176],[8.6922136,50.0164212],[8.6922287,50.016426],[8.6922695,50.0164391],[8.692318,50.0164546],[8.6923617,50.0164686],[8.6924061,50.0164828],[8.6924507,50.016497],[8.6924912,50.0165102],[8.6925788,50.016538],[8.6925877,50.0165409],[8.6925955,50.0165434],[8.6926447,50.0165591],[8.6926627,50.0165649],[8.6927127,50.0165809],[8.6927495,50.0165927],[8.6927708,50.0165995],[8.6928117,50.0166124]]}},
{"type":"Feature","properties":{},"geometry":{"type":"LineString","coordinates":[[8.6904321,50.0175231],[8.6903137,50.0170192],[8.6902957,50.016997],[8.6902731,50.016887],[8.6903484,50.0167815],[8.6903661,50.0167749],[8.6905036,50.0165898],[8.6905267,50.0165781]]}},
{"type":"Feature","properties":{},"geometry":{"type":"LineString","coordinates":[[8.6904487,50.0179684],[8.6905692,50.0179522]]}},
{"type":"Feature","properties":{},"geometry":{"type":"LineString","coordinates":[[8.690817,50.0195372],[8.6907532,50.0195157],[8.6907435,50.0195126],[8.6906773,50.0194901],[8.6906589,50.0194799]]}},
{"type":"Feature","properties":{},"geometry":{"type":"LineString","coordinates":[[8.6904641,50.0176227],[8.6905087,50.0177623],[8.6905692,50.0179522]]}},
{"type":"Feature","properties":{},"geometry":{"type":"LineString","coordinates":[[8.6904321,50.0175231],[8.6905164,50.0175141],[8.6908061,50.0174859],[8.6908827,50.0174783],[8.6909218,50.0174806],[8.6909789,50.0174853],[8.6911573,50.0174993],[8.6912856,50.0175342],[8.6914133,50.0175697],[8.6915278,50.0176017],[8.6916532,50.0176361],[8.6917507,50.0176629]]}},
{"type":"Feature","properties":{},"geometry":{"type":"LineString","coordinates":[[8.6909102,50.0181361],[8.6909325,50.0181318],[8.6910848,50.0181413],[8.6912445,50.0181513],[8.6913975,50.018161],[8.6915195,50.0181688],[8.6915649,50.0181714],[8.69186,50.0181894],[8.6920226,50.0182228],[8.6920239,50.018223],[8.6920254,50.0182231],[8.6920271,50.018223],[8.692029,50.0182227],[8.6920307,50.0182221]]}},
{"type":"Feature","properties":{},"geometry":{"type":"LineString","coordinates":[[8.691598,50.0188281],[8.6916038,50.0188181],[8.6916169,50.0188211],[8.6916854,50.0188371],[8.6916884,50.0188376],[8.6916916,50.0188377],[8.6916942,50.0188365],[8.6916958,50.0188352],[8.6917459,50.0187429],[8.6917911,50.0186477],[8.6918087,50.0186114],[8.6918351,50.0185568],[8.6918582,50.0185078],[8.6918765,50.0184691],[8.691904,50.0184125],[8.6919365,50.0183456]]}},
{"type":"Feature","properties":{},"geometry":{"type":"LineString","coordinates":[[8.6905692,50.0179522],[8.690589,50.018013],[8.6906118,50.0180782],[8.6906334,50.0181412],[8.690742,50.0181272],[8.6907813,50.0181221],[8.6909009,50.0181299],[8.6909102,50.0181361]]}},
{"type":"Feature","properties":{},"geometry":{"type":"LineString","coordinates":[[8.6892719,50.0185775],[8.6892168,50.0185068]]}},
{"type":"Feature","properties":{},"geometry":{"type":"LineString","coordinates":[[8.6918027,50.0178355],[8.6921713,50.0179091],[8.6921735,50.0179101],[8.6921751,50.0179111],[8.6921762,50.0179121],[8.692177,50.0179131],[8.6921774,50.017914],[8.6921775,50.0179148],[8.6921775,50.0179154],[8.6921774,50.0179159],[8.6921772,50.0179164],[8.6921727,50.0179262]]}},
{"type":"Feature","properties":{},"geometry":{"type":"LineString","coordinates":[[8.6908409,50.0186795],[8.6908521,50.0186866],[8.6908688,50.0186756],[8.6908757,50.0186742],[8.690882,50.0186761],[8.6909958,50.0187443],[8.6910347,50.0187672],[8.6910514,50.0187713],[8.6910941,50.0187817],[8.6911304,50.0187905],[8.691193,50.0188057],[8.6912903,50.018829],[8.6915606,50.0188932],[8.6915664,50.0188831]]}},
{"type":"Feature","properties":{},"geometry":{"type":"LineString","coordinates":[[8.6903585,50.0176887],[8.6904133,50.0178581],[8.6904487,50.0179684]]}},
{"type":"Feature","properties":{},"geometry":{"type":"LineString","coordinates":[[8.6892168,50.0185068],[8.6892144,50.0185072],[8.6892076,50.0185084],[8.6891974,50.0185096],[8.6891847,50.0185102],[8.6891704,50.0185096],[8.6891554,50.0185073],[8.6891406,50.0185026],[8.6891269,50.0184949],[8.6891152,50.0184837],[8.6891065,50.0184683],[8.6891013,50.0184431],[8.6890953,50.0184143],[8.6890849,50.0183639],[8.6890796,50.0183387],[8.689053,50.0182102],[8.6890398,50.0181463],[8.6890379,50.0181372],[8.6890354,50.0181252],[8.6890048,50.0179768]]}},
{"type":"Feature","properties":{},"geometry":{"type":"LineString","coordinates":[[8.6915606,50.0188932],[8.6915805,50.0188977],[8.6915837,50.0188986],[8.6915854,50.0189002],[8.6915856,50.0189023],[8.6915843,50.0189042],[8.6915309,50.0189962],[8.6915144,50.0190262],[8.691483,50.0190835],[8.6913726,50.0191824],[8.69128,50.0192644],[8.6912159,50.0193212],[8.6911857,50.019348]]}},
{"type":"Feature","properties":{},"geometry":{"type":"LineString","coordinates":[[8.6934777,50.0162185],[8.6934196,50.0163657],[8.693391,50.016438],[8.6932903,50.0166932],[8.6932802,50.0167081],[8.6932585,50.01674],[8.6932546,50.0167457],[8.6932057,50.0168189],[8.6931548,50.0168951],[8.6931152,50.0169514],[8.6930796,50.0169483]]}},
{"type":"Feature","properties":{},"geometry":{"type":"LineString","coordinates":[[8.6905729,50.0165334],[8.6905267,50.0165781]]}},
{"type":"Feature","properties":{},"geometry":{"type":"LineString","coordinates":[[8.6904321,50.0175231],[8.6904641,50.0176227]]}},
{"type":"Feature","properties":{},"geometry":{"type":"LineString","coordinates":[[8.6905692,50.0179522],[8.6905774,50.0179511]]}},
{"type":"Feature","properties":{},"geometry":{"type":"LineString","coordinates":[[8.6922514,50.0170357],[8.6922537,50.0170327]]}},
{"type":"Feature","properties":{},"geometry":{"type":"LineString","coordinates":[[8.6901947,50.019372],[8.6902168,50.019345]]}},
{"type":"Feature","properties":{},"geometry":{"type":"LineString","coordinates":[[8.6902266,50.0193331],[8.6901801,50.0193173],[8.6901584,50.0193099],[8.6901341,50.0193017],[8.6900778,50.0192788],[8.6900764,50.0192782],[8.6900727,50.0192764],[8.6900676,50.0192734],[8.690062,50.0192692],[8.6900566,50.0192638],[8.6900525,50.0192571],[8.6900504,50.0192492],[8.6900513,50.01924],[8.6900559,50.0192295],[8.6900651,50.0192177],[8.6901043,50.0191913],[8.6901232,50.0191786]]}},
{"type":"Feature","properties":{},"geometry":{"type":"LineString","coordinates":[[8.6908409,50.0186795],[8.6907808,50.0186417]]}},
{"type":"Feature","properties":{},"geometry":{"type":"LineString","coordinates":[[8.6907808,50.0186417],[8.6907645,50.0186314],[8.6907811,50.01862],[8.6907815,50.0186135],[8.6907712,50.0186072]]}},
{"type":"Feature","properties":{},"geometry":{"type":"LineString","coordinates":[[8.6906727,50.0185467],[8.6906679,50.01855]]}},
{"type":"Feature","properties":{},"geometry":{"type":"LineString","coordinates":[[8.6922514,50.0170357],[8.6921991,50.0171068]]}},
{"type":"Feature","properties":{},"geometry":{"type":"LineString","coordinates":[[8.6921991,50.0171068],[8.6922311,50.0171169],[8.6923584,50.0171555],[8.6924432,50.0171805],[8.6926596,50.0172478],[8.6927097,50.0172634]]}},
{"type":"Feature","properties":{},"geometry":{"type":"LineString","coordinates":[[8.6922514,50.0170357],[8.6922692,50.0170412],[8.6924089,50.0170843],[8.6925832,50.0171377],[8.6925984,50.0171424]]}},
{"type":"Feature","properties":{},"geometry":{"type":"LineString","coordinates":[[8.6925984,50.0171424],[8.6927083,50.0171765],[8.6927784,50.0171983],[8.6929074,50.0172261],[8.692915,50.0172261]]}},
{"type":"Feature","properties":{},"geometry":{"type":"LineString","coordinates":[[8.692915,50.0172261],[8.6929182,50.0172233],[8.6930541,50.0170255],[8.6930746,50.0169959],[8.6930803,50.0169424]]}},
{"type":"Feature","properties":{},"geometry":{"type":"LineString","coordinates":[[8.6921991,50.0171068],[8.6921234,50.0170828],[8.690696,50.0166437]]}},
{"type":"Feature","properties":{},"geometry":{"type":"LineString","coordinates":[[8.6911861,50.0160254],[8.691165,50.0160365],[8.6909414,50.0161567],[8.6908887,50.016185],[8.6908385,50.0162052]]}},
{"type":"Feature","properties":{},"geometry":{"type":"LineString","coordinates":[[8.690696,50.0166437],[8.6905117,50.0165857],[8.6905036,50.0165898]]}},
{"type":"Feature","properties":{},"geometry":{"type":"LineString","coordinates":[[8.6907952,50.0182071],[8.6908205,50.0182043],[8.6908574,50.0182054],[8.6910022,50.0182145],[8.6910847,50.0182197],[8.6911568,50.0182242],[8.6912435,50.0182295],[8.6913141,50.0182339],[8.691446,50.0182421]]}},
{"type":"Feature","properties":{},"geometry":{"type":"LineString","coordinates":[[8.6892719,50.0185775],[8.6892099,50.0185997],[8.6891971,50.018606],[8.6891882,50.0186129],[8.6891825,50.0186202],[8.6891794,50.0186275],[8.6891784,50.0186345],[8.6891788,50.0186409],[8.6891802,50.0186464],[8.6891819,50.0186507],[8.6891834,50.0186536],[8.689184,50.0186546],[8.6892492,50.018734]]}},
{"type":"Feature","properties":{},"geometry":{"type":"LineString","coordinates":[[8.6892168,50.0185068],[8.6893422,50.0184635]]}},
{"type":"Feature","properties":{},"geometry":{"type":"LineString","coordinates":[[8.6905151,50.0182096],[8.6904712,50.0180987]]}},
{"type":"Feature","properties":{},"geometry":{"type":"LineString","coordinates":[[8.691598,50.0188281],[8.6915664,50.0188831]]}},
{"type":"Feature","properties":{},"geometry":{"type":"LineString","coordinates":[[8.6916038,50.0188181],[8.6913175,50.018751],[8.6912862,50.0187437]]}},
{"type":"Feature","properties":{},"geometry":{"type":"LineString","coordinates":[[8.6912862,50.0187437],[8.6910988,50.0186996],[8.691023,50.0186525],[8.6910113,50.0186452]]}},
{"type":"Feature","properties":{},"geometry":{"type":"LineString","coordinates":[[8.6932057,50.0168189],[8.6932742,50.0168344]]}},
{"type":"Feature","properties":{},"geometry":{"type":"LineString","coordinates":[[8.6934196,50.0163657],[8.6934968,50.0163763]]}},
{"type":"Feature","properties":{},"geometry":{"type":"LineString","coordinates":[[8.6928117,50.0166124],[8.6929261,50.0166492],[8.6929421,50.0166543],[8.6930663,50.0166932],[8.6931393,50.0167161],[8.6931454,50.0167204],[8.6931448,50.0167247]]}},
{"type":"Feature","properties":{},"geometry":{"type":"LineString","coordinates":[[8.6901232,50.0191786],[8.6903646,50.0190161],[8.6905154,50.0189144],[8.6905477,50.0188924],[8.6906279,50.0188386],[8.6906336,50.0188348],[8.6907041,50.018787],[8.6908128,50.0187132],[8.6908521,50.0186866]]}},
{"type":"Feature","properties":{},"geometry":{"type":"LineString","coordinates":[[8.6930803,50.0169424],[8.6930961,50.0167922],[8.6931448,50.0167247]]}},
{"type":"Feature","properties":{},"geometry":{"type":"LineString","coordinates":[[8.6905729,50.0165334],[8.6905634,50.0165101],[8.6906725,50.0163614],[8.6906775,50.0163405],[8.6906862,50.0163282]]}},
{"type":"Feature","properties":{},"geometry":{"type":"LineString","coordinates":[[8.6904487,50.0179684],[8.6904597,50.0180052],[8.6904874,50.018097],[8.6904712,50.0180987]]}},
{"type":"Feature","properties":{},"geometry":{"type":"LineString","coordinates":[[8.6908279,50.0182045],[8.6908344,50.0181333],[8.6909102,50.0181361]]}},
{"type":"Feature","properties":{},"geometry":{"type":"LineString","coordinates":[[8.6920307,50.0182221],[8.6920307,50.0182221],[8.6920323,50.0182212],[8.6920336,50.0182197],[8.692095,50.0180911],[8.6921218,50.0180349],[8.6921727,50.0179262]]}},
{"type":"Feature","properties":{},"geometry":{"type":"LineString","coordinates":[[8.6907712,50.0186072],[8.6906727,50.0185467]]}},
{"type":"Feature","properties":{},"geometry":{"type":"LineString","coordinates":[[8.6906589,50.0194799],[8.6905318,50.0194367],[8.69035,50.0193748],[8.6902801,50.0193512],[8.6902266,50.0193331]]}},
{"type":"Feature","properties":{},"geometry":{"type":"LineString","coordinates":[[8.6902168,50.019345],[8.6902266,50.0193331]]}},
{"type":"Feature","properties":{},"geometry":{"type":"LineString","coordinates":[[8.6896169,50.0163031],[8.6902536,50.0162505],[8.6908385,50.0162052]]}},
{"type":"Feature","properties":{},"geometry":{"type":"LineString","coordinates":[[8.6930729,50.0173405],[8.6931086,50.0172688]]}},
{"type":"Feature","properties":{},"geometry":{"type":"LineString","coordinates":[[8.689164,50.0187236],[8.6892181,50.0187801],[8.6892837,50.0188468],[8.6893582,50.0189115],[8.6894293,50.0189715],[8.6895323,50.0190496],[8.6896494,50.0191213],[8.6897835,50.0191993],[8.6899894,50.0192926],[8.6901947,50.019372]]}},
{"type":"Feature","properties":{},"geometry":{"type":"LineString","coordinates":[[8.6915883,50.0197996],[8.6917985,50.0198384],[8.6918805,50.0198551],[8.6919882,50.0198694],[8.6922487,50.0199288],[8.6924606,50.0199679]]}},
{"type":"Feature","properties":{},"geometry":{"type":"LineString","coordinates":[[8.6924079,50.0199492],[8.6924738,50.0198004],[8.6924864,50.0197732],[8.6925267,50.0197196]]}},
{"type":"Feature","properties":{},"geometry":{"type":"LineString","coordinates":[[8.6925267,50.0197196],[8.6925823,50.0196443],[8.6926083,50.0196059]]}},
{"type":"Feature","properties":{},"geometry":{"type":"LineString","coordinates":[[8.6926088,50.0194075],[8.6926237,50.0193847],[8.6926394,50.0193638]]}},
{"type":"Feature","properties":{},"geometry":{"type":"LineString","coordinates":[[8.6926394,50.0193638],[8.6927065,50.0192747],[8.6927687,50.0191662]]}},
{"type":"Feature","properties":{},"geometry":{"type":"LineString","coordinates":[[8.6930248,50.0191368],[8.6929259,50.0191153],[8.6928151,50.01909]]}},
{"type":"Feature","properties":{},"geometry":{"type":"LineString","coordinates":[[8.6934748,50.0191723],[8.6934657,50.0191735],[8.6932616,50.0191729],[8.6931135,50.0191561],[8.6930248,50.0191368]]}},
{"type":"Feature","properties":{},"geometry":{"type":"LineString","coordinates":[[8.6934777,50.0190992],[8.6934768,50.0191666],[8.6934748,50.0191723]]}},
{"type":"Feature","properties":{},"geometry":{"type":"LineString","coordinates":[[8.6934722,50.0190189],[8.6934772,50.0190571],[8.6934777,50.0190992]]}},
{"type":"Feature","properties":{},"geometry":{"type":"LineString","coordinates":[[8.6934849,50.0189219],[8.6934626,50.0189424],[8.6934722,50.0190189]]}},
{"type":"Feature","properties":{},"geometry":{"type":"LineString","coordinates":[[8.6935955,50.018821],[8.6935816,50.0188335],[8.6935786,50.0188361],[8.6935728,50.0188409],[8.6934849,50.0189219]]}},
{"type":"Feature","properties":{},"geometry":{"type":"LineString","coordinates":[[8.6937374,50.0186939],[8.6936918,50.0187347],[8.6935955,50.018821]]}},
{"type":"Feature","properties":{},"geometry":{"type":"LineString","coordinates":[[8.6938365,50.0186043],[8.6937971,50.0186407],[8.6937374,50.0186939]]}},
{"type":"Feature","properties":{},"geometry":{"type":"LineString","coordinates":[[8.6931086,50.0172688],[8.6931938,50.0172863]]}},
{"type":"Feature","properties":{},"geometry":{"type":"LineString","coordinates":[[8.6932824,50.017304],[8.6934454,50.0173344],[8.6935011,50.0173452]]}},
{"type":"Feature","properties":{},"geometry":{"type":"LineString","coordinates":[[8.6941236,50.0174662],[8.694296,50.0174986],[8.6944156,50.0175218]]}},
{"type":"Feature","properties":{},"geometry":{"type":"LineString","coordinates":[[8.6938508,50.0174123],[8.6939238,50.0174263],[8.6940134,50.0174448],[8.6941236,50.0174662]]}},
{"type":"Feature","properties":{},"geometry":{"type":"LineString","coordinates":[[8.6936302,50.0173709],[8.693722,50.0173883],[8.6938508,50.0174123]]}},
{"type":"Feature","properties":{},"geometry":{"type":"LineString","coordinates":[[8.6935011,50.0173452],[8.6935655,50.017358],[8.6936082,50.0173665],[8.6936302,50.0173709]]}},
{"type":"Feature","properties":{},"geometry":{"type":"LineString","coordinates":[[8.6949627,50.0176082],[8.6950214,50.0176165],[8.6951051,50.017628],[8.6952003,50.0176417]]}},
{"type":"Feature","properties":{},"geometry":{"type":"LineString","coordinates":[[8.6986368,50.0202186],[8.6988374,50.020206]]}},
{"type":"Feature","properties":{},"geometry":{"type":"LineString","coordinates":[[8.6988374,50.020206],[8.6988455,50.0202269],[8.6988559,50.0202311],[8.6988816,50.0202271]]}},
{"type":"Feature","properties":{},"geometry":{"type":"LineString","coordinates":[[8.6971146,50.0205432],[8.697001,50.0203968],[8.6970028,50.0203857],[8.6970215,50.0203733]]}}
]
}
