{
"type": "FeatureCollection",
"name": "SELECT",
"xy_coordinate_resolution": 1e-07,
"features": [
{"type":"Feature","properties":{},"geometry":{"type":"Point","coordinates":[8.6946423,50.0150403]}},
{"type":"Feature","properties":{},"geometry":{"type":"Point","coordinates":[8.6935925,50.0145306]}},
{"type":"Feature","properties":{},"geometry":{"type":"Point","coordinates":[8.6941108,50.0147886]}},
{"type":"Feature","properties":{},"geometry":{"type":"Point","coordinates":[8.693674,50.0145466]}},
{"type":"Feature","properties":{},"geometry":{"type":"Point","coordinates":[8.6920997,50.0155329]}},
{"type":"Feature","properties":{},"geometry":{"type":"Point","coordinates":[8.6885754,50.0165014]}},
{"type":"Feature","properties":{},"geometry":{"type":"Point","coordinates":[8.6906964,50.0133097]}},
{"type":"Feature","properties":{},"geometry":{"type":"Point","coordinates":[8.6930846,50.0140219]}},
{"type":"Feature","properties":{},"geometry":{"type":"Point","coordinates":[8.6926799,50.015412]}},
{"type":"Feature","properties":{},"geometry":{"type":"Point","coordinates":[8.6915333,50.0158328]}},
{"type":"Feature","properties":{},"geometry":{"type":"Point","coordinates":[8.6934489,50.0143521]}},
{"type":"Feature","properties":{},"geometry":{"type":"Point","coordinates":[8.6918058,50.0156895]}},
{"type":"Feature","properties":{},"geometry":{"type":"Point","coordinates":[8.6921262,50.0141035]}},
{"type":"Feature","properties":{},"geometry":{"type":"Point","coordinates":[8.6919662,50.0156043]}},
{"type":"Feature","properties":{},"geometry":{"type":"Point","coordinates":[8.6886671,50.0169663]}},
{"type":"Feature","properties":{},"geometry":{"type":"Point","coordinates":[8.6922713,50.0154428]}},
{"type":"Feature","properties":{},"geometry":{"type":"Point","coordinates":[8.693381,50.0146767]}},
{"type":"Feature","properties":{},"geometry":{"type":"Point","coordinates":[8.6873787,50.0174056]}},
{"type":"Feature","properties":{},"geometry":{"type":"Point","coordinates":[8.6916739,50.015759]}},
{"type":"Feature","properties":{},"geometry":{"type":"Point","coordinates":[8.6917754,50.0133331]}},
{"type":"Feature","properties":{},"geometry":{"type":"Point","coordinates":[8.6932603,50.0141899]}},
{"type":"Feature","properties":{},"geometry":{"type":"Point","coordinates":[8.6897956,50.0162888]}},
{"type":"Feature","properties":{},"geometry":{"type":"Point","coordinates":[8.6871196,50.0175265]}},
{"type":"Feature","properties":{},"geometry":{"type":"Point","coordinates":[8.6925393,50.0137599]}},
{"type":"Feature","properties":{},"geometry":{"type":"Point","coordinates":[8.6872898,50.0175104]}},
{"type":"Feature","properties":{},"geometry":{"type":"Point","coordinates":[8.6873997,50.0175006]}},
{"type":"Feature","properties":{},"geometry":{"type":"Point","coordinates":[8.6924915,50.0136772]}},
{"type":"Feature","properties":{},"geometry":{"type":"Point","coordinates":[8.6872733,50.0174158]}},
{"type":"Feature","properties":{},"geometry":{"type":"Point","coordinates":[8.6922708,50.0139819]}},
{"type":"Feature","properties":{},"geometry":{"type":"Point","coordinates":[8.6918931,50.0134067]}},
{"type":"Feature","properties":{},"geometry":{"type":"Point","coordinates":[8.6879346,50.0174494]}},
{"type":"Feature","properties":{},"geometry":{"type":"Point","coordinates":[8.6896169,50.0163031]}},
{"type":"Feature","properties":{},"geometry":{"type":"Point","coordinates":[8.6925,50.0152908]}},
{"type":"Feature","properties":{},"geometry":{"type":"Point","coordinates":[8.6939026,50.0146843]}},
{"type":"Feature","properties":{},"geometry":{"type":"Point","coordinates":[8.6913541,50.0159312]}},
{"type":"Feature","properties":{},"geometry":{"type":"Point","coordinates":[8.68909,50.0156295]}},
{"type":"Feature","properties":{},"geometry":{"type":"Point","coordinates":[8.686656,50.0175705]}},
{"type":"Feature","properties":{},"geometry":{"type":"Point","coordinates":[8.6942097,50.0148417]}},
{"type":"Feature","properties":{},"geometry":{"type":"Point","coordinates":[8.687013,50.0175367]}},
{"type":"Feature","properties":{},"geometry":{"type":"Point","coordinates":[8.6887965,50.0163671]}},
{"type":"Feature","properties":{},"geometry":{"type":"Point","coordinates":[8.6887284,50.0163727]}},
{"type":"Feature","properties":{},"geometry":{"type":"Point","coordinates":[8.6875689,50.017485]}},
{"type":"Feature","properties":{},"geometry":{"type":"Point","coordinates":[8.6890701,50.0163456]}},
{"type":"Feature","properties":{},"geometry":{"type":"Point","coordinates":[8.6879929,50.0173457]}},
{"type":"Feature","properties":{},"geometry":{"type":"Point","coordinates":[8.6885722,50.0163862]}},
{"type":"Feature","properties":{},"geometry":{"type":"Point","coordinates":[8.6903188,50.0139186]}},
{"type":"Feature","properties":{},"geometry":{"type":"Point","coordinates":[8.6931385,50.0141031]}},
{"type":"Feature","properties":{},"geometry":{"type":"Point","coordinates":[8.6929683,50.0139256]}},
{"type":"Feature","properties":{},"geometry":{"type":"Point","coordinates":[8.6928474,50.0138173]}},
{"type":"Feature","properties":{},"geometry":{"type":"Point","coordinates":[8.6943724,50.0152747]}},
{"type":"Feature","properties":{},"geometry":{"type":"Point","coordinates":[8.6932364,50.0147782]}},
{"type":"Feature","properties":{},"geometry":{"type":"Point","coordinates":[8.6931192,50.0148609]}},
{"type":"Feature","properties":{},"geometry":{"type":"Point","coordinates":[8.6930068,50.0149401]}},
{"type":"Feature","properties":{},"geometry":{"type":"Point","coordinates":[8.6928931,50.0150201]}},
{"type":"Feature","properties":{},"geometry":{"type":"Point","coordinates":[8.6927756,50.0150983]}},
{"type":"Feature","properties":{},"geometry":{"type":"Point","coordinates":[8.6926267,50.0152044]}},
{"type":"Feature","properties":{},"geometry":{"type":"Point","coordinates":[8.6880117,50.0174423]}},
{"type":"Feature","properties":{},"geometry":{"type":"Point","coordinates":[8.6887524,50.0173714]}},
{"type":"Feature","properties":{},"geometry":{"type":"Point","coordinates":[8.6888739,50.0173585]}},
{"type":"Feature","properties":{},"geometry":{"type":"Point","coordinates":[8.6913465,50.0146397]}},
{"type":"Feature","properties":{},"geometry":{"type":"Point","coordinates":[8.6920113,50.0162705]}},
{"type":"Feature","properties":{},"geometry":{"type":"Point","coordinates":[8.6917209,50.0161646]}},
{"type":"Feature","properties":{},"geometry":{"type":"Point","coordinates":[8.685593,50.0176793]}},
{"type":"Feature","properties":{},"geometry":{"type":"Point","coordinates":[8.6857225,50.0176606]}},
{"type":"Feature","properties":{},"geometry":{"type":"Point","coordinates":[8.6868376,50.0166369]}},
{"type":"Feature","properties":{},"geometry":{"type":"Point","coordinates":[8.6868225,50.0165592]}},
{"type":"Feature","properties":{},"geometry":{"type":"Point","coordinates":[8.6853786,50.016771]}},
{"type":"Feature","properties":{},"geometry":{"type":"Point","coordinates":[8.6852162,50.0167813]}},
{"type":"Feature","properties":{},"geometry":{"type":"Point","coordinates":[8.6857005,50.0175635]}},
{"type":"Feature","properties":{},"geometry":{"type":"Point","coordinates":[8.68739,50.0174569]}},
{"type":"Feature","properties":{},"geometry":{"type":"Point","coordinates":[8.6867516,50.0174659]}},
{"type":"Feature","properties":{},"geometry":{"type":"Point","coordinates":[8.6913666,50.0147265]}},
{"type":"Feature","properties":{},"geometry":{"type":"Point","coordinates":[8.6912849,50.0146847]}},
{"type":"Feature","properties":{},"geometry":{"type":"Point","coordinates":[8.6912987,50.0146917]}},
{"type":"Feature","properties":{},"geometry":{"type":"Point","coordinates":[8.691296,50.0146903]}},
{"type":"Feature","properties":{},"geometry":{"type":"Point","coordinates":[8.6928474,50.0154612]}},
{"type":"Feature","properties":{},"geometry":{"type":"Point","coordinates":[8.6927981,50.015527]}},
{"type":"Feature","properties":{},"geometry":{"type":"Point","coordinates":[8.6928125,50.0155443]}},
{"type":"Feature","properties":{},"geometry":{"type":"Point","coordinates":[8.6929172,50.0155776]}},
{"type":"Feature","properties":{},"geometry":{"type":"Point","coordinates":[8.6881235,50.0164199]}},
{"type":"Feature","properties":{},"geometry":{"type":"Point","coordinates":[8.6870259,50.017439]}},
{"type":"Feature","properties":{},"geometry":{"type":"Point","coordinates":[8.6868225,50.0165592]}},
{"type":"Feature","properties":{},"geometry":{"type":"Point","coordinates":[8.6853786,50.016771]}},
{"type":"Feature","properties":{},"geometry":{"type":"Point","coordinates":[8.6852162,50.0167813]}},
{"type":"Feature","properties":{},"geometry":{"type":"Point","coordinates":[8.6853046,50.0170287]}},
{"type":"Feature","properties":{},"geometry":{"type":"Point","coordinates":[8.685355,50.0172853]}},
{"type":"Feature","properties":{},"geometry":{"type":"Point","coordinates":[8.6853916,50.0174732]}},
{"type":"Feature","properties":{},"geometry":{"type":"Point","coordinates":[8.6857005,50.0175635]}},
{"type":"Feature","properties":{},"geometry":{"type":"Point","coordinates":[8.6857225,50.0176606]}},
{"type":"Feature","properties":{},"geometry":{"type":"Point","coordinates":[8.6854317,50.0176936]}},
{"type":"Feature","properties":{},"geometry":{"type":"Point","coordinates":[8.6854851,50.0179609]}},
{"type":"Feature","properties":{},"geometry":{"type":"Point","coordinates":[8.6863919,50.0175955]}},
{"type":"Feature","properties":{},"geometry":{"type":"Point","coordinates":[8.6863526,50.0175014]}},
{"type":"Feature","properties":{},"geometry":{"type":"Point","coordinates":[8.6866415,50.0175719]}},
{"type":"Feature","properties":{},"geometry":{"type":"Point","coordinates":[8.6865644,50.0174828]}},
{"type":"Feature","properties":{},"geometry":{"type":"Point","coordinates":[8.6866356,50.0174764]}},
{"type":"Feature","properties":{},"geometry":{"type":"Point","coordinates":[8.6867516,50.0174659]}},
{"type":"Feature","properties":{},"geometry":{"type":"Point","coordinates":[8.6869236,50.0175452]}},
{"type":"Feature","properties":{},"geometry":{"type":"Point","coordinates":[8.6867033,50.0172573]}},
{"type":"Feature","properties":{},"geometry":{"type":"Point","coordinates":[8.6866891,50.0172104]}},
{"type":"Feature","properties":{},"geometry":{"type":"Point","coordinates":[8.6866732,50.0171408]}},
{"type":"Feature","properties":{},"geometry":{"type":"Point","coordinates":[8.6870874,50.0174331]}},
{"type":"Feature","properties":{},"geometry":{"type":"Point","coordinates":[8.6872463,50.0174182]}},
{"type":"Feature","properties":{},"geometry":{"type":"Point","coordinates":[8.6873155,50.0168584]}},
{"type":"Feature","properties":{},"geometry":{"type":"Point","coordinates":[8.6853916,50.0174732]}},
{"type":"Feature","properties":{},"geometry":{"type":"Point","coordinates":[8.6854851,50.0179609]}},
{"type":"Feature","properties":{},"geometry":{"type":"Point","coordinates":[8.6887524,50.0173714]}},
{"type":"Feature","properties":{},"geometry":{"type":"Point","coordinates":[8.6888739,50.0173585]}},
{"type":"Feature","properties":{},"geometry":{"type":"Point","coordinates":[8.6903004,50.0174986]}},
{"type":"Feature","properties":{},"geometry":{"type":"Point","coordinates":[8.6903004,50.0174986]}},
{"type":"Feature","properties":{},"geometry":{"type":"Point","coordinates":[8.6901412,50.0172393]}},
{"type":"Feature","properties":{},"geometry":{"type":"Point","coordinates":[8.6896857,50.0172823]}},
{"type":"Feature","properties":{},"geometry":{"type":"Point","coordinates":[8.6884395,50.016496]}},
{"type":"Feature","properties":{},"geometry":{"type":"Point","coordinates":[8.6887311,50.0172744]}},
{"type":"Feature","properties":{},"geometry":{"type":"Point","coordinates":[8.6888573,50.0172616]}},
{"type":"Feature","properties":{},"geometry":{"type":"Point","coordinates":[8.6890924,50.0172397]}},
{"type":"Feature","properties":{},"geometry":{"type":"Point","coordinates":[8.6893604,50.0172146]}},
{"type":"Feature","properties":{},"geometry":{"type":"Point","coordinates":[8.688759,50.0167952]}},
{"type":"Feature","properties":{},"geometry":{"type":"Point","coordinates":[8.6902059,50.0170685]}},
{"type":"Feature","properties":{},"geometry":{"type":"Point","coordinates":[8.690163,50.0168789]}},
{"type":"Feature","properties":{},"geometry":{"type":"Point","coordinates":[8.6901172,50.01669]}},
{"type":"Feature","properties":{},"geometry":{"type":"Point","coordinates":[8.6888206,50.0164641]}},
{"type":"Feature","properties":{},"geometry":{"type":"Point","coordinates":[8.6929027,50.0148961]}},
{"type":"Feature","properties":{},"geometry":{"type":"Point","coordinates":[8.693071,50.0147777]}},
{"type":"Feature","properties":{},"geometry":{"type":"Point","coordinates":[8.6928345,50.014944]}},
{"type":"Feature","properties":{},"geometry":{"type":"Point","coordinates":[8.6924268,50.0152315]}},
{"type":"Feature","properties":{},"geometry":{"type":"Point","coordinates":[8.6919345,50.01503]}},
{"type":"Feature","properties":{},"geometry":{"type":"Point","coordinates":[8.6918446,50.0149836]}},
{"type":"Feature","properties":{},"geometry":{"type":"Point","coordinates":[8.6914573,50.0147813]}},
{"type":"Feature","properties":{},"geometry":{"type":"Point","coordinates":[8.6913666,50.0147265]}},
{"type":"Feature","properties":{},"geometry":{"type":"Point","coordinates":[8.6912849,50.0146847]}},
{"type":"Feature","properties":{},"geometry":{"type":"Point","coordinates":[8.6908495,50.0141244]}},
{"type":"Feature","properties":{},"geometry":{"type":"Point","coordinates":[8.6911189,50.013921]}},
{"type":"Feature","properties":{},"geometry":{"type":"Point","coordinates":[8.6916707,50.0135506]}},
{"type":"Feature","properties":{},"geometry":{"type":"Point","coordinates":[8.6913617,50.0146079]}},
{"type":"Feature","properties":{},"geometry":{"type":"Point","coordinates":[8.6915564,50.0144467]}},
{"type":"Feature","properties":{},"geometry":{"type":"Point","coordinates":[8.6917867,50.014256]}},
{"type":"Feature","properties":{},"geometry":{"type":"Point","coordinates":[8.6919022,50.0141607]}},
{"type":"Feature","properties":{},"geometry":{"type":"Point","coordinates":[8.6919452,50.0142556]}},
{"type":"Feature","properties":{},"geometry":{"type":"Point","coordinates":[8.6919605,50.0142429]}},
{"type":"Feature","properties":{},"geometry":{"type":"Point","coordinates":[8.6921079,50.0141196]}},
{"type":"Feature","properties":{},"geometry":{"type":"Point","coordinates":[8.6921948,50.014046]}},
{"type":"Feature","properties":{},"geometry":{"type":"Point","coordinates":[8.6932567,50.0146457]}},
{"type":"Feature","properties":{},"geometry":{"type":"Point","coordinates":[8.6932567,50.0146457]}},
{"type":"Feature","properties":{},"geometry":{"type":"Point","coordinates":[8.6885942,50.0159452]}},
{"type":"Feature","properties":{},"geometry":{"type":"Point","coordinates":[8.6884669,50.0160056]}},
{"type":"Feature","properties":{},"geometry":{"type":"Point","coordinates":[8.6881918,50.0161009]}},
{"type":"Feature","properties":{},"geometry":{"type":"Point","coordinates":[8.6881143,50.0160291]}},
{"type":"Feature","properties":{},"geometry":{"type":"Point","coordinates":[8.6881652,50.0160762]}},
{"type":"Feature","properties":{},"geometry":{"type":"Point","coordinates":[8.6885722,50.0163862]}},
{"type":"Feature","properties":{},"geometry":{"type":"Point","coordinates":[8.6874413,50.0163362]}},
{"type":"Feature","properties":{},"geometry":{"type":"Point","coordinates":[8.6877148,50.0162112]}},
{"type":"Feature","properties":{},"geometry":{"type":"Point","coordinates":[8.6880175,50.0160732]}},
{"type":"Feature","properties":{},"geometry":{"type":"Point","coordinates":[8.6888781,50.0156936]}},
{"type":"Feature","properties":{},"geometry":{"type":"Point","coordinates":[8.6886622,50.0158831]}},
{"type":"Feature","properties":{},"geometry":{"type":"Point","coordinates":[8.6884285,50.015999]}},
{"type":"Feature","properties":{},"geometry":{"type":"Point","coordinates":[8.6887489,50.016371]}},
{"type":"Feature","properties":{},"geometry":{"type":"Point","coordinates":[8.6897548,50.0160481]}},
{"type":"Feature","properties":{},"geometry":{"type":"Point","coordinates":[8.6857798,50.0175564]}},
{"type":"Feature","properties":{},"geometry":{"type":"Point","coordinates":[8.6917209,50.0161646]}},
{"type":"Feature","properties":{},"geometry":{"type":"Point","coordinates":[8.6922491,50.0162774]}},
{"type":"Feature","properties":{},"geometry":{"type":"Point","coordinates":[8.6924249,50.0160492]}},
{"type":"Feature","properties":{},"geometry":{"type":"Point","coordinates":[8.6943434,50.015301]}},
{"type":"Feature","properties":{},"geometry":{"type":"Point","coordinates":[8.6928151,50.0150716]}},
{"type":"Feature","properties":{},"geometry":{"type":"Point","coordinates":[8.6932403,50.0147756]}},
{"type":"Feature","properties":{},"geometry":{"type":"Point","coordinates":[8.6943838,50.0149223]}},
{"type":"Feature","properties":{},"geometry":{"type":"Point","coordinates":[8.6945165,50.0151524]}},
{"type":"Feature","properties":{},"geometry":{"type":"Point","coordinates":[8.6926229,50.015207]}},
{"type":"Feature","properties":{},"geometry":{"type":"Point","coordinates":[8.6917878,50.0156991]}},
{"type":"Feature","properties":{},"geometry":{"type":"Point","coordinates":[8.6927971,50.0157312]}},
{"type":"Feature","properties":{},"geometry":{"type":"Point","coordinates":[8.6919755,50.0155994]}},
{"type":"Feature","properties":{},"geometry":{"type":"Point","coordinates":[8.6981667,50.0219226]}},
{"type":"Feature","properties":{},"geometry":{"type":"Point","coordinates":[8.7036831,50.0276525]}},
{"type":"Feature","properties":{},"geometry":{"type":"Point","coordinates":[8.7016411,50.0268441]}},
{"type":"Feature","properties":{},"geometry":{"type":"Point","coordinates":[8.7003034,50.0250792]}},
{"type":"Feature","properties":{},"geometry":{"type":"Point","coordinates":[8.6990396,50.0233311]}},
{"type":"Feature","properties":{},"geometry":{"type":"Point","coordinates":[8.69708,50.0204488]}},
{"type":"Feature","properties":{},"geometry":{"type":"Point","coordinates":[8.6989461,50.0232184]}},
{"type":"Feature","properties":{},"geometry":{"type":"Point","coordinates":[8.6971146,50.0205432]}},
{"type":"Feature","properties":{},"geometry":{"type":"Point","coordinates":[8.6970215,50.0203733]}},
{"type":"Feature","properties":{},"geometry":{"type":"Point","coordinates":[8.6964838,50.0197245]}},
{"type":"Feature","properties":{},"geometry":{"type":"Point","coordinates":[8.699084,50.020284]}},
{"type":"Feature","properties":{},"geometry":{"type":"Point","coordinates":[8.6987378,50.020323]}},
{"type":"Feature","properties":{},"geometry":{"type":"Point","coordinates":[8.6969723,50.02037]}},
{"type":"Feature","properties":{},"geometry":{"type":"Point","coordinates":[8.6966054,50.0198852]}},
{"type":"Feature","properties":{},"geometry":{"type":"Point","coordinates":[8.6963837,50.0195923]}},
{"type":"Feature","properties":{},"geometry":{"type":"Point","coordinates":[8.6959079,50.0189528]}},
{"type":"Feature","properties":{},"geometry":{"type":"Point","coordinates":[8.6959188,50.018997]}},
{"type":"Feature","properties":{},"geometry":{"type":"Point","coordinates":[8.6962774,50.0194562]}},
{"type":"Feature","properties":{},"geometry":{"type":"Point","coordinates":[8.696192,50.0189419]}},
{"type":"Feature","properties":{},"geometry":{"type":"Point","coordinates":[8.6963715,50.0189595]}},
{"type":"Feature","properties":{},"geometry":{"type":"Point","coordinates":[8.6964069,50.0190081]}},
{"type":"Feature","properties":{},"geometry":{"type":"Point","coordinates":[8.6971006,50.0190701]}},
{"type":"Feature","properties":{},"geometry":{"type":"Point","coordinates":[8.6972262,50.0190814]}},
{"type":"Feature","properties":{},"geometry":{"type":"Point","coordinates":[8.6973781,50.0190951]}},
{"type":"Feature","properties":{},"geometry":{"type":"Point","coordinates":[8.6975179,50.0191077]}},
{"type":"Feature","properties":{},"geometry":{"type":"Point","coordinates":[8.6977551,50.0191291]}},
{"type":"Feature","properties":{},"geometry":{"type":"Point","coordinates":[8.6979109,50.0191428]}},
{"type":"Feature","properties":{},"geometry":{"type":"Point","coordinates":[8.6911914,50.0147451]}},
{"type":"Feature","properties":{},"geometry":{"type":"Point","coordinates":[8.6898821,50.0159663]}},
{"type":"Feature","properties":{},"geometry":{"type":"Point","coordinates":[8.6899944,50.0160235]}},
{"type":"Feature","properties":{},"geometry":{"type":"Point","coordinates":[8.696822,50.0225976]}},
{"type":"Feature","properties":{},"geometry":{"type":"Point","coordinates":[8.6966299,50.0238797]}},
{"type":"Feature","properties":{},"geometry":{"type":"Point","coordinates":[8.6956309,50.0219013]}},
{"type":"Feature","properties":{},"geometry":{"type":"Point","coordinates":[8.7003034,50.0250792]}},
{"type":"Feature","properties":{},"geometry":{"type":"Point","coordinates":[8.695653,50.0194415]}},
{"type":"Feature","properties":{},"geometry":{"type":"Point","coordinates":[8.6956321,50.0216183]}},
{"type":"Feature","properties":{},"geometry":{"type":"Point","coordinates":[8.6971738,50.0217672]}},
{"type":"Feature","properties":{},"geometry":{"type":"Point","coordinates":[8.6956204,50.023488]}},
{"type":"Feature","properties":{},"geometry":{"type":"Point","coordinates":[8.7016411,50.0268441]}},
{"type":"Feature","properties":{},"geometry":{"type":"Point","coordinates":[8.6988023,50.02304]}},
{"type":"Feature","properties":{},"geometry":{"type":"Point","coordinates":[8.6956467,50.0204448]}},
{"type":"Feature","properties":{},"geometry":{"type":"Point","coordinates":[8.6967728,50.0228162]}},
{"type":"Feature","properties":{},"geometry":{"type":"Point","coordinates":[8.6963116,50.0232544]}},
{"type":"Feature","properties":{},"geometry":{"type":"Point","coordinates":[8.6979934,50.0228489]}},
{"type":"Feature","properties":{},"geometry":{"type":"Point","coordinates":[8.7036831,50.0276525]}},
{"type":"Feature","properties":{},"geometry":{"type":"Point","coordinates":[8.6974156,50.022987]}},
{"type":"Feature","properties":{},"geometry":{"type":"Point","coordinates":[8.6978615,50.0229021]}},
{"type":"Feature","properties":{},"geometry":{"type":"Point","coordinates":[8.6970004,50.0232152]}},
{"type":"Feature","properties":{},"geometry":{"type":"Point","coordinates":[8.6968824,50.0232372]}},
{"type":"Feature","properties":{},"geometry":{"type":"Point","coordinates":[8.6967895,50.0224894]}},
{"type":"Feature","properties":{},"geometry":{"type":"Point","coordinates":[8.6964308,50.0218685]}},
{"type":"Feature","properties":{},"geometry":{"type":"Point","coordinates":[8.695738,50.0232112]}},
{"type":"Feature","properties":{},"geometry":{"type":"Point","coordinates":[8.6956243,50.0227177]}},
{"type":"Feature","properties":{},"geometry":{"type":"Point","coordinates":[8.6961634,50.0219054]}},
{"type":"Feature","properties":{},"geometry":{"type":"Point","coordinates":[8.6957638,50.0232101]}},
{"type":"Feature","properties":{},"geometry":{"type":"Point","coordinates":[8.6961189,50.0231867]}},
{"type":"Feature","properties":{},"geometry":{"type":"Point","coordinates":[8.6956227,50.0231427]}},
{"type":"Feature","properties":{},"geometry":{"type":"Point","coordinates":[8.6956276,50.0232179]}},
{"type":"Feature","properties":{},"geometry":{"type":"Point","coordinates":[8.6989406,50.0232221]}},
{"type":"Feature","properties":{},"geometry":{"type":"Point","coordinates":[8.6963728,50.02317]}},
{"type":"Feature","properties":{},"geometry":{"type":"Point","coordinates":[8.6981797,50.0236276]}},
{"type":"Feature","properties":{},"geometry":{"type":"Point","coordinates":[8.6978148,50.0237411]}},
{"type":"Feature","properties":{},"geometry":{"type":"Point","coordinates":[8.6983771,50.0235667]}},
{"type":"Feature","properties":{},"geometry":{"type":"Point","coordinates":[8.6985712,50.0235084]}},
{"type":"Feature","properties":{},"geometry":{"type":"Point","coordinates":[8.6967471,50.0227252]}},
{"type":"Feature","properties":{},"geometry":{"type":"Point","coordinates":[8.6979532,50.0236939]}},
{"type":"Feature","properties":{},"geometry":{"type":"Point","coordinates":[8.6990396,50.0233311]}},
{"type":"Feature","properties":{},"geometry":{"type":"Point","coordinates":[8.6974026,50.0238507]}},
{"type":"Feature","properties":{},"geometry":{"type":"Point","coordinates":[8.6956501,50.0198068]}},
{"type":"Feature","properties":{},"geometry":{"type":"Point","coordinates":[8.6956501,50.0199404]}},
{"type":"Feature","properties":{},"geometry":{"type":"Point","coordinates":[8.6965363,50.0231592]}},
{"type":"Feature","properties":{},"geometry":{"type":"Point","coordinates":[8.6956398,50.0212127]}},
{"type":"Feature","properties":{},"geometry":{"type":"Point","coordinates":[8.6956533,50.0212917]}},
{"type":"Feature","properties":{},"geometry":{"type":"Point","coordinates":[8.6971222,50.0230719]}},
{"type":"Feature","properties":{},"geometry":{"type":"Point","coordinates":[8.6968521,50.0231384]}},
{"type":"Feature","properties":{},"geometry":{"type":"Point","coordinates":[8.6959584,50.0232762]}},
{"type":"Feature","properties":{},"geometry":{"type":"Point","coordinates":[8.6961914,50.0232619]}},
{"type":"Feature","properties":{},"geometry":{"type":"Point","coordinates":[8.6967969,50.022909]}},
{"type":"Feature","properties":{},"geometry":{"type":"Point","coordinates":[8.6974818,50.0230534]}},
{"type":"Feature","properties":{},"geometry":{"type":"Point","coordinates":[8.6976045,50.0230085]}},
{"type":"Feature","properties":{},"geometry":{"type":"Point","coordinates":[8.697292,50.0231106]}},
{"type":"Feature","properties":{},"geometry":{"type":"Point","coordinates":[8.6977067,50.0229672]}},
{"type":"Feature","properties":{},"geometry":{"type":"Point","coordinates":[8.6981554,50.0227929]}},
{"type":"Feature","properties":{},"geometry":{"type":"Point","coordinates":[8.6985307,50.0226782]}},
{"type":"Feature","properties":{},"geometry":{"type":"Point","coordinates":[8.6986984,50.0229016]}},
{"type":"Feature","properties":{},"geometry":{"type":"Point","coordinates":[8.696089,50.023874]}},
{"type":"Feature","properties":{},"geometry":{"type":"Point","coordinates":[8.6959624,50.0238721]}},
{"type":"Feature","properties":{},"geometry":{"type":"Point","coordinates":[8.6963249,50.023876]}},
{"type":"Feature","properties":{},"geometry":{"type":"Point","coordinates":[8.6956197,50.0236247]}},
{"type":"Feature","properties":{},"geometry":{"type":"Point","coordinates":[8.6956221,50.0232924]}},
{"type":"Feature","properties":{},"geometry":{"type":"Point","coordinates":[8.6965018,50.0238778]}},
{"type":"Feature","properties":{},"geometry":{"type":"Point","coordinates":[8.6956185,50.0237551]}},
{"type":"Feature","properties":{},"geometry":{"type":"Point","coordinates":[8.6956442,50.0213021]}},
{"type":"Feature","properties":{},"geometry":{"type":"Point","coordinates":[8.6973033,50.0230228]}},
{"type":"Feature","properties":{},"geometry":{"type":"Point","coordinates":[8.6976467,50.0228992]}},
{"type":"Feature","properties":{},"geometry":{"type":"Point","coordinates":[8.6968624,50.022744]}},
{"type":"Feature","properties":{},"geometry":{"type":"Point","coordinates":[8.6981122,50.0227236]}},
{"type":"Feature","properties":{},"geometry":{"type":"Point","coordinates":[8.6978917,50.0228005]}},
{"type":"Feature","properties":{},"geometry":{"type":"Point","coordinates":[8.6979837,50.0227691]}},
{"type":"Feature","properties":{},"geometry":{"type":"Point","coordinates":[8.6967598,50.0231445]}},
{"type":"Feature","properties":{},"geometry":{"type":"Point","coordinates":[8.6984751,50.022602]}},
{"type":"Feature","properties":{},"geometry":{"type":"Point","coordinates":[8.6956486,50.0202748]}},
{"type":"Feature","properties":{},"geometry":{"type":"Point","coordinates":[8.6956287,50.0221637]}},
{"type":"Feature","properties":{},"geometry":{"type":"Point","coordinates":[8.6956315,50.0219754]}},
{"type":"Feature","properties":{},"geometry":{"type":"Point","coordinates":[8.6956528,50.0196845]}},
{"type":"Feature","properties":{},"geometry":{"type":"Point","coordinates":[8.6967556,50.0203322]}},
{"type":"Feature","properties":{},"geometry":{"type":"Point","coordinates":[8.6956432,50.0207298]}},
{"type":"Feature","properties":{},"geometry":{"type":"Point","coordinates":[8.6956413,50.0210303]}},
{"type":"Feature","properties":{},"geometry":{"type":"Point","coordinates":[8.6956447,50.0206144]}},
{"type":"Feature","properties":{},"geometry":{"type":"Point","coordinates":[8.6969188,50.0229464]}},
{"type":"Feature","properties":{},"geometry":{"type":"Point","coordinates":[8.6967955,50.021819]}},
{"type":"Feature","properties":{},"geometry":{"type":"Point","coordinates":[8.6968411,50.0226642]}},
{"type":"Feature","properties":{},"geometry":{"type":"Point","coordinates":[8.6968485,50.0231008]}},
{"type":"Feature","properties":{},"geometry":{"type":"Point","coordinates":[8.696544,50.0232396]}},
{"type":"Feature","properties":{},"geometry":{"type":"Point","coordinates":[8.6967456,50.0238814]}},
{"type":"Feature","properties":{},"geometry":{"type":"Point","coordinates":[8.695639,50.0214322]}},
{"type":"Feature","properties":{},"geometry":{"type":"Point","coordinates":[8.6956467,50.0203828]}},
{"type":"Feature","properties":{},"geometry":{"type":"Point","coordinates":[8.6970094,50.0238737]}},
{"type":"Feature","properties":{},"geometry":{"type":"Point","coordinates":[8.6987175,50.0234589]}},
{"type":"Feature","properties":{},"geometry":{"type":"Point","coordinates":[8.697007,50.0217897]}},
{"type":"Feature","properties":{},"geometry":{"type":"Point","coordinates":[8.6971691,50.0238625]}},
{"type":"Feature","properties":{},"geometry":{"type":"Point","coordinates":[8.6956502,50.0200878]}},
{"type":"Feature","properties":{},"geometry":{"type":"Point","coordinates":[8.696609,50.0222307]}},
{"type":"Feature","properties":{},"geometry":{"type":"Point","coordinates":[8.6963386,50.0218121]}},
{"type":"Feature","properties":{},"geometry":{"type":"Point","coordinates":[8.6976371,50.023839]}},
{"type":"Feature","properties":{},"geometry":{"type":"Point","coordinates":[8.6956427,50.0208853]}},
{"type":"Feature","properties":{},"geometry":{"type":"Point","coordinates":[8.6967049,50.0225715]}},
{"type":"Feature","properties":{},"geometry":{"type":"Point","coordinates":[8.6966159,50.0218441]}},
{"type":"Feature","properties":{},"geometry":{"type":"Point","coordinates":[8.696965,50.0230879]}},
{"type":"Feature","properties":{},"geometry":{"type":"Point","coordinates":[8.6972749,50.0210191]}},
{"type":"Feature","properties":{},"geometry":{"type":"Point","coordinates":[8.6956527,50.0196378]}},
{"type":"Feature","properties":{},"geometry":{"type":"Point","coordinates":[8.6964337,50.0217988]}},
{"type":"Feature","properties":{},"geometry":{"type":"Point","coordinates":[8.6966163,50.0217738]}},
{"type":"Feature","properties":{},"geometry":{"type":"Point","coordinates":[8.6967131,50.0217608]}},
{"type":"Feature","properties":{},"geometry":{"type":"Point","coordinates":[8.6976082,50.0216372]}},
{"type":"Feature","properties":{},"geometry":{"type":"Point","coordinates":[8.6975234,50.0213461]}},
{"type":"Feature","properties":{},"geometry":{"type":"Point","coordinates":[8.6971341,50.0209607]}},
{"type":"Feature","properties":{},"geometry":{"type":"Point","coordinates":[8.6967807,50.0211022]}},
{"type":"Feature","properties":{},"geometry":{"type":"Point","coordinates":[8.6965541,50.02106]}},
{"type":"Feature","properties":{},"geometry":{"type":"Point","coordinates":[8.696356,50.0210938]}},
{"type":"Feature","properties":{},"geometry":{"type":"Point","coordinates":[8.6964261,50.0211618]}},
{"type":"Feature","properties":{},"geometry":{"type":"Point","coordinates":[8.6962254,50.021116]}},
{"type":"Feature","properties":{},"geometry":{"type":"Point","coordinates":[8.6961338,50.0212109]}},
{"type":"Feature","properties":{},"geometry":{"type":"Point","coordinates":[8.6959535,50.0212412]}},
{"type":"Feature","properties":{},"geometry":{"type":"Point","coordinates":[8.695985,50.0211557]}},
{"type":"Feature","properties":{},"geometry":{"type":"Point","coordinates":[8.697696,50.0216967]}},
{"type":"Feature","properties":{},"geometry":{"type":"Point","coordinates":[8.6956401,50.0211942]}},
{"type":"Feature","properties":{},"geometry":{"type":"Point","coordinates":[8.6956404,50.0211686]}},
{"type":"Feature","properties":{},"geometry":{"type":"Point","coordinates":[8.6956416,50.0210234]}},
{"type":"Feature","properties":{},"geometry":{"type":"Point","coordinates":[8.695647,50.0204176]}},
{"type":"Feature","properties":{},"geometry":{"type":"Point","coordinates":[8.6956482,50.0203148]}},
{"type":"Feature","properties":{},"geometry":{"type":"Point","coordinates":[8.6956498,50.0201681]}},
{"type":"Feature","properties":{},"geometry":{"type":"Point","coordinates":[8.6956501,50.0198344]}},
{"type":"Feature","properties":{},"geometry":{"type":"Point","coordinates":[8.6965434,50.0232337]}},
{"type":"Feature","properties":{},"geometry":{"type":"Point","coordinates":[8.6983455,50.0224214]}},
{"type":"Feature","properties":{},"geometry":{"type":"Point","coordinates":[8.696965,50.0230879]}},
{"type":"Feature","properties":{},"geometry":{"type":"Point","coordinates":[8.6967581,50.0223409]}},
{"type":"Feature","properties":{},"geometry":{"type":"Point","coordinates":[8.6966556,50.0218397]}},
{"type":"Feature","properties":{},"geometry":{"type":"Point","coordinates":[8.6974281,50.0217321]}},
{"type":"Feature","properties":{},"geometry":{"type":"Point","coordinates":[8.697696,50.0216967]}},
{"type":"Feature","properties":{},"geometry":{"type":"Point","coordinates":[8.6967074,50.0221549]}},
{"type":"Feature","properties":{},"geometry":{"type":"Point","coordinates":[8.6964337,50.0217988]}},
{"type":"Feature","properties":{},"geometry":{"type":"Point","coordinates":[8.6966163,50.0217738]}},
{"type":"Feature","properties":{},"geometry":{"type":"Point","coordinates":[8.6967131,50.0217608]}},
{"type":"Feature","properties":{},"geometry":{"type":"Point","coordinates":[8.6976082,50.0216372]}},
{"type":"Feature","properties":{},"geometry":{"type":"Point","coordinates":[8.6975234,50.0213461]}},
{"type":"Feature","properties":{},"geometry":{"type":"Point","coordinates":[8.6967807,50.0211022]}},
{"type":"Feature","properties":{},"geometry":{"type":"Point","coordinates":[8.6964261,50.0211618]}},
{"type":"Feature","properties":{},"geometry":{"type":"Point","coordinates":[8.6961338,50.0212109]}},
{"type":"Feature","properties":{},"geometry":{"type":"Point","coordinates":[8.6959535,50.0212412]}},
{"type":"Feature","properties":{},"geometry":{"type":"Point","coordinates":[8.695985,50.0211557]}},
{"type":"Feature","properties":{},"geometry":{"type":"Point","coordinates":[8.6962254,50.021116]}},
{"type":"Feature","properties":{},"geometry":{"type":"Point","coordinates":[8.696356,50.0210938]}},
{"type":"Feature","properties":{},"geometry":{"type":"Point","coordinates":[8.6965541,50.02106]}},
{"type":"Feature","properties":{},"geometry":{"type":"Point","coordinates":[8.6971341,50.0209607]}},
{"type":"Feature","properties":{},"geometry":{"type":"Point","coordinates":[8.6968323,50.0204354]}},
{"type":"Feature","properties":{},"geometry":{"type":"Point","coordinates":[8.6970571,50.0207312]}},
{"type":"Feature","properties":{},"geometry":{"type":"Point","coordinates":[8.6966876,50.0202442]}},
{"type":"Feature","properties":{},"geometry":{"type":"Point","coordinates":[8.696578,50.0201003]}},
{"type":"Feature","properties":{},"geometry":{"type":"Point","coordinates":[8.6981667,50.0219226]}},
{"type":"Feature","properties":{},"geometry":{"type":"Point","coordinates":[8.69708,50.0204488]}},
{"type":"Feature","properties":{},"geometry":{"type":"Point","coordinates":[8.6986952,50.0226297]}},
{"type":"Feature","properties":{},"geometry":{"type":"Point","coordinates":[8.6985263,50.0224017]}},
{"type":"Feature","properties":{},"geometry":{"type":"Point","coordinates":[8.6971444,50.0205837]}},
{"type":"Feature","properties":{},"geometry":{"type":"Point","coordinates":[8.698207,50.0219804]}},
{"type":"Feature","properties":{},"geometry":{"type":"Point","coordinates":[8.6976413,50.0212343]}},
{"type":"Feature","properties":{},"geometry":{"type":"Point","coordinates":[8.69887,50.0228588]}},
{"type":"Feature","properties":{},"geometry":{"type":"Point","coordinates":[8.6986294,50.0225411]}},
{"type":"Feature","properties":{},"geometry":{"type":"Point","coordinates":[8.6971948,50.0206491]}},
{"type":"Feature","properties":{},"geometry":{"type":"Point","coordinates":[8.6972992,50.0207845]}},
{"type":"Feature","properties":{},"geometry":{"type":"Point","coordinates":[8.6982791,50.0220752]}},
{"type":"Feature","properties":{},"geometry":{"type":"Point","coordinates":[8.6981013,50.0218411]}},
{"type":"Feature","properties":{},"geometry":{"type":"Point","coordinates":[8.6980066,50.0217172]}},
{"type":"Feature","properties":{},"geometry":{"type":"Point","coordinates":[8.6979305,50.0216149]}},
{"type":"Feature","properties":{},"geometry":{"type":"Point","coordinates":[8.6977768,50.0214135]}},
{"type":"Feature","properties":{},"geometry":{"type":"Point","coordinates":[8.6999231,50.0236516]}},
{"type":"Feature","properties":{},"geometry":{"type":"Point","coordinates":[8.7001491,50.0236193]}},
{"type":"Feature","properties":{},"geometry":{"type":"Point","coordinates":[8.7002411,50.0235998]}},
{"type":"Feature","properties":{},"geometry":{"type":"Point","coordinates":[8.7003994,50.0235655]}},
{"type":"Feature","properties":{},"geometry":{"type":"Point","coordinates":[8.7007283,50.0234962]}},
{"type":"Feature","properties":{},"geometry":{"type":"Point","coordinates":[8.7009094,50.0234577]}},
{"type":"Feature","properties":{},"geometry":{"type":"Point","coordinates":[8.7015248,50.0233265]}},
{"type":"Feature","properties":{},"geometry":{"type":"Point","coordinates":[8.7017129,50.0232863]}},
{"type":"Feature","properties":{},"geometry":{"type":"Point","coordinates":[8.7023625,50.0231713]}},
{"type":"Feature","properties":{},"geometry":{"type":"Point","coordinates":[8.7025571,50.0231477]}},
{"type":"Feature","properties":{},"geometry":{"type":"Point","coordinates":[8.7020134,50.0228885]}},
{"type":"Feature","properties":{},"geometry":{"type":"Point","coordinates":[8.7018352,50.0228397]}},
{"type":"Feature","properties":{},"geometry":{"type":"Point","coordinates":[8.701454,50.0230151]}},
{"type":"Feature","properties":{},"geometry":{"type":"Point","coordinates":[8.7000557,50.0233013]}},
{"type":"Feature","properties":{},"geometry":{"type":"Point","coordinates":[8.6999767,50.0231987]}},
{"type":"Feature","properties":{},"geometry":{"type":"Point","coordinates":[8.6996174,50.0234197]}},
{"type":"Feature","properties":{},"geometry":{"type":"Point","coordinates":[8.6995555,50.0233395]}},
{"type":"Feature","properties":{},"geometry":{"type":"Point","coordinates":[8.6994904,50.023255]}},
{"type":"Feature","properties":{},"geometry":{"type":"Point","coordinates":[8.6993873,50.0231108]}},
{"type":"Feature","properties":{},"geometry":{"type":"Point","coordinates":[8.6994174,50.0231604]}},
{"type":"Feature","properties":{},"geometry":{"type":"Point","coordinates":[8.7025134,50.0220629]}},
{"type":"Feature","properties":{},"geometry":{"type":"Point","coordinates":[8.6998128,50.0227888]}},
{"type":"Feature","properties":{},"geometry":{"type":"Point","coordinates":[8.7002526,50.0225626]}},
{"type":"Feature","properties":{},"geometry":{"type":"Point","coordinates":[8.7003733,50.0226099]}},
{"type":"Feature","properties":{},"geometry":{"type":"Point","coordinates":[8.69908,50.0224917]}},
{"type":"Feature","properties":{},"geometry":{"type":"Point","coordinates":[8.7024991,50.0228723]}},
{"type":"Feature","properties":{},"geometry":{"type":"Point","coordinates":[8.7025671,50.0228197]}},
{"type":"Feature","properties":{},"geometry":{"type":"Point","coordinates":[8.6994032,50.0220164]}},
{"type":"Feature","properties":{},"geometry":{"type":"Point","coordinates":[8.7010757,50.0229433]}},
{"type":"Feature","properties":{},"geometry":{"type":"Point","coordinates":[8.7006051,50.0226861]}},
{"type":"Feature","properties":{},"geometry":{"type":"Point","coordinates":[8.6998333,50.0213781]}},
{"type":"Feature","properties":{},"geometry":{"type":"Point","coordinates":[8.7000669,50.0211199]}},
{"type":"Feature","properties":{},"geometry":{"type":"Point","coordinates":[8.6979298,50.0216139]}},
{"type":"Feature","properties":{},"geometry":{"type":"Point","coordinates":[8.6983919,50.0222242]}},
{"type":"Feature","properties":{},"geometry":{"type":"Point","coordinates":[8.6986223,50.0225318]}},
{"type":"Feature","properties":{},"geometry":{"type":"Point","coordinates":[8.6997818,50.0222649]}},
{"type":"Feature","properties":{},"geometry":{"type":"Point","coordinates":[8.7001271,50.0224194]}},
{"type":"Feature","properties":{},"geometry":{"type":"Point","coordinates":[8.7002958,50.0224833]}},
{"type":"Feature","properties":{},"geometry":{"type":"Point","coordinates":[8.7005419,50.0225748]}},
{"type":"Feature","properties":{},"geometry":{"type":"Point","coordinates":[8.7007689,50.0226369]}},
{"type":"Feature","properties":{},"geometry":{"type":"Point","coordinates":[8.7009591,50.0226722]}},
{"type":"Feature","properties":{},"geometry":{"type":"Point","coordinates":[8.7013779,50.022698]}},
{"type":"Feature","properties":{},"geometry":{"type":"Point","coordinates":[8.7015558,50.0220564]}},
{"type":"Feature","properties":{},"geometry":{"type":"Point","coordinates":[8.7015665,50.0219631]}},
{"type":"Feature","properties":{},"geometry":{"type":"Point","coordinates":[8.7016056,50.0217904]}},
{"type":"Feature","properties":{},"geometry":{"type":"Point","coordinates":[8.7016588,50.0216477]}},
{"type":"Feature","properties":{},"geometry":{"type":"Point","coordinates":[8.701822,50.0213526]}},
{"type":"Feature","properties":{},"geometry":{"type":"Point","coordinates":[8.7015121,50.0210574]}},
{"type":"Feature","properties":{},"geometry":{"type":"Point","coordinates":[8.7013623,50.0209703]}},
{"type":"Feature","properties":{},"geometry":{"type":"Point","coordinates":[8.7012148,50.0209211]}},
{"type":"Feature","properties":{},"geometry":{"type":"Point","coordinates":[8.7011786,50.0209251]}},
{"type":"Feature","properties":{},"geometry":{"type":"Point","coordinates":[8.7010258,50.0210584]}},
{"type":"Feature","properties":{},"geometry":{"type":"Point","coordinates":[8.700982,50.0211076]}},
{"type":"Feature","properties":{},"geometry":{"type":"Point","coordinates":[8.7009367,50.0211576]}},
{"type":"Feature","properties":{},"geometry":{"type":"Point","coordinates":[8.7008913,50.0212075]}},
{"type":"Feature","properties":{},"geometry":{"type":"Point","coordinates":[8.7008456,50.0212576]}},
{"type":"Feature","properties":{},"geometry":{"type":"Point","coordinates":[8.7008015,50.021308]}},
{"type":"Feature","properties":{},"geometry":{"type":"Point","coordinates":[8.7020298,50.0226521]}},
{"type":"Feature","properties":{},"geometry":{"type":"Point","coordinates":[8.7021655,50.0226314]}},
{"type":"Feature","properties":{},"geometry":{"type":"Point","coordinates":[8.7020824,50.0226445]}},
{"type":"Feature","properties":{},"geometry":{"type":"Point","coordinates":[8.7022475,50.0226187]}},
{"type":"Feature","properties":{},"geometry":{"type":"Point","coordinates":[8.7024207,50.0223034]}},
{"type":"Feature","properties":{},"geometry":{"type":"Point","coordinates":[8.7024392,50.0222552]}},
{"type":"Feature","properties":{},"geometry":{"type":"Point","coordinates":[8.7025066,50.0220803]}},
{"type":"Feature","properties":{},"geometry":{"type":"Point","coordinates":[8.702586,50.0218761]}},
{"type":"Feature","properties":{},"geometry":{"type":"Point","coordinates":[8.7026998,50.0216378]}},
{"type":"Feature","properties":{},"geometry":{"type":"Point","coordinates":[8.7027995,50.0214442]}},
{"type":"Feature","properties":{},"geometry":{"type":"Point","coordinates":[8.7026174,50.0211283]}},
{"type":"Feature","properties":{},"geometry":{"type":"Point","coordinates":[8.7018679,50.0217001]}},
{"type":"Feature","properties":{},"geometry":{"type":"Point","coordinates":[8.7017851,50.0220265]}},
{"type":"Feature","properties":{},"geometry":{"type":"Point","coordinates":[8.7017836,50.0222696]}},
{"type":"Feature","properties":{},"geometry":{"type":"Point","coordinates":[8.7025357,50.0210287]}},
{"type":"Feature","properties":{},"geometry":{"type":"Point","coordinates":[8.7027919,50.0211347]}},
{"type":"Feature","properties":{},"geometry":{"type":"Point","coordinates":[8.7028379,50.0203625]}},
{"type":"Feature","properties":{},"geometry":{"type":"Point","coordinates":[8.7028672,50.0203134]}},
{"type":"Feature","properties":{},"geometry":{"type":"Point","coordinates":[8.7029209,50.0202195]}},
{"type":"Feature","properties":{},"geometry":{"type":"Point","coordinates":[8.7021302,50.0201526]}},
{"type":"Feature","properties":{},"geometry":{"type":"Point","coordinates":[8.7021917,50.0201746]}},
{"type":"Feature","properties":{},"geometry":{"type":"Point","coordinates":[8.7021028,50.0201423]}},
{"type":"Feature","properties":{},"geometry":{"type":"Point","coordinates":[8.7020345,50.0201155]}},
{"type":"Feature","properties":{},"geometry":{"type":"Point","coordinates":[8.7018704,50.0200539]}},
{"type":"Feature","properties":{},"geometry":{"type":"Point","coordinates":[8.7021735,50.0203023]}},
{"type":"Feature","properties":{},"geometry":{"type":"Point","coordinates":[8.7019449,50.0205568]}},
{"type":"Feature","properties":{},"geometry":{"type":"Point","coordinates":[8.70159,50.0205079]}},
{"type":"Feature","properties":{},"geometry":{"type":"Point","coordinates":[8.7014334,50.0204655]}},
{"type":"Feature","properties":{},"geometry":{"type":"Point","coordinates":[8.7028853,50.0204418]}},
{"type":"Feature","properties":{},"geometry":{"type":"Point","coordinates":[8.7030021,50.0204832]}},
{"type":"Feature","properties":{},"geometry":{"type":"Point","coordinates":[8.6994467,50.0229232]}},
{"type":"Feature","properties":{},"geometry":{"type":"Point","coordinates":[8.6996981,50.0228388]}},
{"type":"Feature","properties":{},"geometry":{"type":"Point","coordinates":[8.699718,50.0228639]}},
{"type":"Feature","properties":{},"geometry":{"type":"Point","coordinates":[8.6986396,50.0202463]}},
{"type":"Feature","properties":{},"geometry":{"type":"Point","coordinates":[8.695975,50.0190689]}},
{"type":"Feature","properties":{},"geometry":{"type":"Point","coordinates":[8.6959094,50.0189587]}},
{"type":"Feature","properties":{},"geometry":{"type":"Point","coordinates":[8.6961286,50.0192656]}},
{"type":"Feature","properties":{},"geometry":{"type":"Point","coordinates":[8.6964566,50.0190126]}},
{"type":"Feature","properties":{},"geometry":{"type":"Point","coordinates":[8.6969323,50.019055]}},
{"type":"Feature","properties":{},"geometry":{"type":"Point","coordinates":[8.6960202,50.0191268]}},
{"type":"Feature","properties":{},"geometry":{"type":"Point","coordinates":[8.6987692,50.0203203]}},
{"type":"Feature","properties":{},"geometry":{"type":"Point","coordinates":[8.6991004,50.0203565]}},
{"type":"Feature","properties":{},"geometry":{"type":"Point","coordinates":[8.6989361,50.0202989]}},
{"type":"Feature","properties":{},"geometry":{"type":"Point","coordinates":[8.6988649,50.0203098]}},
{"type":"Feature","properties":{},"geometry":{"type":"Point","coordinates":[8.695916,50.0189855]}},
{"type":"Feature","properties":{},"geometry":{"type":"Point","coordinates":[8.6941072,50.018205]}},
{"type":"Feature","properties":{},"geometry":{"type":"Point","coordinates":[8.6937827,50.018145]}},
{"type":"Feature","properties":{},"geometry":{"type":"Point","coordinates":[8.6935451,50.0181012]}},
{"type":"Feature","properties":{},"geometry":{"type":"Point","coordinates":[8.6933149,50.0180595]}},
{"type":"Feature","properties":{},"geometry":{"type":"Point","coordinates":[8.6930335,50.018006]}},
{"type":"Feature","properties":{},"geometry":{"type":"Point","coordinates":[8.6928869,50.0179784]}},
{"type":"Feature","properties":{},"geometry":{"type":"Point","coordinates":[8.6928791,50.0179679]}},
{"type":"Feature","properties":{},"geometry":{"type":"Point","coordinates":[8.6929977,50.017714]}},
{"type":"Feature","properties":{},"geometry":{"type":"Point","coordinates":[8.6930414,50.017621]}},
{"type":"Feature","properties":{},"geometry":{"type":"Point","coordinates":[8.6931646,50.0173583]}},
{"type":"Feature","properties":{},"geometry":{"type":"Point","coordinates":[8.6930729,50.0173405]}},
{"type":"Feature","properties":{},"geometry":{"type":"Point","coordinates":[8.6934972,50.0174219]}},
{"type":"Feature","properties":{},"geometry":{"type":"Point","coordinates":[8.6937751,50.0174761]}},
{"type":"Feature","properties":{},"geometry":{"type":"Point","coordinates":[8.6940721,50.0175324]}},
{"type":"Feature","properties":{},"geometry":{"type":"Point","coordinates":[8.6947664,50.0176647]}},
{"type":"Feature","properties":{},"geometry":{"type":"Point","coordinates":[8.6951929,50.0177501]}},
{"type":"Feature","properties":{},"geometry":{"type":"Point","coordinates":[8.6952246,50.0177717]}},
{"type":"Feature","properties":{},"geometry":{"type":"Point","coordinates":[8.6952404,50.017837]}},
{"type":"Feature","properties":{},"geometry":{"type":"Point","coordinates":[8.6952772,50.0179987]}},
{"type":"Feature","properties":{},"geometry":{"type":"Point","coordinates":[8.6953111,50.018194]}},
{"type":"Feature","properties":{},"geometry":{"type":"Point","coordinates":[8.6953217,50.018283]}},
{"type":"Feature","properties":{},"geometry":{"type":"Point","coordinates":[8.6944838,50.0176143]}},
{"type":"Feature","properties":{},"geometry":{"type":"Point","coordinates":[8.6949218,50.0176939]}},
{"type":"Feature","properties":{},"geometry":{"type":"Point","coordinates":[8.6942351,50.018229]}},
{"type":"Feature","properties":{},"geometry":{"type":"Point","coordinates":[8.6928151,50.01909]}},
{"type":"Feature","properties":{},"geometry":{"type":"Point","coordinates":[8.6930248,50.0191368]}},
{"type":"Feature","properties":{},"geometry":{"type":"Point","coordinates":[8.6934748,50.0191723]}},
{"type":"Feature","properties":{},"geometry":{"type":"Point","coordinates":[8.6934777,50.0190992]}},
{"type":"Feature","properties":{},"geometry":{"type":"Point","coordinates":[8.6934722,50.0190189]}},
{"type":"Feature","properties":{},"geometry":{"type":"Point","coordinates":[8.6934849,50.0189219]}},
{"type":"Feature","properties":{},"geometry":{"type":"Point","coordinates":[8.6935955,50.018821]}},
{"type":"Feature","properties":{},"geometry":{"type":"Point","coordinates":[8.6937374,50.0186939]}},
{"type":"Feature","properties":{},"geometry":{"type":"Point","coordinates":[8.6938365,50.0186043]}},
{"type":"Feature","properties":{},"geometry":{"type":"Point","coordinates":[8.6939784,50.0184782]}},
{"type":"Feature","properties":{},"geometry":{"type":"Point","coordinates":[8.6928538,50.01566]}},
{"type":"Feature","properties":{},"geometry":{"type":"Point","coordinates":[8.6944182,50.0152357]}},
{"type":"Feature","properties":{},"geometry":{"type":"Point","coordinates":[8.6991179,50.0201905]}},
{"type":"Feature","properties":{},"geometry":{"type":"Point","coordinates":[8.6991485,50.0202733]}},
{"type":"Feature","properties":{},"geometry":{"type":"Point","coordinates":[8.6988559,50.0202311]}},
{"type":"Feature","properties":{},"geometry":{"type":"Point","coordinates":[8.7011956,50.0203987]}},
{"type":"Feature","properties":{},"geometry":{"type":"Point","coordinates":[8.7010301,50.0204155]}},
{"type":"Feature","properties":{},"geometry":{"type":"Point","coordinates":[8.6968786,50.0202462]}},
{"type":"Feature","properties":{},"geometry":{"type":"Point","coordinates":[8.6967124,50.0200266]}},
{"type":"Feature","properties":{},"geometry":{"type":"Point","coordinates":[8.6988816,50.0202271]}},
{"type":"Feature","properties":{},"geometry":{"type":"Point","coordinates":[8.6941595,50.01832]}},
{"type":"Feature","properties":{},"geometry":{"type":"Point","coordinates":[8.6939164,50.0181695]}},
{"type":"Feature","properties":{},"geometry":{"type":"Point","coordinates":[8.6928582,50.0177962]}},
{"type":"Feature","properties":{},"geometry":{"type":"Point","coordinates":[8.6945293,50.0182844]}},
{"type":"Feature","properties":{},"geometry":{"type":"Point","coordinates":[8.6965443,50.0198044]}},
{"type":"Feature","properties":{},"geometry":{"type":"Point","coordinates":[8.7004549,50.0206884]}},
{"type":"Feature","properties":{},"geometry":{"type":"Point","coordinates":[8.6986368,50.0202186]}},
{"type":"Feature","properties":{},"geometry":{"type":"Point","coordinates":[8.6988374,50.020206]}},
{"type":"Feature","properties":{},"geometry":{"type":"Point","coordinates":[8.6924606,50.0199679]}},
{"type":"Feature","properties":{},"geometry":{"type":"Point","coordinates":[8.6924079,50.0199492]}},
{"type":"Feature","properties":{},"geometry":{"type":"Point","coordinates":[8.6925267,50.0197196]}},
{"type":"Feature","properties":{},"geometry":{"type":"Point","coordinates":[8.6926083,50.0196059]}},
{"type":"Feature","properties":{},"geometry":{"type":"Point","coordinates":[8.6926706,50.0195253]}},
{"type":"Feature","properties":{},"geometry":{"type":"Point","coordinates":[8.6925449,50.0194904]}},
{"type":"Feature","properties":{},"geometry":{"type":"Point","coordinates":[8.6926088,50.0194075]}},
{"type":"Feature","properties":{},"geometry":{"type":"Point","coordinates":[8.6926394,50.0193638]}},
{"type":"Feature","properties":{},"geometry":{"type":"Point","coordinates":[8.6927687,50.0191662]}},
{"type":"Feature","properties":{},"geometry":{"type":"Point","coordinates":[8.6929498,50.0178141]}},
{"type":"Feature","properties":{},"geometry":{"type":"Point","coordinates":[8.6956282,50.0222954]}},
{"type":"Feature","properties":{},"geometry":{"type":"Point","coordinates":[8.693892,50.0182264]}},
{"type":"Feature","properties":{},"geometry":{"type":"Point","coordinates":[8.6902536,50.0162505]}},
{"type":"Feature","properties":{},"geometry":{"type":"Point","coordinates":[8.6908385,50.0162052]}},
{"type":"Feature","properties":{},"geometry":{"type":"Point","coordinates":[8.6906862,50.0163282]}},
{"type":"Feature","properties":{},"geometry":{"type":"Point","coordinates":[8.6904321,50.0175231]}},
{"type":"Feature","properties":{},"geometry":{"type":"Point","coordinates":[8.6904641,50.0176227]}},
{"type":"Feature","properties":{},"geometry":{"type":"Point","coordinates":[8.6905692,50.0179522]}},
{"type":"Feature","properties":{},"geometry":{"type":"Point","coordinates":[8.6922514,50.0170357]}},
{"type":"Feature","properties":{},"geometry":{"type":"Point","coordinates":[8.6888742,50.017954]}},
{"type":"Feature","properties":{},"geometry":{"type":"Point","coordinates":[8.689164,50.0187236]}},
{"type":"Feature","properties":{},"geometry":{"type":"Point","coordinates":[8.6901947,50.019372]}},
{"type":"Feature","properties":{},"geometry":{"type":"Point","coordinates":[8.6915883,50.0197996]}},
{"type":"Feature","properties":{},"geometry":{"type":"Point","coordinates":[8.6909102,50.0181361]}},
{"type":"Feature","properties":{},"geometry":{"type":"Point","coordinates":[8.690886,50.0175681]}},
{"type":"Feature","properties":{},"geometry":{"type":"Point","coordinates":[8.6930746,50.0169959]}},
{"type":"Feature","properties":{},"geometry":{"type":"Point","coordinates":[8.6921991,50.0171068]}},
{"type":"Feature","properties":{},"geometry":{"type":"Point","coordinates":[8.6905729,50.0165334]}},
{"type":"Feature","properties":{},"geometry":{"type":"Point","coordinates":[8.6905267,50.0165781]}},
{"type":"Feature","properties":{},"geometry":{"type":"Point","coordinates":[8.6905151,50.0182096]}},
{"type":"Feature","properties":{},"geometry":{"type":"Point","coordinates":[8.6904712,50.0180987]}},
{"type":"Feature","properties":{},"geometry":{"type":"Point","coordinates":[8.6904321,50.0175231]}},
{"type":"Feature","properties":{},"geometry":{"type":"Point","coordinates":[8.6904641,50.0176227]}},
{"type":"Feature","properties":{},"geometry":{"type":"Point","coordinates":[8.6908279,50.0182045]}},
{"type":"Feature","properties":{},"geometry":{"type":"Point","coordinates":[8.6898267,50.0191589]}},
{"type":"Feature","properties":{},"geometry":{"type":"Point","coordinates":[8.6899625,50.0191734]}},
{"type":"Feature","properties":{},"geometry":{"type":"Point","coordinates":[8.6891728,50.0186513]}},
{"type":"Feature","properties":{},"geometry":{"type":"Point","coordinates":[8.690817,50.0195372]}},
{"type":"Feature","properties":{},"geometry":{"type":"Point","coordinates":[8.6906055,50.0184725]}},
{"type":"Feature","properties":{},"geometry":{"type":"Point","coordinates":[8.6911857,50.019348]}},
{"type":"Feature","properties":{},"geometry":{"type":"Point","coordinates":[8.6910113,50.0186452]}},
{"type":"Feature","properties":{},"geometry":{"type":"Point","coordinates":[8.6919365,50.0183456]}},
{"type":"Feature","properties":{},"geometry":{"type":"Point","coordinates":[8.6934777,50.0162185]}},
{"type":"Feature","properties":{},"geometry":{"type":"Point","coordinates":[8.6914872,50.0161658]}},
{"type":"Feature","properties":{},"geometry":{"type":"Point","coordinates":[8.6893422,50.0184635]}},
{"type":"Feature","properties":{},"geometry":{"type":"Point","coordinates":[8.6907645,50.0186314]}},
{"type":"Feature","properties":{},"geometry":{"type":"Point","coordinates":[8.6931086,50.0172688]}},
{"type":"Feature","properties":{},"geometry":{"type":"Point","coordinates":[8.6931938,50.0172863]}},
{"type":"Feature","properties":{},"geometry":{"type":"Point","coordinates":[8.6932824,50.017304]}},
{"type":"Feature","properties":{},"geometry":{"type":"Point","coordinates":[8.6935011,50.0173452]}},
{"type":"Feature","properties":{},"geometry":{"type":"Point","coordinates":[8.6936302,50.0173709]}},
{"type":"Feature","properties":{},"geometry":{"type":"Point","coordinates":[8.6938508,50.0174123]}},
{"type":"Feature","properties":{},"geometry":{"type":"Point","coordinates":[8.6941236,50.0174662]}},
{"type":"Feature","properties":{},"geometry":{"type":"Point","coordinates":[8.6944156,50.0175218]}},
{"type":"Feature","properties":{},"geometry":{"type":"Point","coordinates":[8.6947345,50.0175755]}},
{"type":"Feature","properties":{},"geometry":{"type":"Point","coordinates":[8.6949627,50.0176082]}},
{"type":"Feature","properties":{},"geometry":{"type":"Point","coordinates":[8.6952003,50.0176417]}},
{"type":"Feature","properties":{},"geometry":{"type":"Point","coordinates":[8.695221,50.0175747]}},
{"type":"Feature","properties":{},"geometry":{"type":"Point","coordinates":[8.6941595,50.01832]}}
]
}
